{"type":"FeatureCollection","features":[{"type":"Feature","geometry":{"type":"Polygon","coordinates":[[[129.11473,37.53618],[129.11376,37.53579],[129.11285,37.5364],[129.1119,37.5362],[129.11202,37.53577],[129.11124,37.53563],[129.11077,37.53543],[129.11024,37.53527],[129.10941,37.53442],[129.10844,37.53475],[129.10776,37.53468],[129.10691,37.53443],[129.10594,37.53457],[129.10523,37.53444],[129.10408,37.53513],[129.10386,37.53477],[129.10342,37.53456],[129.10296,37.5347],[129.10211,37.53528],[129.10149,37.53545],[129.10124,37.53559],[129.10105,37.53587],[129.10047,37.53625],[129.09983,37.53644],[129.09943,37.53616],[129.09859,37.53616],[129.09729,37.5363],[129.09684,37.53607],[129.09664,37.53585],[129.09619,37.53569],[129.09552,37.5357],[129.09449,37.53578],[129.09409,37.53556],[129.09346,37.53543],[129.09263,37.5355],[129.09205,37.53548],[129.09089,37.53528],[129.09012,37.53493],[129.08925,37.53506],[129.08841,37.53582],[129.08787,37.53653],[129.08784,37.53683],[129.08678,37.53691],[129.08646,37.53707],[129.08601,37.53693],[129.08532,37.53689],[129.08507,37.53697],[129.08427,37.537],[129.08403,37.53678],[129.08296,37.53676],[129.08252,37.53627],[129.08267,37.53602],[129.08231,37.53538],[129.08179,37.53476],[129.08172,37.53415],[129.08112,37.5333],[129.08071,37.53299],[129.08041,37.53239],[129.07988,37.53205],[129.07952,37.53098],[129.07941,37.53014],[129.07942,37.52893],[129.07927,37.52833],[129.07881,37.52795],[129.0775,37.52743],[129.07692,37.52693],[129.07601,37.5262],[129.07598,37.52593],[129.07558,37.5256],[129.07556,37.52515],[129.07517,37.5245],[129.07409,37.52417],[129.07346,37.52423],[129.0727,37.524],[129.07209,37.5232],[129.07125,37.52254],[129.07024,37.52196],[129.07022,37.52167],[129.06997,37.52106],[129.07041,37.52099],[129.07104,37.52026],[129.07107,37.52],[129.07098,37.51895],[129.07132,37.51836],[129.07183,37.51793],[129.07194,37.51776],[129.07265,37.51606],[129.07377,37.51563],[129.07416,37.51556],[129.0746,37.5153],[129.07558,37.51515],[129.07593,37.51452],[129.07686,37.51412],[129.07766,37.51405],[129.0782,37.51375],[129.07896,37.51365],[129.0802,37.51333],[129.08104,37.51358],[129.08209,37.51329],[129.08371,37.5133],[129.08417,37.51358],[129.0861,37.51367],[129.08727,37.51245],[129.08812,37.51231],[129.08842,37.51216],[129.08932,37.51212],[129.08999,37.51236],[129.09174,37.51271],[129.09228,37.5127],[129.09259,37.51222],[129.09288,37.51205],[129.09361,37.51187],[129.09389,37.51188],[129.09468,37.51229],[129.09509,37.51213],[129.09571,37.51237],[129.0958,37.51249],[129.09697,37.51313],[129.09737,37.5132],[129.09801,37.51267],[129.0984,37.51281],[129.09869,37.5128],[129.09936,37.51306],[129.09985,37.51303],[129.10062,37.51313],[129.10144,37.51318],[129.10295,37.51293],[129.10341,37.51304],[129.104,37.51331],[129.10435,37.51331],[129.10455,37.51365],[129.10535,37.51369],[129.10594,37.5138],[129.10646,37.51354],[129.10691,37.51368],[129.10742,37.51342],[129.10775,37.51313],[129.10829,37.51304],[129.10834,37.5126],[129.10875,37.5119],[129.10898,37.51172],[129.10911,37.51107],[129.10987,37.51154],[129.11053,37.51173],[129.11074,37.51204],[129.11081,37.51273],[129.11157,37.51248],[129.11256,37.51193],[129.11325,37.51175],[129.11341,37.51132],[129.11369,37.51106],[129.11499,37.51061],[129.11559,37.51061],[129.11593,37.51072],[129.11671,37.51079],[129.11719,37.51078],[129.11771,37.51087],[129.11809,37.51149],[129.11865,37.51199],[129.11937,37.51224],[129.12013,37.51242],[129.12082,37.51253],[129.1214,37.51302],[129.12171,37.51353],[129.1224,37.51429],[129.12331,37.51472],[129.12472,37.51555],[129.12518,37.5159],[129.12545,37.5163],[129.12588,37.51637],[129.12585,37.51673],[129.12551,37.51692],[129.12551,37.51715],[129.12519,37.51725],[129.12464,37.51707],[129.12433,37.51716],[129.12395,37.5176],[129.12336,37.51854],[129.12305,37.51885],[129.12241,37.52032],[129.12219,37.52108],[129.1222,37.52169],[129.1225,37.52208],[129.12248,37.52227],[129.1227,37.52259],[129.12307,37.52283],[129.12305,37.52312],[129.12348,37.52348],[129.12423,37.52385],[129.1242,37.5241],[129.12447,37.52429],[129.12475,37.5247],[129.12493,37.5253],[129.12448,37.52545],[129.1246,37.5257],[129.1255,37.52524],[129.12556,37.52469],[129.12591,37.52477],[129.12599,37.52492],[129.12584,37.52527],[129.12495,37.5258],[129.1246,37.5259],[129.12414,37.52577],[129.12392,37.52601],[129.12376,37.52635],[129.12379,37.5267],[129.12414,37.5269],[129.12384,37.52716],[129.12415,37.52739],[129.12406,37.52774],[129.12368,37.52775],[129.12358,37.5275],[129.12315,37.52745],[129.1229,37.52756],[129.12245,37.5276],[129.12208,37.52794],[129.12245,37.52821],[129.12238,37.52859],[129.12194,37.52845],[129.12189,37.52888],[129.12159,37.52901],[129.12159,37.52927],[129.12135,37.52941],[129.12111,37.52928],[129.12083,37.52937],[129.12054,37.52964],[129.12018,37.53015],[129.12015,37.53063],[129.12036,37.53079],[129.12013,37.53094],[129.11967,37.53093],[129.11958,37.53116],[129.11892,37.53164],[129.11881,37.53197],[129.11851,37.53204],[129.11808,37.53228],[129.11766,37.53273],[129.11717,37.53305],[129.11637,37.53425],[129.11626,37.53464],[129.11636,37.5348],[129.11574,37.53515],[129.11505,37.53568],[129.11473,37.53618]]]},"properties":{"code":"32040510","name":"천곡동"}},{"type":"Feature","geometry":{"type":"Polygon","coordinates":[[[129.14267,37.49178],[129.14249,37.49206],[129.14134,37.49288],[129.14248,37.49352],[129.14384,37.49418],[129.14433,37.49528],[129.14458,37.49623],[129.14493,37.49663],[129.14466,37.4969],[129.14425,37.49633],[129.14378,37.49483],[129.14359,37.49494],[129.14379,37.49558],[129.14362,37.49559],[129.14351,37.49488],[129.14361,37.49444],[129.14195,37.49504],[129.13936,37.49376],[129.13372,37.49101],[129.13035,37.48938],[129.12677,37.48762],[129.12441,37.49069],[129.12598,37.49144],[129.12885,37.49286],[129.13471,37.4957],[129.13618,37.49642],[129.13458,37.4985],[129.13766,37.49998],[129.13777,37.50024],[129.13741,37.50064],[129.1363,37.50009],[129.1353,37.49956],[129.13367,37.49882],[129.13341,37.49903],[129.13316,37.49939],[129.13375,37.49967],[129.13352,37.49977],[129.1332,37.50018],[129.13254,37.49985],[129.13122,37.5014],[129.13505,37.50349],[129.13489,37.50369],[129.13559,37.50407],[129.14549,37.49881],[129.14901,37.49756],[129.14907,37.49739],[129.14945,37.49725],[129.14975,37.49734],[129.14977,37.49763],[129.14632,37.49883],[129.14568,37.49905],[129.14494,37.49946],[129.14172,37.50118],[129.14165,37.50132],[129.13916,37.50262],[129.13608,37.50428],[129.13525,37.50476],[129.13412,37.50605],[129.13202,37.5085],[129.13148,37.50916],[129.1299,37.51096],[129.12847,37.51264],[129.12806,37.51308],[129.1282,37.51342],[129.12795,37.51377],[129.12768,37.51391],[129.12734,37.51389],[129.12729,37.51416],[129.12775,37.51464],[129.12728,37.51459],[129.12626,37.51493],[129.12603,37.5153],[129.12603,37.51563],[129.12638,37.51597],[129.12642,37.51613],[129.12588,37.51637],[129.12545,37.5163],[129.12518,37.5159],[129.12472,37.51555],[129.12331,37.51472],[129.1224,37.51429],[129.12171,37.51353],[129.1214,37.51302],[129.12082,37.51253],[129.12013,37.51242],[129.11937,37.51224],[129.11865,37.51199],[129.11809,37.51149],[129.11771,37.51087],[129.11719,37.51078],[129.11671,37.51079],[129.11593,37.51072],[129.11604,37.50982],[129.11627,37.50828],[129.11646,37.50663],[129.11636,37.50594],[129.11642,37.50576],[129.11808,37.50558],[129.11818,37.50525],[129.11889,37.50499],[129.11906,37.5036],[129.11894,37.50348],[129.11847,37.50163],[129.11913,37.50145],[129.11891,37.50118],[129.1191,37.5005],[129.11931,37.50055],[129.11955,37.5001],[129.11896,37.49967],[129.11867,37.49937],[129.11859,37.49898],[129.11833,37.49854],[129.11776,37.49818],[129.11727,37.49805],[129.11727,37.49719],[129.11559,37.4972],[129.1153,37.49694],[129.1146,37.49605],[129.11501,37.49589],[129.11578,37.49603],[129.11584,37.49547],[129.11599,37.49511],[129.11521,37.49469],[129.11517,37.49434],[129.11536,37.4939],[129.11527,37.49328],[129.115,37.49285],[129.11464,37.49274],[129.11454,37.49252],[129.11398,37.49226],[129.11391,37.49205],[129.11395,37.4913],[129.11479,37.49001],[129.11485,37.48928],[129.11504,37.48894],[129.11553,37.48874],[129.11589,37.48851],[129.11538,37.48776],[129.115,37.48684],[129.11485,37.48621],[129.11481,37.48563],[129.11487,37.48524],[129.11513,37.48438],[129.11602,37.48451],[129.11614,37.4846],[129.11713,37.48485],[129.11741,37.48498],[129.11793,37.48522],[129.11835,37.48552],[129.11859,37.48579],[129.11915,37.48679],[129.11967,37.48651],[129.1192,37.48586],[129.1189,37.48518],[129.11977,37.48485],[129.12045,37.48447],[129.12047,37.48427],[129.12078,37.48391],[129.12142,37.48375],[129.12189,37.48377],[129.12264,37.48469],[129.12337,37.48522],[129.12498,37.48569],[129.12664,37.48611],[129.12777,37.48636],[129.1298,37.48691],[129.13064,37.48734],[129.13199,37.48656],[129.13281,37.48596],[129.13312,37.48595],[129.13421,37.48674],[129.13487,37.48733],[129.13629,37.48828],[129.13721,37.48869],[129.13808,37.48922],[129.1397,37.49017],[129.14031,37.49049],[129.141,37.49092],[129.1414,37.49076],[129.14172,37.49104],[129.14177,37.49122],[129.14206,37.49139],[129.14223,37.49186],[129.14267,37.49178]]]},"properties":{"code":"32040520","name":"송정동"}},{"type":"Feature","geometry":{"type":"Polygon","coordinates":[[[129.11593,37.51072],[129.11559,37.51061],[129.11499,37.51061],[129.11369,37.51106],[129.11341,37.51132],[129.11325,37.51175],[129.11256,37.51193],[129.11157,37.51248],[129.11081,37.51273],[129.11074,37.51204],[129.11053,37.51173],[129.10987,37.51154],[129.10911,37.51107],[129.10898,37.51172],[129.10875,37.5119],[129.10834,37.5126],[129.10829,37.51304],[129.10775,37.51313],[129.10742,37.51342],[129.10691,37.51368],[129.10646,37.51354],[129.10594,37.5138],[129.10535,37.51369],[129.10455,37.51365],[129.10435,37.51331],[129.104,37.51331],[129.10341,37.51304],[129.10295,37.51293],[129.10144,37.51318],[129.10062,37.51313],[129.09985,37.51303],[129.09936,37.51306],[129.09869,37.5128],[129.0984,37.51281],[129.09801,37.51267],[129.09737,37.5132],[129.09697,37.51313],[129.0958,37.51249],[129.09571,37.51237],[129.09509,37.51213],[129.09468,37.51229],[129.09389,37.51188],[129.09361,37.51187],[129.09288,37.51205],[129.09259,37.51222],[129.09228,37.5127],[129.09174,37.51271],[129.08999,37.51236],[129.08932,37.51212],[129.08842,37.51216],[129.08812,37.51231],[129.08727,37.51245],[129.0861,37.51367],[129.08417,37.51358],[129.08371,37.5133],[129.08209,37.51329],[129.08104,37.51358],[129.0802,37.51333],[129.07896,37.51365],[129.0782,37.51375],[129.07766,37.51405],[129.07686,37.51412],[129.07593,37.51452],[129.07558,37.51515],[129.0746,37.5153],[129.07416,37.51556],[129.07377,37.51563],[129.07265,37.51606],[129.07248,37.51602],[129.07202,37.51497],[129.07166,37.51471],[129.0719,37.51454],[129.07195,37.51391],[129.0721,37.51353],[129.0719,37.51323],[129.07186,37.51279],[129.07202,37.5124],[129.07179,37.51172],[129.07157,37.51149],[129.07064,37.51129],[129.07041,37.51064],[129.07089,37.51004],[129.0707,37.50954],[129.07109,37.50877],[129.07163,37.50858],[129.07115,37.50748],[129.07071,37.50723],[129.071,37.50629],[129.07127,37.50479],[129.07127,37.50413],[129.07118,37.50362],[129.07186,37.50305],[129.07191,37.50261],[129.07253,37.50215],[129.07316,37.50184],[129.07446,37.50069],[129.07528,37.50052],[129.07595,37.50002],[129.07577,37.4995],[129.076,37.49879],[129.07594,37.49856],[129.0763,37.4984],[129.0765,37.49806],[129.07751,37.49684],[129.07805,37.49582],[129.07792,37.4948],[129.07776,37.49394],[129.07814,37.49346],[129.07813,37.49248],[129.07798,37.49178],[129.07798,37.49102],[129.07772,37.49067],[129.07727,37.49023],[129.07737,37.48909],[129.07699,37.48848],[129.07672,37.48819],[129.07625,37.48807],[129.07593,37.4878],[129.07616,37.48731],[129.07594,37.48669],[129.07561,37.48621],[129.0755,37.485],[129.07539,37.48463],[129.07547,37.48426],[129.07567,37.48392],[129.0753,37.48263],[129.07482,37.48171],[129.07409,37.48039],[129.07286,37.48122],[129.07208,37.48147],[129.07138,37.48121],[129.07096,37.48069],[129.07071,37.47998],[129.07091,37.47975],[129.06948,37.47916],[129.0689,37.47941],[129.06828,37.47956],[129.06764,37.47983],[129.06687,37.4795],[129.06584,37.4788],[129.06531,37.47831],[129.06517,37.4778],[129.06382,37.47684],[129.06287,37.47675],[129.06229,37.47695],[129.06132,37.47701],[129.06004,37.47665],[129.0585,37.47638],[129.05685,37.47535],[129.05649,37.4752],[129.05608,37.47488],[129.05587,37.47439],[129.05513,37.47384],[129.05436,37.47364],[129.05399,37.47376],[129.05366,37.47307],[129.0533,37.47265],[129.05231,37.47235],[129.05246,37.47196],[129.05248,37.47128],[129.05217,37.47098],[129.05127,37.47058],[129.05112,37.47],[129.05078,37.46951],[129.05105,37.46912],[129.05074,37.46852],[129.05078,37.46801],[129.04963,37.46737],[129.04975,37.46666],[129.05029,37.46656],[129.04992,37.46587],[129.04954,37.46504],[129.04931,37.46474],[129.04889,37.46446],[129.04838,37.4642],[129.04815,37.46363],[129.0482,37.46312],[129.04835,37.46272],[129.04819,37.46213],[129.04775,37.46194],[129.04741,37.46144],[129.04711,37.46036],[129.04765,37.45959],[129.04786,37.45858],[129.04798,37.4583],[129.04826,37.45809],[129.04817,37.45771],[129.0482,37.45695],[129.04958,37.45664],[129.04997,37.45647],[129.05063,37.45604],[129.05147,37.45633],[129.05178,37.45659],[129.05241,37.45657],[129.05292,37.45683],[129.05383,37.45701],[129.05447,37.45801],[129.05435,37.45858],[129.05522,37.45894],[129.0562,37.45859],[129.05706,37.45876],[129.05765,37.45876],[129.05847,37.45892],[129.059,37.45891],[129.05932,37.45926],[129.06084,37.45956],[129.06215,37.45957],[129.06345,37.45979],[129.06459,37.45993],[129.06521,37.46029],[129.0643,37.46131],[129.06416,37.46198],[129.06396,37.46356],[129.06399,37.46383],[129.06419,37.46428],[129.06453,37.46455],[129.06451,37.46481],[129.0649,37.46522],[129.06552,37.46534],[129.06557,37.46546],[129.06609,37.46574],[129.06685,37.46575],[129.0675,37.46611],[129.06789,37.46644],[129.06852,37.46678],[129.06904,37.46664],[129.06983,37.46679],[129.07024,37.46714],[129.0708,37.46736],[129.07132,37.46775],[129.07178,37.46818],[129.07312,37.46821],[129.07332,37.46862],[129.07467,37.4685],[129.07566,37.46837],[129.07682,37.46918],[129.07705,37.4695],[129.07848,37.46981],[129.07912,37.4704],[129.08044,37.47102],[129.08113,37.47213],[129.08162,37.47281],[129.08203,37.47345],[129.08251,37.47408],[129.08262,37.47475],[129.08268,37.47573],[129.0818,37.47662],[129.08178,37.47703],[129.08142,37.47737],[129.08197,37.47775],[129.08241,37.47818],[129.08447,37.47805],[129.08583,37.4782],[129.08593,37.47887],[129.08615,37.47886],[129.08737,37.47927],[129.08794,37.47952],[129.08872,37.48012],[129.08801,37.48017],[129.08874,37.48045],[129.08984,37.4808],[129.09161,37.48077],[129.09203,37.48084],[129.09293,37.48114],[129.09393,37.48166],[129.09572,37.48247],[129.09585,37.48235],[129.0982,37.48243],[129.0998,37.4822],[129.10145,37.48221],[129.10828,37.48239],[129.10944,37.48225],[129.11058,37.48224],[129.11174,37.4823],[129.11297,37.48243],[129.11481,37.48269],[129.11582,37.48292],[129.11623,37.48334],[129.11646,37.48389],[129.11696,37.48396],[129.11741,37.48498],[129.11713,37.48485],[129.11614,37.4846],[129.11602,37.48451],[129.11513,37.48438],[129.11487,37.48524],[129.11481,37.48563],[129.11485,37.48621],[129.115,37.48684],[129.11538,37.48776],[129.11589,37.48851],[129.11553,37.48874],[129.11504,37.48894],[129.11485,37.48928],[129.11479,37.49001],[129.11395,37.4913],[129.11391,37.49205],[129.11398,37.49226],[129.11454,37.49252],[129.11464,37.49274],[129.115,37.49285],[129.11527,37.49328],[129.11536,37.4939],[129.11517,37.49434],[129.11521,37.49469],[129.11599,37.49511],[129.11584,37.49547],[129.11578,37.49603],[129.11501,37.49589],[129.1146,37.49605],[129.1153,37.49694],[129.11559,37.4972],[129.11727,37.49719],[129.11727,37.49805],[129.11776,37.49818],[129.11833,37.49854],[129.11859,37.49898],[129.11867,37.49937],[129.11896,37.49967],[129.11955,37.5001],[129.11931,37.50055],[129.1191,37.5005],[129.11891,37.50118],[129.11913,37.50145],[129.11847,37.50163],[129.11894,37.50348],[129.11906,37.5036],[129.11889,37.50499],[129.11818,37.50525],[129.11808,37.50558],[129.11642,37.50576],[129.11636,37.50594],[129.11646,37.50663],[129.11627,37.50828],[129.11604,37.50982],[129.11593,37.51072]]]},"properties":{"code":"32040530","name":"북삼동"}},{"type":"Feature","geometry":{"type":"Polygon","coordinates":[[[129.10192,37.53926],[129.10106,37.53949],[129.10036,37.53927],[129.10024,37.53945],[129.09989,37.53936],[129.09928,37.53934],[129.09859,37.53997],[129.09849,37.54016],[129.09777,37.54015],[129.09728,37.5399],[129.09596,37.54018],[129.09541,37.5407],[129.0949,37.54086],[129.0938,37.54173],[129.09349,37.54188],[129.09288,37.5423],[129.09212,37.54215],[129.09175,37.54225],[129.0912,37.54261],[129.08959,37.5425],[129.08872,37.54258],[129.08788,37.54278],[129.08738,37.54377],[129.08683,37.54407],[129.08664,37.54428],[129.08652,37.54468],[129.08572,37.54522],[129.0849,37.54529],[129.08436,37.54556],[129.08431,37.54566],[129.08354,37.54573],[129.08319,37.54556],[129.08299,37.54521],[129.08248,37.54513],[129.08182,37.54479],[129.08179,37.54435],[129.0812,37.54405],[129.0806,37.5442],[129.0805,37.5444],[129.07839,37.54447],[129.07782,37.54504],[129.07679,37.54535],[129.07532,37.54513],[129.07463,37.54531],[129.0738,37.54542],[129.0732,37.54573],[129.0725,37.54473],[129.072,37.54381],[129.07009,37.54326],[129.06982,37.54309],[129.06936,37.54261],[129.06845,37.54241],[129.06785,37.54199],[129.06761,37.54215],[129.06662,37.54183],[129.0664,37.54145],[129.0656,37.54127],[129.06477,37.54078],[129.06423,37.54098],[129.06351,37.54035],[129.06329,37.54036],[129.06261,37.53964],[129.06168,37.53889],[129.06116,37.53882],[129.06068,37.53838],[129.06009,37.53706],[129.06052,37.53664],[129.06044,37.5362],[129.0605,37.53574],[129.05999,37.53532],[129.06092,37.53448],[129.06091,37.53437],[129.06132,37.53407],[129.06143,37.53369],[129.06196,37.53339],[129.06194,37.53277],[129.06201,37.53245],[129.06229,37.53235],[129.06275,37.53205],[129.06289,37.53163],[129.06337,37.53078],[129.06389,37.52998],[129.06387,37.52967],[129.06431,37.52921],[129.06427,37.52903],[129.06471,37.52857],[129.06476,37.52813],[129.06502,37.5277],[129.06565,37.52683],[129.06585,37.52635],[129.06656,37.52635],[129.06702,37.52653],[129.06733,37.52604],[129.06794,37.52583],[129.06812,37.52568],[129.0682,37.52534],[129.06866,37.52494],[129.06861,37.52459],[129.06877,37.52422],[129.06921,37.52405],[129.06911,37.52346],[129.06936,37.5228],[129.07024,37.52196],[129.07125,37.52254],[129.07209,37.5232],[129.0727,37.524],[129.07346,37.52423],[129.07409,37.52417],[129.07517,37.5245],[129.07556,37.52515],[129.07558,37.5256],[129.07598,37.52593],[129.07601,37.5262],[129.07692,37.52693],[129.0775,37.52743],[129.07881,37.52795],[129.07927,37.52833],[129.07942,37.52893],[129.07941,37.53014],[129.07952,37.53098],[129.07988,37.53205],[129.08041,37.53239],[129.08071,37.53299],[129.08112,37.5333],[129.08172,37.53415],[129.08179,37.53476],[129.08231,37.53538],[129.08267,37.53602],[129.08252,37.53627],[129.08296,37.53676],[129.08403,37.53678],[129.08427,37.537],[129.08507,37.53697],[129.08532,37.53689],[129.08601,37.53693],[129.08646,37.53707],[129.08678,37.53691],[129.08784,37.53683],[129.08787,37.53653],[129.08841,37.53582],[129.08925,37.53506],[129.09012,37.53493],[129.09089,37.53528],[129.09205,37.53548],[129.09263,37.5355],[129.09346,37.53543],[129.09409,37.53556],[129.09449,37.53578],[129.09552,37.5357],[129.09619,37.53569],[129.09664,37.53585],[129.09684,37.53607],[129.09729,37.5363],[129.09859,37.53616],[129.09943,37.53616],[129.09983,37.53644],[129.10047,37.53625],[129.10105,37.53587],[129.10124,37.53559],[129.10149,37.53545],[129.10211,37.53528],[129.10296,37.5347],[129.10342,37.53456],[129.10386,37.53477],[129.10408,37.53513],[129.10523,37.53444],[129.10594,37.53457],[129.10691,37.53443],[129.10776,37.53468],[129.10844,37.53475],[129.10941,37.53442],[129.11024,37.53527],[129.11077,37.53543],[129.11124,37.53563],[129.11202,37.53577],[129.1119,37.5362],[129.11285,37.5364],[129.11376,37.53579],[129.11473,37.53618],[129.11449,37.53659],[129.11442,37.53692],[129.11463,37.53703],[129.11497,37.53632],[129.11547,37.5363],[129.11548,37.53695],[129.11563,37.53735],[129.11564,37.54009],[129.11623,37.54012],[129.11677,37.54056],[129.11652,37.54071],[129.11637,37.54049],[129.11548,37.54049],[129.11548,37.54019],[129.11241,37.54019],[129.11207,37.54068],[129.1118,37.54128],[129.11135,37.54131],[129.11125,37.54159],[129.11087,37.54131],[129.11055,37.54138],[129.11004,37.54093],[129.10973,37.54095],[129.10962,37.54128],[129.10873,37.54107],[129.10769,37.54063],[129.10648,37.53991],[129.10601,37.53984],[129.10547,37.53994],[129.10476,37.53966],[129.10432,37.5398],[129.10373,37.53965],[129.10304,37.53967],[129.10244,37.53931],[129.10192,37.53926]]]},"properties":{"code":"32040540","name":"부곡동"}},{"type":"Feature","geometry":{"type":"Polygon","coordinates":[[[129.10193,37.54969],[129.10169,37.54979],[129.10122,37.54962],[129.10121,37.54948],[129.10065,37.54935],[129.10025,37.54961],[129.0995,37.54956],[129.09833,37.54966],[129.09833,37.54976],[129.09753,37.5498],[129.09673,37.54959],[129.09627,37.5493],[129.09625,37.54879],[129.09615,37.54851],[129.09553,37.54781],[129.09569,37.54913],[129.09478,37.54989],[129.09436,37.55005],[129.09436,37.5504],[129.09375,37.55066],[129.09358,37.55079],[129.09275,37.55202],[129.09196,37.55235],[129.09065,37.55251],[129.08932,37.55277],[129.08911,37.55199],[129.0879,37.55235],[129.08829,37.55291],[129.0885,37.55472],[129.08863,37.55535],[129.08861,37.55566],[129.08769,37.55508],[129.08746,37.55584],[129.08617,37.55589],[129.08583,37.55518],[129.08553,37.55514],[129.08523,37.55497],[129.08405,37.55528],[129.08407,37.55552],[129.0843,37.55572],[129.08446,37.55613],[129.08391,37.55733],[129.08316,37.55726],[129.08319,37.55773],[129.08274,37.55815],[129.08189,37.55782],[129.08182,37.55726],[129.08104,37.55631],[129.0811,37.5561],[129.08064,37.55563],[129.07983,37.55504],[129.07966,37.55478],[129.07852,37.55397],[129.0783,37.55343],[129.07812,37.5534],[129.07744,37.55304],[129.07684,37.55297],[129.07613,37.55274],[129.07595,37.55256],[129.07589,37.55215],[129.07553,37.55193],[129.07542,37.5517],[129.07509,37.55142],[129.07503,37.55057],[129.07521,37.55007],[129.07501,37.54967],[129.07442,37.54898],[129.07529,37.54854],[129.07489,37.54823],[129.07407,37.54722],[129.0738,37.54668],[129.0732,37.54573],[129.0738,37.54542],[129.07463,37.54531],[129.07532,37.54513],[129.07679,37.54535],[129.07782,37.54504],[129.07839,37.54447],[129.0805,37.5444],[129.0806,37.5442],[129.0812,37.54405],[129.08179,37.54435],[129.08182,37.54479],[129.08248,37.54513],[129.08299,37.54521],[129.08319,37.54556],[129.08354,37.54573],[129.08431,37.54566],[129.08436,37.54556],[129.0849,37.54529],[129.08572,37.54522],[129.08652,37.54468],[129.08664,37.54428],[129.08683,37.54407],[129.08738,37.54377],[129.08788,37.54278],[129.08872,37.54258],[129.08959,37.5425],[129.0912,37.54261],[129.09175,37.54225],[129.09212,37.54215],[129.09288,37.5423],[129.09349,37.54188],[129.0938,37.54173],[129.0949,37.54086],[129.09541,37.5407],[129.09596,37.54018],[129.09728,37.5399],[129.09777,37.54015],[129.09849,37.54016],[129.09859,37.53997],[129.09928,37.53934],[129.09989,37.53936],[129.10024,37.53945],[129.10036,37.53927],[129.10106,37.53949],[129.10192,37.53926],[129.10177,37.53943],[129.10199,37.54217],[129.102,37.5428],[129.10215,37.54284],[129.10304,37.54339],[129.10358,37.54392],[129.10423,37.54498],[129.10453,37.54531],[129.10502,37.54567],[129.10559,37.546],[129.10659,37.54642],[129.10707,37.54672],[129.10714,37.54689],[129.10671,37.54704],[129.10636,37.54743],[129.10587,37.54729],[129.10514,37.54745],[129.10507,37.54767],[129.10507,37.54818],[129.10479,37.54821],[129.1045,37.5486],[129.10379,37.54888],[129.10331,37.54897],[129.10296,37.54932],[129.10276,37.54987],[129.10252,37.54982],[129.10209,37.54946],[129.10193,37.54969]]]},"properties":{"code":"32040550","name":"동호동"}},{"type":"Feature","geometry":{"type":"Polygon","coordinates":[[[129.11281,37.55021],[129.11289,37.55046],[129.11258,37.55061],[129.11243,37.55043],[129.11149,37.55099],[129.11128,37.55108],[129.11093,37.55149],[129.11094,37.55164],[129.11056,37.55209],[129.11037,37.55245],[129.11041,37.55261],[129.11019,37.55304],[129.11001,37.55313],[129.10987,37.5537],[129.10955,37.55427],[129.10899,37.55517],[129.10821,37.55585],[129.10832,37.55531],[129.10706,37.55475],[129.10672,37.55467],[129.10669,37.55444],[129.10639,37.55415],[129.10655,37.55398],[129.10657,37.5536],[129.1064,37.55329],[129.10631,37.55283],[129.10616,37.55253],[129.10581,37.55251],[129.10582,37.55191],[129.10541,37.55187],[129.10582,37.5513],[129.10518,37.55126],[129.10505,37.55133],[129.10454,37.55121],[129.10357,37.55135],[129.10354,37.55127],[129.10269,37.55106],[129.10258,37.55066],[129.10241,37.55042],[129.10241,37.54998],[129.10193,37.54969],[129.10209,37.54946],[129.10252,37.54982],[129.10276,37.54987],[129.10296,37.54932],[129.10331,37.54897],[129.10379,37.54888],[129.1045,37.5486],[129.10479,37.54821],[129.10507,37.54818],[129.10507,37.54767],[129.10514,37.54745],[129.10587,37.54729],[129.10636,37.54743],[129.10671,37.54704],[129.10714,37.54689],[129.10707,37.54672],[129.10659,37.54642],[129.10559,37.546],[129.10502,37.54567],[129.10453,37.54531],[129.10423,37.54498],[129.10358,37.54392],[129.10304,37.54339],[129.10215,37.54284],[129.102,37.5428],[129.10199,37.54217],[129.10177,37.53943],[129.10192,37.53926],[129.10244,37.53931],[129.10304,37.53967],[129.10373,37.53965],[129.10432,37.5398],[129.10476,37.53966],[129.10547,37.53994],[129.10601,37.53984],[129.10648,37.53991],[129.10769,37.54063],[129.10873,37.54107],[129.10962,37.54128],[129.10973,37.54095],[129.11004,37.54093],[129.11055,37.54138],[129.11087,37.54131],[129.11125,37.54159],[129.11135,37.54131],[129.1118,37.54128],[129.11207,37.54068],[129.11241,37.54019],[129.11548,37.54019],[129.11548,37.54049],[129.11378,37.5405],[129.11379,37.54296],[129.11526,37.54298],[129.11526,37.54339],[129.11411,37.54339],[129.11379,37.5433],[129.11378,37.54372],[129.11245,37.54442],[129.11242,37.5474],[129.11198,37.54739],[129.11186,37.54853],[129.11242,37.54838],[129.11234,37.5482],[129.11396,37.54776],[129.11421,37.54837],[129.11259,37.5488],[129.11252,37.54863],[129.11183,37.54887],[129.1121,37.54944],[129.11221,37.54939],[129.11281,37.55021]]]},"properties":{"code":"32040570","name":"발한동"}},{"type":"Feature","geometry":{"type":"Polygon","coordinates":[[[129.11281,37.55021],[129.11388,37.55166],[129.11672,37.5518],[129.11708,37.5517],[129.11622,37.55024],[129.11653,37.54952],[129.11676,37.54954],[129.11676,37.54921],[129.117,37.54895],[129.11722,37.54514],[129.11747,37.54515],[129.11753,37.54462],[129.11766,37.54437],[129.11768,37.54372],[129.11797,37.54303],[129.1183,37.54257],[129.11862,37.54186],[129.11893,37.54153],[129.11998,37.53973],[129.12006,37.53928],[129.12037,37.53914],[129.1207,37.53934],[129.12063,37.53965],[129.1202,37.54023],[129.11949,37.54152],[129.11903,37.54216],[129.11812,37.54369],[129.11792,37.54563],[129.11788,37.54691],[129.11792,37.54783],[129.1178,37.54837],[129.11784,37.54898],[129.11778,37.54952],[129.11816,37.55024],[129.11854,37.55078],[129.11853,37.55099],[129.11901,37.55183],[129.11909,37.55221],[129.11982,37.55313],[129.12022,37.55355],[129.12034,37.55379],[129.12036,37.5542],[129.12094,37.55507],[129.12115,37.55557],[129.12135,37.55574],[129.12118,37.55604],[129.1217,37.55748],[129.12176,37.55821],[129.12147,37.55845],[129.12098,37.55847],[129.12048,37.55895],[129.12033,37.55962],[129.12044,37.56012],[129.12088,37.56034],[129.12134,37.56043],[129.12169,37.56011],[129.12181,37.56023],[129.12117,37.56078],[129.12093,37.56085],[129.12055,37.56072],[129.12019,37.56131],[129.11997,37.56138],[129.11998,37.56238],[129.12033,37.56246],[129.12046,37.56213],[129.12088,37.56169],[129.12194,37.56083],[129.12209,37.56058],[129.12246,37.56035],[129.1227,37.56056],[129.12179,37.56123],[129.12153,37.56158],[129.12089,37.56205],[129.1203,37.56289],[129.11994,37.56307],[129.11958,37.56377],[129.11948,37.5643],[129.11969,37.56481],[129.11998,37.56532],[129.12015,37.56547],[129.12009,37.56581],[129.12017,37.56637],[129.11941,37.56711],[129.11929,37.56749],[129.11868,37.56766],[129.11846,37.56801],[129.11816,37.56824],[129.11776,37.56869],[129.11712,37.56929],[129.11714,37.56988],[129.11677,37.57001],[129.1168,37.57024],[129.11659,37.57036],[129.11637,37.57078],[129.11635,37.57103],[129.11661,37.5716],[129.11662,37.5719],[129.11682,37.57298],[129.11697,37.57335],[129.11706,37.57397],[129.11702,37.57446],[129.11709,37.57498],[129.11707,37.57535],[129.11677,37.57599],[129.1169,37.57631],[129.11625,37.57701],[129.11591,37.57766],[129.11582,37.57822],[129.11527,37.57891],[129.11502,37.57895],[129.11415,37.57969],[129.11401,37.58011],[129.11414,37.58025],[129.11394,37.58069],[129.11367,37.58099],[129.11364,37.58131],[129.11393,37.58137],[129.11392,37.58158],[129.11335,37.58171],[129.11344,37.58108],[129.11335,37.58095],[129.11375,37.58058],[129.11384,37.58035],[129.11366,37.58006],[129.11299,37.58048],[129.11254,37.58087],[129.11292,37.58125],[129.11266,37.58143],[129.11225,37.58105],[129.11144,37.58158],[129.11209,37.58219],[129.11307,37.58249],[129.11382,37.58246],[129.11445,37.58198],[129.11494,37.58178],[129.11509,37.58199],[129.11481,37.5822],[129.11407,37.58262],[129.11265,37.58271],[129.11187,37.58242],[129.11118,37.58169],[129.11077,37.58139],[129.11027,37.5809],[129.10997,37.58108],[129.10932,37.5803],[129.10947,37.58019],[129.10889,37.57976],[129.10761,37.5789],[129.10669,37.57785],[129.10596,37.57707],[129.10651,37.57671],[129.10622,37.5749],[129.10655,37.57349],[129.1065,37.57318],[129.10616,37.57293],[129.10529,37.57216],[129.10555,37.57149],[129.10559,37.57005],[129.10563,37.56961],[129.10688,37.56823],[129.10632,37.56736],[129.10625,37.56638],[129.10611,37.56596],[129.10606,37.56521],[129.10607,37.56456],[129.10544,37.56396],[129.10492,37.56364],[129.10547,37.5632],[129.1063,37.56215],[129.10641,37.56171],[129.1068,37.56081],[129.10681,37.56054],[129.10668,37.56016],[129.10654,37.55903],[129.10693,37.55846],[129.10691,37.55792],[129.10711,37.55739],[129.10808,37.55638],[129.10826,37.55601],[129.10821,37.55585],[129.10899,37.55517],[129.10955,37.55427],[129.10987,37.5537],[129.11001,37.55313],[129.11019,37.55304],[129.11041,37.55261],[129.11037,37.55245],[129.11056,37.55209],[129.11094,37.55164],[129.11093,37.55149],[129.11128,37.55108],[129.11149,37.55099],[129.11243,37.55043],[129.11258,37.55061],[129.11289,37.55046],[129.11281,37.55021]]]},"properties":{"code":"32040590","name":"묵호동"}},{"type":"Feature","geometry":{"type":"MultiPolygon","coordinates":[[[[129.15152,37.48783],[129.15172,37.48804],[129.1515,37.4884],[129.15121,37.48864],[129.15094,37.48871],[129.15076,37.48847],[129.15105,37.48839],[129.15152,37.48783]]],[[[129.16078,37.47584],[129.16005,37.47654],[129.15968,37.47728],[129.15964,37.47754],[129.15971,37.47813],[129.15999,37.47843],[129.16034,37.47857],[129.16042,37.47878],[129.16042,37.4793],[129.16004,37.47939],[129.1595,37.47935],[129.1591,37.47949],[129.15861,37.4795],[129.1583,37.4802],[129.15809,37.48032],[129.15818,37.48066],[129.15805,37.48108],[129.1576,37.48121],[129.1576,37.48164],[129.15663,37.4826],[129.15709,37.48326],[129.15741,37.48358],[129.15793,37.48391],[129.15916,37.48442],[129.15966,37.4848],[129.15995,37.48517],[129.16043,37.48591],[129.16082,37.4864],[129.16146,37.48704],[129.1616,37.48708],[129.16224,37.48764],[129.1645,37.48913],[129.16482,37.48941],[129.16518,37.48987],[129.16544,37.49056],[129.16547,37.4911],[129.16529,37.49181],[129.16499,37.4923],[129.16458,37.49273],[129.16296,37.49423],[129.16255,37.49465],[129.16178,37.49534],[129.15915,37.49787],[129.15846,37.49844],[129.15763,37.49923],[129.15774,37.49933],[129.15739,37.49962],[129.15711,37.49939],[129.15817,37.49837],[129.1583,37.49834],[129.16452,37.49244],[129.16497,37.49188],[129.16519,37.49124],[129.16518,37.49059],[129.16508,37.49026],[129.16472,37.48966],[129.16425,37.48923],[129.16188,37.48764],[129.16073,37.48668],[129.16007,37.48583],[129.15968,37.48519],[129.15928,37.48475],[129.15857,37.48438],[129.15796,37.48418],[129.15747,37.48391],[129.1566,37.48313],[129.15625,37.48315],[129.15583,37.48346],[129.15598,37.48363],[129.15552,37.48389],[129.15536,37.48385],[129.15484,37.48435],[129.154,37.48526],[129.15286,37.48629],[129.15265,37.48653],[129.15094,37.48806],[129.14971,37.4893],[129.14902,37.48993],[129.14801,37.49092],[129.14774,37.49109],[129.1471,37.49177],[129.14733,37.49193],[129.1465,37.49328],[129.14599,37.49305],[129.14675,37.49178],[129.1464,37.49165],[129.14613,37.49201],[129.14565,37.49284],[129.14536,37.49284],[129.14594,37.49192],[129.14625,37.4916],[129.14576,37.49132],[129.14579,37.49112],[129.14526,37.49115],[129.14496,37.49106],[129.14462,37.49117],[129.14455,37.49153],[129.14418,37.49136],[129.14396,37.49158],[129.14365,37.49137],[129.14343,37.49143],[129.14318,37.49169],[129.14267,37.49178],[129.14223,37.49186],[129.14206,37.49139],[129.14177,37.49122],[129.14172,37.49104],[129.1414,37.49076],[129.141,37.49092],[129.14031,37.49049],[129.1397,37.49017],[129.13808,37.48922],[129.13721,37.48869],[129.13629,37.48828],[129.13487,37.48733],[129.13421,37.48674],[129.13312,37.48595],[129.13281,37.48596],[129.13199,37.48656],[129.13064,37.48734],[129.1298,37.48691],[129.12777,37.48636],[129.12664,37.48611],[129.12498,37.48569],[129.12337,37.48522],[129.12264,37.48469],[129.12189,37.48377],[129.12142,37.48375],[129.12078,37.48391],[129.12047,37.48427],[129.12045,37.48447],[129.11977,37.48485],[129.1189,37.48518],[129.1192,37.48586],[129.11967,37.48651],[129.11915,37.48679],[129.11859,37.48579],[129.11835,37.48552],[129.11793,37.48522],[129.11741,37.48498],[129.11696,37.48396],[129.11646,37.48389],[129.11623,37.48334],[129.11582,37.48292],[129.11481,37.48269],[129.11297,37.48243],[129.11174,37.4823],[129.11058,37.48224],[129.10944,37.48225],[129.10828,37.48239],[129.10145,37.48221],[129.0998,37.4822],[129.0982,37.48243],[129.09585,37.48235],[129.09572,37.48247],[129.09393,37.48166],[129.09293,37.48114],[129.09203,37.48084],[129.09161,37.48077],[129.08984,37.4808],[129.08874,37.48045],[129.08801,37.48017],[129.08872,37.48012],[129.08794,37.47952],[129.08737,37.47927],[129.08615,37.47886],[129.08593,37.47887],[129.08583,37.4782],[129.08447,37.47805],[129.08241,37.47818],[129.08197,37.47775],[129.08142,37.47737],[129.08178,37.47703],[129.0818,37.47662],[129.08268,37.47573],[129.08262,37.47475],[129.08251,37.47408],[129.08203,37.47345],[129.08162,37.47281],[129.08113,37.47213],[129.08044,37.47102],[129.07912,37.4704],[129.07848,37.46981],[129.07705,37.4695],[129.07682,37.46918],[129.07566,37.46837],[129.07467,37.4685],[129.07332,37.46862],[129.07312,37.46821],[129.07178,37.46818],[129.07132,37.46775],[129.0708,37.46736],[129.07024,37.46714],[129.06983,37.46679],[129.06904,37.46664],[129.06852,37.46678],[129.06789,37.46644],[129.0675,37.46611],[129.06685,37.46575],[129.06609,37.46574],[129.06557,37.46546],[129.06552,37.46534],[129.0649,37.46522],[129.06451,37.46481],[129.06453,37.46455],[129.06419,37.46428],[129.06399,37.46383],[129.06396,37.46356],[129.06416,37.46198],[129.0643,37.46131],[129.06521,37.46029],[129.06565,37.46038],[129.06599,37.46004],[129.06703,37.45922],[129.06743,37.45907],[129.06793,37.4587],[129.06843,37.45851],[129.06922,37.45856],[129.06984,37.45835],[129.07078,37.45842],[129.07148,37.45797],[129.07167,37.4575],[129.07237,37.45725],[129.07298,37.45683],[129.07329,37.45676],[129.07406,37.45628],[129.0746,37.45636],[129.07521,37.45661],[129.07641,37.45642],[129.07685,37.45644],[129.07765,37.45657],[129.07938,37.45759],[129.08032,37.45807],[129.08179,37.45855],[129.08232,37.45958],[129.08286,37.45993],[129.0833,37.46042],[129.08462,37.46035],[129.08543,37.46023],[129.08604,37.46107],[129.08701,37.46073],[129.08808,37.46053],[129.08843,37.46062],[129.08875,37.46116],[129.09051,37.46173],[129.0914,37.46195],[129.09212,37.46226],[129.09297,37.46214],[129.09394,37.46235],[129.09497,37.46278],[129.09554,37.46332],[129.09585,37.46343],[129.09722,37.46303],[129.09778,37.46277],[129.09833,37.46273],[129.09868,37.46211],[129.09883,37.46149],[129.0988,37.46109],[129.09867,37.46063],[129.10004,37.46013],[129.1003,37.4598],[129.10126,37.45959],[129.10196,37.45954],[129.10217,37.45885],[129.10253,37.45853],[129.10352,37.45899],[129.10397,37.4584],[129.10457,37.45823],[129.10484,37.45734],[129.10525,37.45735],[129.10555,37.45748],[129.1058,37.45741],[129.10623,37.45681],[129.10676,37.45666],[129.10689,37.45622],[129.1074,37.4558],[129.10817,37.45571],[129.10911,37.456],[129.10935,37.45623],[129.10939,37.4565],[129.10963,37.45686],[129.11004,37.45686],[129.11028,37.45701],[129.11127,37.45699],[129.11193,37.45688],[129.1125,37.4571],[129.11326,37.45756],[129.11332,37.45782],[129.11391,37.45841],[129.11402,37.45881],[129.11436,37.45922],[129.11439,37.4595],[129.11479,37.45974],[129.1151,37.46004],[129.11574,37.46034],[129.11616,37.46066],[129.11727,37.46036],[129.11789,37.46051],[129.11852,37.46021],[129.11929,37.46011],[129.11982,37.45979],[129.12013,37.45936],[129.12082,37.45907],[129.12123,37.45876],[129.1213,37.45849],[129.12162,37.45833],[129.12174,37.45812],[129.122,37.45812],[129.12202,37.45774],[129.12292,37.45719],[129.12317,37.45698],[129.12373,37.45729],[129.12465,37.45686],[129.12505,37.45678],[129.12561,37.45717],[129.12657,37.45694],[129.12791,37.45681],[129.12861,37.45627],[129.12864,37.45555],[129.12882,37.4553],[129.13045,37.45603],[129.13036,37.45524],[129.13071,37.45468],[129.13109,37.45433],[129.13136,37.45419],[129.13235,37.45402],[129.13309,37.45314],[129.1334,37.45319],[129.13401,37.45355],[129.13447,37.4534],[129.13479,37.45319],[129.13521,37.45362],[129.13515,37.4543],[129.13575,37.45515],[129.13582,37.4557],[129.13545,37.45641],[129.13552,37.45659],[129.13638,37.45695],[129.13695,37.45781],[129.13728,37.45802],[129.13759,37.45889],[129.13763,37.45934],[129.13792,37.45964],[129.13819,37.4601],[129.1382,37.46067],[129.13793,37.46159],[129.13812,37.46226],[129.13819,37.46284],[129.13899,37.46393],[129.13915,37.46448],[129.13941,37.46477],[129.13996,37.46505],[129.14041,37.46505],[129.1407,37.46526],[129.1412,37.4662],[129.14176,37.4665],[129.14215,37.46624],[129.1422,37.46648],[129.14324,37.46647],[129.1436,37.46652],[129.14381,37.46644],[129.1447,37.4664],[129.14576,37.46603],[129.14624,37.46593],[129.14687,37.46593],[129.14721,37.46574],[129.14743,37.46533],[129.148,37.46506],[129.14837,37.46517],[129.14879,37.46513],[129.14912,37.46492],[129.14936,37.46553],[129.15044,37.46559],[129.1508,37.46571],[129.15095,37.46596],[129.15092,37.46657],[129.151,37.46706],[129.15179,37.46835],[129.15187,37.46833],[129.15258,37.46946],[129.15295,37.4697],[129.15385,37.47082],[129.15394,37.47119],[129.15352,37.47134],[129.15473,37.47235],[129.155,37.47278],[129.1548,37.47324],[129.15488,37.47364],[129.15505,37.47378],[129.15517,37.47419],[129.15582,37.47422],[129.156,37.47429],[129.15654,37.47477],[129.15689,37.47479],[129.15712,37.47498],[129.15737,37.47535],[129.15821,37.47636],[129.15835,37.47609],[129.15873,37.47586],[129.15921,37.47577],[129.16007,37.47574],[129.16078,37.47584]]]]},"properties":{"code":"32040600","name":"북평동"}},{"type":"Feature","geometry":{"type":"Polygon","coordinates":[[[129.11077,37.58139],[129.10986,37.58172],[129.10937,37.58199],[129.108,37.58302],[129.10684,37.58378],[129.10567,37.58462],[129.10498,37.58516],[129.10461,37.58551],[129.10409,37.58585],[129.10312,37.58633],[129.1017,37.58735],[129.10053,37.58837],[129.10019,37.5886],[129.09906,37.58915],[129.09872,37.58937],[129.09837,37.58946],[129.09665,37.59051],[129.09598,37.59097],[129.09442,37.59196],[129.0934,37.59265],[129.09234,37.59332],[129.09173,37.59376],[129.09125,37.59404],[129.08816,37.59619],[129.08677,37.59702],[129.08436,37.59834],[129.08358,37.59889],[129.08201,37.59982],[129.08138,37.60023],[129.0799,37.60132],[129.0792,37.60175],[129.07852,37.60226],[129.07698,37.6033],[129.07625,37.60391],[129.07573,37.60423],[129.07488,37.60486],[129.07383,37.60406],[129.07314,37.60384],[129.07172,37.60232],[129.07144,37.60185],[129.07054,37.60093],[129.07029,37.60037],[129.06992,37.59987],[129.06874,37.5989],[129.06835,37.5988],[129.06758,37.59888],[129.06643,37.59875],[129.06589,37.59861],[129.06518,37.59867],[129.06411,37.59837],[129.06331,37.59783],[129.06259,37.59784],[129.06131,37.59809],[129.06102,37.59789],[129.06033,37.59781],[129.05973,37.59747],[129.05882,37.59734],[129.05724,37.59695],[129.0565,37.59712],[129.05567,37.59711],[129.05547,37.59596],[129.05518,37.59568],[129.05519,37.59516],[129.05501,37.5947],[129.05558,37.59435],[129.05572,37.59377],[129.05616,37.59379],[129.05705,37.59356],[129.05754,37.59292],[129.05805,37.59243],[129.0583,37.59201],[129.05867,37.59162],[129.0589,37.59102],[129.05954,37.59026],[129.05964,37.58989],[129.05953,37.58905],[129.05957,37.58848],[129.05852,37.58808],[129.05792,37.58755],[129.05732,37.58669],[129.05702,37.58613],[129.05639,37.58351],[129.05669,37.58235],[129.05599,37.58125],[129.05512,37.58099],[129.05482,37.58046],[129.0548,37.58021],[129.05452,37.57982],[129.05426,37.5797],[129.05387,37.57889],[129.05316,37.57871],[129.05289,37.57838],[129.0522,37.57781],[129.05218,37.57749],[129.05103,37.5764],[129.05117,37.57535],[129.0516,37.57456],[129.05185,37.5744],[129.05174,37.57357],[129.05135,37.57259],[129.05133,37.57231],[129.05109,37.57162],[129.05139,37.57083],[129.05041,37.56964],[129.05045,37.56874],[129.05065,37.56832],[129.05059,37.5671],[129.04992,37.56573],[129.04879,37.56474],[129.04874,37.56427],[129.04881,37.56372],[129.04919,37.56312],[129.04909,37.56255],[129.04884,37.562],[129.04897,37.56148],[129.04873,37.56125],[129.04862,37.56057],[129.0489,37.55994],[129.0486,37.55942],[129.0483,37.55872],[129.04821,37.55794],[129.04837,37.55717],[129.04892,37.55593],[129.04945,37.55524],[129.04964,37.55454],[129.04985,37.55423],[129.0503,37.55393],[129.04984,37.55271],[129.04957,37.5524],[129.04891,37.55195],[129.04858,37.55157],[129.04784,37.55029],[129.04744,37.54978],[129.04763,37.54935],[129.04747,37.54849],[129.04784,37.54805],[129.04779,37.54767],[129.04707,37.547],[129.04707,37.54663],[129.04762,37.54606],[129.04823,37.546],[129.04862,37.54542],[129.04902,37.54506],[129.04943,37.54506],[129.04975,37.54453],[129.04982,37.54401],[129.04979,37.54342],[129.0502,37.5426],[129.0507,37.54233],[129.05091,37.54201],[129.05161,37.54199],[129.05198,37.54205],[129.05244,37.54187],[129.05292,37.54138],[129.05326,37.54033],[129.05368,37.54003],[129.05403,37.53987],[129.05438,37.53949],[129.05454,37.53918],[129.05455,37.53842],[129.05451,37.53773],[129.05488,37.53763],[129.05509,37.53674],[129.05596,37.53638],[129.05641,37.53631],[129.05677,37.53651],[129.05777,37.53658],[129.0582,37.53702],[129.05927,37.53727],[129.06009,37.53706],[129.06068,37.53838],[129.06116,37.53882],[129.06168,37.53889],[129.06261,37.53964],[129.06329,37.54036],[129.06351,37.54035],[129.06423,37.54098],[129.06477,37.54078],[129.0656,37.54127],[129.0664,37.54145],[129.06662,37.54183],[129.06761,37.54215],[129.06785,37.54199],[129.06845,37.54241],[129.06936,37.54261],[129.06982,37.54309],[129.07009,37.54326],[129.072,37.54381],[129.0725,37.54473],[129.0732,37.54573],[129.0738,37.54668],[129.07407,37.54722],[129.07489,37.54823],[129.07529,37.54854],[129.07442,37.54898],[129.07501,37.54967],[129.07521,37.55007],[129.07503,37.55057],[129.07509,37.55142],[129.07542,37.5517],[129.07553,37.55193],[129.07589,37.55215],[129.07595,37.55256],[129.07613,37.55274],[129.07684,37.55297],[129.07744,37.55304],[129.07812,37.5534],[129.0783,37.55343],[129.07852,37.55397],[129.07966,37.55478],[129.07983,37.55504],[129.08064,37.55563],[129.0811,37.5561],[129.08104,37.55631],[129.08182,37.55726],[129.08189,37.55782],[129.08274,37.55815],[129.08319,37.55773],[129.08316,37.55726],[129.08391,37.55733],[129.08446,37.55613],[129.0843,37.55572],[129.08407,37.55552],[129.08405,37.55528],[129.08523,37.55497],[129.08553,37.55514],[129.08583,37.55518],[129.08617,37.55589],[129.08746,37.55584],[129.08769,37.55508],[129.08861,37.55566],[129.08863,37.55535],[129.0885,37.55472],[129.08829,37.55291],[129.0879,37.55235],[129.08911,37.55199],[129.08932,37.55277],[129.09065,37.55251],[129.09196,37.55235],[129.09275,37.55202],[129.09358,37.55079],[129.09375,37.55066],[129.09436,37.5504],[129.09436,37.55005],[129.09478,37.54989],[129.09569,37.54913],[129.09553,37.54781],[129.09615,37.54851],[129.09625,37.54879],[129.09627,37.5493],[129.09673,37.54959],[129.09753,37.5498],[129.09833,37.54976],[129.09833,37.54966],[129.0995,37.54956],[129.10025,37.54961],[129.10065,37.54935],[129.10121,37.54948],[129.10122,37.54962],[129.10169,37.54979],[129.10193,37.54969],[129.10241,37.54998],[129.10241,37.55042],[129.10258,37.55066],[129.10269,37.55106],[129.10354,37.55127],[129.10357,37.55135],[129.10454,37.55121],[129.10505,37.55133],[129.10518,37.55126],[129.10582,37.5513],[129.10541,37.55187],[129.10582,37.55191],[129.10581,37.55251],[129.10616,37.55253],[129.10631,37.55283],[129.1064,37.55329],[129.10657,37.5536],[129.10655,37.55398],[129.10639,37.55415],[129.10669,37.55444],[129.10672,37.55467],[129.10706,37.55475],[129.10832,37.55531],[129.10821,37.55585],[129.10826,37.55601],[129.10808,37.55638],[129.10711,37.55739],[129.10691,37.55792],[129.10693,37.55846],[129.10654,37.55903],[129.10668,37.56016],[129.10681,37.56054],[129.1068,37.56081],[129.10641,37.56171],[129.1063,37.56215],[129.10547,37.5632],[129.10492,37.56364],[129.10544,37.56396],[129.10607,37.56456],[129.10606,37.56521],[129.10611,37.56596],[129.10625,37.56638],[129.10632,37.56736],[129.10688,37.56823],[129.10563,37.56961],[129.10559,37.57005],[129.10555,37.57149],[129.10529,37.57216],[129.10616,37.57293],[129.1065,37.57318],[129.10655,37.57349],[129.10622,37.5749],[129.10651,37.57671],[129.10596,37.57707],[129.10669,37.57785],[129.10761,37.5789],[129.10889,37.57976],[129.10947,37.58019],[129.10932,37.5803],[129.10997,37.58108],[129.11027,37.5809],[129.11077,37.58139]]]},"properties":{"code":"32040630","name":"망상동"}},{"type":"Feature","geometry":{"type":"Polygon","coordinates":[[[129.04707,37.54663],[129.04631,37.54644],[129.04591,37.54626],[129.04517,37.54616],[129.04451,37.54615],[129.04423,37.54631],[129.04399,37.54665],[129.04279,37.54735],[129.04228,37.54741],[129.04128,37.54712],[129.04091,37.5471],[129.04032,37.5473],[129.04006,37.54762],[129.03962,37.54831],[129.03952,37.5486],[129.03921,37.54886],[129.03912,37.54955],[129.03866,37.54975],[129.03803,37.54971],[129.03762,37.54917],[129.03699,37.54863],[129.03625,37.54808],[129.03573,37.5478],[129.03527,37.54769],[129.03398,37.54727],[129.03343,37.54738],[129.03303,37.54761],[129.03269,37.5476],[129.03183,37.54735],[129.03117,37.54728],[129.03053,37.54705],[129.02959,37.54686],[129.02844,37.54656],[129.02779,37.54603],[129.02689,37.54599],[129.02577,37.54543],[129.0254,37.54492],[129.02528,37.54441],[129.02502,37.54393],[129.02438,37.54302],[129.02384,37.54249],[129.02341,37.5422],[129.02315,37.54166],[129.02221,37.54075],[129.02224,37.54037],[129.02165,37.53997],[129.02116,37.53946],[129.02052,37.53922],[129.01976,37.53863],[129.01876,37.53831],[129.01856,37.53828],[129.01738,37.53853],[129.01597,37.53976],[129.01495,37.53959],[129.0146,37.5394],[129.01339,37.5393],[129.01299,37.53948],[129.01243,37.53948],[129.01164,37.53975],[129.01056,37.53986],[129.01009,37.54028],[129.00954,37.54044],[129.00834,37.54116],[129.00701,37.54125],[129.00498,37.5418],[129.00445,37.54169],[129.00341,37.54166],[129.00265,37.54282],[129.00172,37.54273],[129.00061,37.54283],[128.99994,37.54276],[128.99856,37.54281],[128.99767,37.54253],[128.99701,37.542],[128.99558,37.54164],[128.99459,37.54109],[128.99346,37.54026],[128.99262,37.53968],[128.99195,37.53914],[128.99129,37.53888],[128.99106,37.53842],[128.99037,37.53768],[128.9899,37.53729],[128.98959,37.53684],[128.98905,37.53653],[128.98909,37.53603],[128.98867,37.53559],[128.98834,37.53547],[128.988,37.53428],[128.98764,37.53387],[128.98674,37.53412],[128.98568,37.53411],[128.98441,37.53366],[128.98434,37.53355],[128.98371,37.53369],[128.98285,37.5336],[128.98262,37.53363],[128.98136,37.53317],[128.98069,37.53308],[128.97966,37.53324],[128.97879,37.53372],[128.97766,37.5339],[128.97641,37.53425],[128.97582,37.53425],[128.9749,37.53399],[128.97391,37.53391],[128.97338,37.53374],[128.9725,37.53303],[128.97195,37.53232],[128.97122,37.53218],[128.96984,37.53104],[128.9692,37.53038],[128.96873,37.53023],[128.96887,37.52969],[128.96866,37.52874],[128.96863,37.52826],[128.96789,37.52776],[128.96821,37.52719],[128.96804,37.52705],[128.96772,37.52644],[128.96729,37.52598],[128.96823,37.5242],[128.96846,37.5227],[128.9682,37.52219],[128.96776,37.52057],[128.96707,37.51937],[128.96583,37.51846],[128.9643,37.51763],[128.96387,37.51716],[128.96339,37.51489],[128.96242,37.51443],[128.96232,37.51369],[128.96132,37.51321],[128.96098,37.51258],[128.96134,37.51174],[128.96185,37.50952],[128.96288,37.50852],[128.96297,37.50817],[128.96418,37.50769],[128.96467,37.50646],[128.96491,37.50614],[128.96514,37.50541],[128.96585,37.50516],[128.96649,37.50527],[128.96668,37.50543],[128.96817,37.50585],[128.96911,37.50563],[128.9698,37.50563],[128.97076,37.50603],[128.97187,37.50564],[128.97252,37.50572],[128.97326,37.50457],[128.97439,37.50344],[128.97468,37.50273],[128.97383,37.50181],[128.97351,37.50046],[128.97346,37.50002],[128.97193,37.49822],[128.9714,37.49793],[128.97115,37.49667],[128.97002,37.49473],[128.97014,37.49402],[128.97096,37.49266],[128.97179,37.49202],[128.97251,37.49164],[128.97307,37.49183],[128.97346,37.49226],[128.9745,37.49248],[128.97555,37.4931],[128.97626,37.49293],[128.97743,37.4932],[128.9781,37.49329],[128.97866,37.49346],[128.97914,37.49402],[128.97968,37.49431],[128.98046,37.49361],[128.98076,37.49372],[128.98172,37.49357],[128.9825,37.49317],[128.98314,37.49336],[128.98362,37.49305],[128.98456,37.49357],[128.98532,37.49307],[128.98596,37.49299],[128.98679,37.49312],[128.98653,37.49253],[128.98685,37.49123],[128.98828,37.49003],[128.98886,37.48792],[128.98864,37.48749],[128.9888,37.4868],[128.98923,37.48676],[128.98909,37.48571],[128.98966,37.48451],[128.98957,37.48377],[128.98919,37.4834],[128.9885,37.48334],[128.98762,37.48363],[128.98618,37.4837],[128.9857,37.48277],[128.98643,37.48142],[128.9881,37.47932],[128.9874,37.47801],[128.98671,37.4773],[128.98627,37.47638],[128.98698,37.47562],[128.98757,37.47533],[128.987,37.47438],[128.98595,37.47318],[128.98593,37.47299],[128.98636,37.47246],[128.98501,37.47154],[128.98471,37.47041],[128.98367,37.47015],[128.98332,37.46993],[128.98187,37.46961],[128.98083,37.4693],[128.97923,37.46901],[128.97737,37.46862],[128.97575,37.46735],[128.97465,37.46574],[128.97419,37.46538],[128.97393,37.4648],[128.97378,37.46339],[128.97197,37.46325],[128.97126,37.46325],[128.97116,37.46292],[128.97033,37.46161],[128.96936,37.46112],[128.96898,37.46076],[128.96858,37.46065],[128.96724,37.46039],[128.9662,37.46032],[128.96539,37.46042],[128.96416,37.45917],[128.96425,37.45777],[128.96454,37.45756],[128.96445,37.45653],[128.96434,37.45475],[128.96314,37.45353],[128.96233,37.45258],[128.96,37.45111],[128.96,37.45019],[128.95899,37.44886],[128.95871,37.44819],[128.95762,37.44664],[128.95815,37.44601],[128.95815,37.44533],[128.95856,37.44425],[128.95906,37.4439],[128.96107,37.44324],[128.9621,37.44266],[128.96253,37.44232],[128.96375,37.44186],[128.96534,37.4418],[128.96656,37.44075],[128.96866,37.44008],[128.97093,37.43847],[128.97148,37.43791],[128.97236,37.43661],[128.97275,37.43613],[128.97253,37.43453],[128.97331,37.43434],[128.97438,37.43388],[128.97524,37.43324],[128.97589,37.43302],[128.97754,37.433],[128.97913,37.43405],[128.9799,37.4338],[128.98101,37.43416],[128.98157,37.43399],[128.98341,37.4339],[128.98463,37.43393],[128.9853,37.43371],[128.98573,37.43366],[128.98635,37.43345],[128.98704,37.43292],[128.98827,37.43227],[128.98887,37.43224],[128.9915,37.43188],[128.99278,37.43116],[128.99318,37.43059],[128.99518,37.4307],[128.99762,37.43039],[128.99879,37.42972],[128.99942,37.42987],[129.00225,37.42865],[129.00244,37.42821],[129.00281,37.4276],[129.00355,37.42746],[129.00444,37.4268],[129.00559,37.42731],[129.00598,37.42797],[129.00687,37.4291],[129.00722,37.4301],[129.00787,37.43111],[129.00782,37.43134],[129.00803,37.43237],[129.00837,37.43321],[129.00839,37.43384],[129.00879,37.43456],[129.00962,37.43495],[129.01013,37.43559],[129.0102,37.43593],[129.01173,37.43698],[129.01278,37.43717],[129.01481,37.43863],[129.01647,37.43919],[129.01737,37.43973],[129.01823,37.4401],[129.0196,37.44061],[129.02091,37.44103],[129.02332,37.44226],[129.02505,37.4432],[129.02611,37.44421],[129.02629,37.44465],[129.02685,37.4454],[129.02765,37.44571],[129.02923,37.44699],[129.03047,37.44697],[129.03214,37.44747],[129.03308,37.44823],[129.03355,37.44852],[129.03396,37.44862],[129.03556,37.44953],[129.03554,37.45021],[129.03564,37.45109],[129.0363,37.45227],[129.03722,37.4528],[129.03815,37.45327],[129.03914,37.45358],[129.04017,37.45368],[129.04117,37.45406],[129.04214,37.45454],[129.04312,37.45508],[129.04354,37.45565],[129.04388,37.45573],[129.04486,37.45577],[129.04561,37.45608],[129.04675,37.45616],[129.0482,37.45695],[129.04817,37.45771],[129.04826,37.45809],[129.04798,37.4583],[129.04786,37.45858],[129.04765,37.45959],[129.04711,37.46036],[129.04741,37.46144],[129.04775,37.46194],[129.04819,37.46213],[129.04835,37.46272],[129.0482,37.46312],[129.04815,37.46363],[129.04838,37.4642],[129.04889,37.46446],[129.04931,37.46474],[129.04954,37.46504],[129.04992,37.46587],[129.05029,37.46656],[129.04975,37.46666],[129.04963,37.46737],[129.05078,37.46801],[129.05074,37.46852],[129.05105,37.46912],[129.05078,37.46951],[129.05112,37.47],[129.05127,37.47058],[129.05217,37.47098],[129.05248,37.47128],[129.05246,37.47196],[129.05231,37.47235],[129.0533,37.47265],[129.05366,37.47307],[129.05399,37.47376],[129.05436,37.47364],[129.05513,37.47384],[129.05587,37.47439],[129.05608,37.47488],[129.05649,37.4752],[129.05685,37.47535],[129.0585,37.47638],[129.06004,37.47665],[129.06132,37.47701],[129.06229,37.47695],[129.06287,37.47675],[129.06382,37.47684],[129.06517,37.4778],[129.06531,37.47831],[129.06584,37.4788],[129.06687,37.4795],[129.06764,37.47983],[129.06828,37.47956],[129.0689,37.47941],[129.06948,37.47916],[129.07091,37.47975],[129.07071,37.47998],[129.07096,37.48069],[129.07138,37.48121],[129.07208,37.48147],[129.07286,37.48122],[129.07409,37.48039],[129.07482,37.48171],[129.0753,37.48263],[129.07567,37.48392],[129.07547,37.48426],[129.07539,37.48463],[129.0755,37.485],[129.07561,37.48621],[129.07594,37.48669],[129.07616,37.48731],[129.07593,37.4878],[129.07625,37.48807],[129.07672,37.48819],[129.07699,37.48848],[129.07737,37.48909],[129.07727,37.49023],[129.07772,37.49067],[129.07798,37.49102],[129.07798,37.49178],[129.07813,37.49248],[129.07814,37.49346],[129.07776,37.49394],[129.07792,37.4948],[129.07805,37.49582],[129.07751,37.49684],[129.0765,37.49806],[129.0763,37.4984],[129.07594,37.49856],[129.076,37.49879],[129.07577,37.4995],[129.07595,37.50002],[129.07528,37.50052],[129.07446,37.50069],[129.07316,37.50184],[129.07253,37.50215],[129.07191,37.50261],[129.07186,37.50305],[129.07118,37.50362],[129.07127,37.50413],[129.07127,37.50479],[129.071,37.50629],[129.07071,37.50723],[129.07115,37.50748],[129.07163,37.50858],[129.07109,37.50877],[129.0707,37.50954],[129.07089,37.51004],[129.07041,37.51064],[129.07064,37.51129],[129.07157,37.51149],[129.07179,37.51172],[129.07202,37.5124],[129.07186,37.51279],[129.0719,37.51323],[129.0721,37.51353],[129.07195,37.51391],[129.0719,37.51454],[129.07166,37.51471],[129.07202,37.51497],[129.07248,37.51602],[129.07265,37.51606],[129.07194,37.51776],[129.07183,37.51793],[129.07132,37.51836],[129.07098,37.51895],[129.07107,37.52],[129.07104,37.52026],[129.07041,37.52099],[129.06997,37.52106],[129.07022,37.52167],[129.07024,37.52196],[129.06936,37.5228],[129.06911,37.52346],[129.06921,37.52405],[129.06877,37.52422],[129.06861,37.52459],[129.06866,37.52494],[129.0682,37.52534],[129.06812,37.52568],[129.06794,37.52583],[129.06733,37.52604],[129.06702,37.52653],[129.06656,37.52635],[129.06585,37.52635],[129.06565,37.52683],[129.06502,37.5277],[129.06476,37.52813],[129.06471,37.52857],[129.06427,37.52903],[129.06431,37.52921],[129.06387,37.52967],[129.06389,37.52998],[129.06337,37.53078],[129.06289,37.53163],[129.06275,37.53205],[129.06229,37.53235],[129.06201,37.53245],[129.06194,37.53277],[129.06196,37.53339],[129.06143,37.53369],[129.06132,37.53407],[129.06091,37.53437],[129.06092,37.53448],[129.05999,37.53532],[129.0605,37.53574],[129.06044,37.5362],[129.06052,37.53664],[129.06009,37.53706],[129.05927,37.53727],[129.0582,37.53702],[129.05777,37.53658],[129.05677,37.53651],[129.05641,37.53631],[129.05596,37.53638],[129.05509,37.53674],[129.05488,37.53763],[129.05451,37.53773],[129.05455,37.53842],[129.05454,37.53918],[129.05438,37.53949],[129.05403,37.53987],[129.05368,37.54003],[129.05326,37.54033],[129.05292,37.54138],[129.05244,37.54187],[129.05198,37.54205],[129.05161,37.54199],[129.05091,37.54201],[129.0507,37.54233],[129.0502,37.5426],[129.04979,37.54342],[129.04982,37.54401],[129.04975,37.54453],[129.04943,37.54506],[129.04902,37.54506],[129.04862,37.54542],[129.04823,37.546],[129.04762,37.54606],[129.04707,37.54663]]]},"properties":{"code":"32040650","name":"삼화동"}}],"profileId":"gangwon","schemaVersion":2,"dataVersion":"gangwon-2022-563a6bb6162048a7"}
