{"type":"FeatureCollection","features":[{"type":"Feature","geometry":{"type":"Polygon","coordinates":[[[129.00549,37.15859],[129.00523,37.15924],[129.00524,37.16036],[129.00431,37.16114],[129.00399,37.16178],[129.00387,37.16243],[129.00467,37.16405],[129.00475,37.16531],[129.00501,37.16615],[129.00493,37.16702],[129.00517,37.16775],[129.00678,37.16947],[129.00582,37.17096],[129.00598,37.17159],[129.00589,37.17214],[129.00605,37.17301],[129.00575,37.17385],[129.00497,37.17508],[129.00451,37.17712],[129.00452,37.17724],[129.00408,37.17792],[129.00414,37.17833],[129.0039,37.17862],[129.00347,37.17885],[129.0032,37.17934],[129.00232,37.17983],[129.00164,37.17981],[129.00125,37.17996],[128.99821,37.18043],[128.99797,37.18062],[128.99791,37.18093],[128.99729,37.18129],[128.99656,37.18162],[128.99609,37.18167],[128.99534,37.18068],[128.9952,37.18018],[128.99523,37.17972],[128.99435,37.17878],[128.99402,37.17864],[128.9939,37.17846],[128.99177,37.17782],[128.99088,37.17757],[128.99149,37.17652],[128.99071,37.17619],[128.99045,37.17634],[128.98909,37.17527],[128.98934,37.17505],[128.99187,37.17294],[128.99138,37.17264],[128.99143,37.17246],[128.99069,37.17215],[128.99056,37.1726],[128.99026,37.17254],[128.99029,37.17234],[128.98952,37.1722],[128.98922,37.1723],[128.98853,37.17323],[128.98794,37.17385],[128.98727,37.17433],[128.98665,37.1735],[128.98716,37.1725],[128.98586,37.1721],[128.98526,37.17294],[128.9846,37.17288],[128.98342,37.1723],[128.98249,37.17172],[128.98043,37.1708],[128.98059,37.17048],[128.98051,37.17001],[128.98055,37.16945],[128.9802,37.16908],[128.98069,37.16821],[128.98106,37.16802],[128.98176,37.16737],[128.98258,37.16702],[128.98298,37.16674],[128.98343,37.16659],[128.98434,37.16603],[128.98467,37.16588],[128.98552,37.16498],[128.98635,37.16497],[128.98731,37.16417],[128.98828,37.16383],[128.98924,37.16356],[128.99038,37.16359],[128.99046,37.16366],[128.99139,37.16367],[128.99131,37.16325],[128.99138,37.16308],[128.992,37.16292],[128.99223,37.16318],[129.00549,37.15859]]]},"properties":{"code":"32050510","name":"황지동"}},{"type":"Feature","geometry":{"type":"Polygon","coordinates":[[[128.99888,37.20777],[128.9979,37.20728],[128.99708,37.20715],[128.99641,37.2074],[128.99562,37.20819],[128.99411,37.20889],[128.99378,37.20929],[128.99339,37.20936],[128.99183,37.21027],[128.99153,37.21094],[128.9911,37.21136],[128.99078,37.21158],[128.99043,37.21207],[128.99006,37.21312],[128.98976,37.21436],[128.98907,37.21494],[128.98846,37.21579],[128.98787,37.2158],[128.98718,37.21568],[128.98552,37.21519],[128.98466,37.21539],[128.98409,37.21562],[128.98151,37.21267],[128.98039,37.21268],[128.97935,37.21568],[128.97908,37.21566],[128.97825,37.21506],[128.97748,37.21508],[128.97602,37.2146],[128.97553,37.21427],[128.97534,37.214],[128.97483,37.21389],[128.97439,37.21368],[128.974,37.21323],[128.97381,37.21264],[128.97338,37.21255],[128.97266,37.21221],[128.97133,37.21185],[128.97052,37.21193],[128.97018,37.21157],[128.96906,37.21175],[128.96878,37.21201],[128.96816,37.21212],[128.96773,37.21208],[128.96713,37.21194],[128.96771,37.20992],[128.96897,37.20447],[128.96877,37.20283],[128.96934,37.20072],[128.9689,37.19971],[128.96913,37.19887],[128.96955,37.19816],[128.96987,37.19786],[128.9698,37.19709],[128.97052,37.19631],[128.97201,37.19511],[128.97249,37.19409],[128.97171,37.19271],[128.97145,37.19183],[128.97198,37.19033],[128.97163,37.19003],[128.97183,37.18723],[128.97188,37.18638],[128.97259,37.18645],[128.97435,37.18601],[128.97531,37.18558],[128.97616,37.18493],[128.97809,37.18469],[128.97809,37.18429],[128.97827,37.18424],[128.97848,37.18379],[128.97827,37.18354],[128.97828,37.18257],[128.97875,37.18207],[128.97856,37.1815],[128.97865,37.18106],[128.97901,37.1807],[128.97904,37.18041],[128.9794,37.18003],[128.97964,37.17989],[128.97947,37.17897],[128.97908,37.17897],[128.97877,37.17852],[128.98034,37.17763],[128.98065,37.17761],[128.98158,37.17737],[128.98175,37.17762],[128.98212,37.17746],[128.98318,37.17884],[128.98325,37.17885],[128.98497,37.17832],[128.9854,37.17814],[128.98598,37.17774],[128.98686,37.17702],[128.98744,37.17661],[128.98909,37.17527],[128.99045,37.17634],[128.99071,37.17619],[128.99149,37.17652],[128.99088,37.17757],[128.99177,37.17782],[128.9939,37.17846],[128.99402,37.17864],[128.99435,37.17878],[128.99523,37.17972],[128.9952,37.18018],[128.99534,37.18068],[128.99609,37.18167],[128.99656,37.18162],[128.99729,37.18129],[128.99791,37.18093],[128.99797,37.18062],[128.99821,37.18043],[129.00125,37.17996],[129.00164,37.17981],[129.00232,37.17983],[129.0032,37.17934],[129.00347,37.17885],[129.0039,37.17862],[129.00414,37.17833],[129.00408,37.17792],[129.00452,37.17724],[129.00451,37.17712],[129.00497,37.17508],[129.00575,37.17385],[129.00605,37.17301],[129.00589,37.17214],[129.00598,37.17159],[129.00582,37.17096],[129.00678,37.16947],[129.00517,37.16775],[129.00493,37.16702],[129.00501,37.16615],[129.00475,37.16531],[129.00467,37.16405],[129.00387,37.16243],[129.00399,37.16178],[129.00431,37.16114],[129.00524,37.16036],[129.00523,37.15924],[129.00549,37.15859],[129.00555,37.15845],[129.00506,37.15792],[129.0045,37.15692],[129.00439,37.15593],[129.00388,37.15477],[129.00301,37.15389],[129.00256,37.15272],[129.00382,37.15202],[129.0043,37.15153],[129.00516,37.15034],[129.00571,37.1497],[129.00659,37.14829],[129.00699,37.14807],[129.00722,37.14773],[129.00837,37.14757],[129.00918,37.14722],[129.0099,37.14668],[129.01058,37.14633],[129.00995,37.14539],[129.00989,37.145],[129.00994,37.14387],[129.00971,37.14269],[129.00931,37.14209],[129.00991,37.14102],[129.00937,37.14024],[129.00964,37.13959],[129.0099,37.13935],[129.00997,37.13875],[129.00986,37.13844],[129.00961,37.13815],[129.00961,37.13788],[129.01018,37.13721],[129.00991,37.13566],[129.01087,37.13505],[129.01192,37.13458],[129.01239,37.13415],[129.01311,37.13359],[129.01435,37.13358],[129.01506,37.13368],[129.01589,37.13366],[129.01636,37.13315],[129.01842,37.13313],[129.01913,37.13334],[129.02023,37.13334],[129.02072,37.13325],[129.0216,37.13274],[129.02206,37.1329],[129.02353,37.13366],[129.02464,37.13345],[129.02577,37.13307],[129.02622,37.13328],[129.0274,37.13418],[129.02933,37.13492],[129.03016,37.13604],[129.03174,37.13637],[129.03272,37.13699],[129.03298,37.13703],[129.03351,37.13679],[129.03397,37.13636],[129.03432,37.13589],[129.0349,37.13542],[129.0354,37.13509],[129.03709,37.1348],[129.03786,37.13493],[129.03851,37.13537],[129.03907,37.13556],[129.04,37.13561],[129.04032,37.13545],[129.04105,37.1353],[129.04196,37.13621],[129.04229,37.1369],[129.04296,37.13772],[129.04387,37.13854],[129.04398,37.13917],[129.04468,37.13961],[129.045,37.14],[129.04558,37.14038],[129.04609,37.1409],[129.047,37.14129],[129.04739,37.14132],[129.04802,37.14112],[129.04882,37.14099],[129.04963,37.14117],[129.05101,37.14127],[129.05249,37.14152],[129.05363,37.14191],[129.05449,37.14198],[129.05507,37.14164],[129.05563,37.14143],[129.05627,37.14132],[129.05689,37.14085],[129.0576,37.14099],[129.05813,37.14192],[129.05859,37.14231],[129.05871,37.14258],[129.06002,37.14331],[129.06041,37.14377],[129.0608,37.14396],[129.06177,37.14416],[129.06271,37.14464],[129.06309,37.1445],[129.06375,37.1436],[129.06475,37.14356],[129.06567,37.14386],[129.06685,37.14405],[129.0674,37.14364],[129.06813,37.14368],[129.06906,37.14352],[129.0719,37.14364],[129.07248,37.14282],[129.07309,37.14234],[129.07349,37.14224],[129.07399,37.1423],[129.075,37.14221],[129.07646,37.14138],[129.0774,37.14074],[129.07781,37.14073],[129.0794,37.14018],[129.08024,37.14024],[129.08065,37.14056],[129.081,37.14063],[129.08139,37.1406],[129.08162,37.14036],[129.08313,37.14],[129.08403,37.14008],[129.08431,37.14028],[129.08507,37.14028],[129.08518,37.14047],[129.08573,37.1409],[129.08651,37.14143],[129.08762,37.14178],[129.08785,37.14246],[129.08847,37.143],[129.0887,37.14394],[129.08898,37.14456],[129.08953,37.14514],[129.08895,37.1461],[129.08886,37.14665],[129.08841,37.1477],[129.08899,37.14858],[129.08919,37.14915],[129.08915,37.15036],[129.08891,37.15083],[129.08898,37.15127],[129.08892,37.15165],[129.08839,37.15212],[129.0879,37.15244],[129.08875,37.1545],[129.08914,37.15476],[129.08846,37.15578],[129.08881,37.15652],[129.08857,37.15821],[129.08726,37.15888],[129.08696,37.15954],[129.08665,37.15968],[129.08619,37.1595],[129.08574,37.15955],[129.08496,37.16002],[129.08475,37.16035],[129.0826,37.1603],[129.08194,37.15987],[129.07956,37.15984],[129.07614,37.1602],[129.07548,37.15989],[129.07406,37.15972],[129.07192,37.16019],[129.07295,37.16107],[129.07407,37.16185],[129.07425,37.16349],[129.07466,37.16473],[129.07453,37.16596],[129.07427,37.16658],[129.07375,37.16721],[129.07371,37.16776],[129.0728,37.1684],[129.07282,37.16907],[129.07229,37.16965],[129.07183,37.16992],[129.06864,37.16962],[129.06817,37.16949],[129.06746,37.16957],[129.06658,37.17013],[129.06599,37.17013],[129.06539,37.17033],[129.06494,37.17028],[129.06449,37.17061],[129.06376,37.17063],[129.06228,37.17079],[129.06163,37.17111],[129.06126,37.17104],[129.06021,37.1707],[129.05945,37.1709],[129.0591,37.17089],[129.05841,37.17131],[129.05789,37.171],[129.05755,37.17106],[129.05691,37.17092],[129.05631,37.17088],[129.05486,37.17065],[129.05395,37.17068],[129.05333,37.1703],[129.05229,37.17031],[129.05198,37.17006],[129.05128,37.16994],[129.05065,37.17031],[129.05023,37.17072],[129.04956,37.1712],[129.04937,37.17168],[129.04908,37.1719],[129.04858,37.17247],[129.04819,37.17267],[129.04776,37.17264],[129.04671,37.17215],[129.04506,37.17171],[129.04364,37.17254],[129.0425,37.1729],[129.04165,37.17351],[129.04164,37.17382],[129.04113,37.17425],[129.04039,37.17474],[129.03846,37.17465],[129.03686,37.17572],[129.03655,37.17589],[129.03592,37.17575],[129.03557,37.17544],[129.03451,37.1755],[129.03414,37.17509],[129.03277,37.17576],[129.03195,37.17512],[129.03103,37.17485],[129.0304,37.17452],[129.02896,37.1746],[129.02846,37.17478],[129.02722,37.17498],[129.02667,37.17615],[129.026,37.17651],[129.02596,37.17719],[129.0257,37.17751],[129.02517,37.17783],[129.02433,37.17796],[129.02314,37.1788],[129.02196,37.17875],[129.0216,37.1793],[129.02125,37.17962],[129.01995,37.18021],[129.01927,37.18029],[129.0185,37.1805],[129.01655,37.18142],[129.01629,37.18248],[129.01544,37.18447],[129.01331,37.18491],[129.01227,37.18548],[129.01134,37.18653],[129.0108,37.18841],[129.01012,37.18912],[129.01026,37.18977],[129.00998,37.19032],[129.00923,37.19091],[129.00896,37.19152],[129.00855,37.19305],[129.00827,37.19375],[129.00775,37.19429],[129.00703,37.19459],[129.00814,37.19559],[129.00804,37.19661],[129.00901,37.19851],[129.00749,37.19925],[129.00718,37.2005],[129.00713,37.20097],[129.00651,37.20094],[129.0059,37.20054],[129.00514,37.20132],[129.00429,37.20118],[129.00298,37.20173],[129.00214,37.20249],[129.00075,37.20282],[129.00132,37.20331],[129.00117,37.20467],[129.00134,37.20591],[129.00052,37.20669],[129.00009,37.20713],[128.99956,37.20751],[128.99888,37.20777]]]},"properties":{"code":"32050520","name":"황연동"}},{"type":"Feature","geometry":{"type":"Polygon","coordinates":[[[129.01843,37.30351],[129.01807,37.30399],[129.01801,37.3047],[129.01773,37.30517],[129.01591,37.30522],[129.01551,37.30601],[129.01439,37.30762],[129.0131,37.30794],[129.01256,37.30885],[129.0121,37.31012],[129.01102,37.31167],[129.00948,37.31148],[129.0091,37.31217],[129.00832,37.31216],[129.00687,37.31305],[129.00637,37.313],[129.00614,37.31401],[129.00584,37.31442],[129.00508,37.31468],[129.0039,37.31598],[129.0033,37.31653],[129.00305,37.31757],[129.0028,37.31792],[129.00167,37.31848],[129.00071,37.31856],[128.99844,37.31899],[128.99831,37.31926],[128.99943,37.32152],[128.99925,37.32278],[128.99873,37.324],[128.998,37.32456],[128.99823,37.32488],[128.99857,37.325],[128.99972,37.32583],[129.00061,37.32625],[129.00268,37.32749],[129.00426,37.32756],[129.00439,37.32918],[129.00525,37.33013],[129.0056,37.33111],[129.00645,37.33209],[129.00854,37.33203],[129.0088,37.33386],[129.01135,37.33448],[129.01243,37.3359],[129.01259,37.33645],[129.01267,37.33702],[129.01403,37.33768],[129.01435,37.33818],[129.01428,37.33839],[129.01254,37.33884],[129.01147,37.33922],[129.01036,37.33966],[129.00983,37.34008],[129.00943,37.34115],[129.01001,37.34265],[129.00915,37.34404],[129.00844,37.3453],[129.00826,37.34554],[129.00745,37.34559],[129.005,37.34463],[129.00236,37.34374],[129.00226,37.34274],[129.00133,37.34104],[129.00037,37.34029],[129.00007,37.3401],[128.99929,37.34],[128.99932,37.3385],[128.99783,37.33761],[128.99714,37.33708],[128.99648,37.33685],[128.99529,37.33603],[128.99299,37.33597],[128.99255,37.33572],[128.9916,37.33549],[128.99033,37.33412],[128.98926,37.33528],[128.98837,37.33538],[128.98793,37.33572],[128.98694,37.33581],[128.98608,37.3356],[128.98499,37.3354],[128.98365,37.3356],[128.9831,37.33583],[128.98199,37.33618],[128.97956,37.33622],[128.97811,37.33641],[128.97739,37.33608],[128.97675,37.33592],[128.97598,37.3359],[128.97475,37.33534],[128.97394,37.33506],[128.97103,37.33442],[128.97094,37.33499],[128.97043,37.33604],[128.97008,37.33658],[128.96965,37.33668],[128.96932,37.33691],[128.96905,37.3367],[128.96898,37.33635],[128.96875,37.33587],[128.96902,37.33514],[128.96896,37.3347],[128.96873,37.33396],[128.96881,37.33367],[128.96875,37.33342],[128.96845,37.333],[128.96819,37.33277],[128.96778,37.33194],[128.96742,37.33157],[128.96616,37.33083],[128.96617,37.33025],[128.96589,37.33023],[128.9652,37.32978],[128.96478,37.32964],[128.96418,37.32958],[128.96385,37.32925],[128.96367,37.32888],[128.96367,37.32802],[128.96333,37.32774],[128.9631,37.32699],[128.96222,37.32655],[128.96208,37.32622],[128.96102,37.32501],[128.96086,37.32451],[128.95995,37.32377],[128.958,37.32231],[128.95781,37.32162],[128.95785,37.32112],[128.95772,37.32081],[128.95723,37.32015],[128.95706,37.31941],[128.95701,37.31823],[128.95697,37.31812],[128.95606,37.31647],[128.95514,37.31581],[128.95428,37.3149],[128.95378,37.31426],[128.95402,37.31345],[128.9534,37.31321],[128.95294,37.31124],[128.9523,37.31023],[128.95097,37.30779],[128.94929,37.30803],[128.94852,37.30809],[128.94767,37.30769],[128.94753,37.30757],[128.94675,37.30736],[128.94577,37.30691],[128.94482,37.30671],[128.94458,37.30636],[128.94387,37.30593],[128.94369,37.30572],[128.94328,37.30554],[128.94323,37.30514],[128.94349,37.30413],[128.9436,37.30267],[128.94353,37.30127],[128.94361,37.30035],[128.94336,37.29949],[128.94231,37.29765],[128.94261,37.29665],[128.94378,37.29567],[128.94439,37.29454],[128.94494,37.29392],[128.94531,37.29291],[128.94535,37.29235],[128.94575,37.29163],[128.94582,37.29125],[128.94625,37.29083],[128.94645,37.29023],[128.94576,37.28973],[128.94522,37.28983],[128.94488,37.29],[128.94389,37.28964],[128.94303,37.28937],[128.9424,37.28896],[128.94154,37.28889],[128.94158,37.28761],[128.94185,37.28727],[128.94162,37.28632],[128.94064,37.28585],[128.93959,37.28389],[128.94035,37.2824],[128.94139,37.28106],[128.94104,37.27937],[128.94071,37.27908],[128.93733,37.27666],[128.93658,37.27412],[128.93396,37.27312],[128.93243,37.27371],[128.9305,37.27449],[128.92995,37.27414],[128.92921,37.27391],[128.92846,37.27376],[128.92766,37.27375],[128.92618,37.27414],[128.92541,37.27355],[128.925,37.27341],[128.92436,37.27296],[128.92433,37.27254],[128.92462,37.27239],[128.92516,37.27172],[128.9266,37.27052],[128.92755,37.27011],[128.92767,37.26993],[128.92788,37.26917],[128.92787,37.26852],[128.92846,37.26812],[128.92904,37.26761],[128.92917,37.2668],[128.92912,37.26658],[128.9288,37.26598],[128.92892,37.26577],[128.92896,37.26498],[128.92971,37.26333],[128.93054,37.26283],[128.93101,37.26251],[128.93086,37.26222],[128.93084,37.26135],[128.93097,37.26082],[128.93099,37.25963],[128.93124,37.25936],[128.93109,37.25887],[128.9322,37.25723],[128.93347,37.25694],[128.93406,37.25729],[128.93499,37.25718],[128.93477,37.25657],[128.93397,37.25555],[128.93336,37.25452],[128.93322,37.25401],[128.93321,37.25315],[128.93373,37.25194],[128.93439,37.25056],[128.9346,37.24987],[128.93471,37.2487],[128.93466,37.24795],[128.93481,37.24639],[128.93519,37.24585],[128.93538,37.24536],[128.93428,37.24488],[128.93267,37.24423],[128.9321,37.24367],[128.93195,37.24285],[128.93176,37.24258],[128.93038,37.24168],[128.9296,37.24072],[128.92912,37.24098],[128.92736,37.24178],[128.92601,37.24226],[128.92537,37.24243],[128.92389,37.24275],[128.9227,37.24164],[128.9216,37.24131],[128.92098,37.24124],[128.91935,37.24053],[128.91811,37.24005],[128.91784,37.23945],[128.91801,37.2384],[128.91835,37.23743],[128.91845,37.23668],[128.91832,37.23556],[128.91762,37.23477],[128.91787,37.23348],[128.91775,37.23236],[128.91726,37.23155],[128.9173,37.22899],[128.91691,37.2283],[128.91688,37.22796],[128.91694,37.22699],[128.91707,37.22553],[128.91529,37.22358],[128.91438,37.22307],[128.91388,37.22288],[128.9131,37.2219],[128.91238,37.22144],[128.91085,37.21978],[128.91005,37.21774],[128.90918,37.21715],[128.90785,37.21662],[128.90797,37.21655],[128.9092,37.21581],[128.91098,37.21515],[128.91157,37.21355],[128.91165,37.21322],[128.91607,37.21185],[128.91551,37.21021],[128.91586,37.20848],[128.91608,37.20669],[128.9156,37.20583],[128.91555,37.20462],[128.91474,37.2033],[128.9143,37.20189],[128.91289,37.20004],[128.91174,37.19806],[128.91151,37.19689],[128.91202,37.19596],[128.91299,37.19483],[128.9128,37.19442],[128.91208,37.19348],[128.9126,37.1922],[128.91309,37.19164],[128.91333,37.1911],[128.9131,37.19094],[128.91305,37.18987],[128.91283,37.18935],[128.91272,37.1884],[128.91291,37.18713],[128.91275,37.18611],[128.91281,37.18574],[128.91377,37.18502],[128.914,37.18412],[128.91417,37.18305],[128.91453,37.1817],[128.91486,37.18078],[128.91401,37.17992],[128.91378,37.17942],[128.91367,37.17899],[128.91331,37.17862],[128.91286,37.17836],[128.912,37.17758],[128.91185,37.17726],[128.91225,37.17678],[128.91247,37.17614],[128.91235,37.17544],[128.91247,37.17456],[128.91271,37.17409],[128.91269,37.17368],[128.9131,37.17267],[128.91358,37.17181],[128.91404,37.17127],[128.91424,37.17114],[128.91497,37.171],[128.91503,37.17061],[128.91551,37.16985],[128.91592,37.16939],[128.91606,37.16878],[128.91645,37.16803],[128.91652,37.16726],[128.91689,37.16639],[128.91697,37.16465],[128.91758,37.16317],[128.91775,37.16233],[128.9176,37.16116],[128.91764,37.16113],[128.92726,37.1665],[128.9284,37.16752],[128.93026,37.16848],[128.93108,37.16863],[128.93305,37.16917],[128.93375,37.16928],[128.93535,37.16972],[128.9361,37.1696],[128.93676,37.16998],[128.93817,37.17033],[128.9398,37.17007],[128.94101,37.16992],[128.94255,37.16959],[128.9429,37.16907],[128.9429,37.16882],[128.94555,37.1709],[128.94783,37.17088],[128.94873,37.1716],[128.95016,37.17151],[128.95001,37.1712],[128.95244,37.1701],[128.95327,37.16954],[128.95459,37.16891],[128.95624,37.16885],[128.95744,37.16845],[128.95928,37.16826],[128.95986,37.16754],[128.96018,37.16664],[128.96187,37.16725],[128.963,37.16739],[128.96403,37.16807],[128.96705,37.16829],[128.97095,37.16908],[128.97198,37.16944],[128.97414,37.16973],[128.97554,37.16974],[128.97731,37.16999],[128.97882,37.16996],[128.97958,37.17048],[128.98043,37.1708],[128.98249,37.17172],[128.98342,37.1723],[128.9846,37.17288],[128.98526,37.17294],[128.98586,37.1721],[128.98716,37.1725],[128.98665,37.1735],[128.98727,37.17433],[128.98794,37.17385],[128.98853,37.17323],[128.98922,37.1723],[128.98952,37.1722],[128.99029,37.17234],[128.99026,37.17254],[128.99056,37.1726],[128.99069,37.17215],[128.99143,37.17246],[128.99138,37.17264],[128.99187,37.17294],[128.98934,37.17505],[128.98909,37.17527],[128.98744,37.17661],[128.98686,37.17702],[128.98598,37.17774],[128.9854,37.17814],[128.98497,37.17832],[128.98325,37.17885],[128.98318,37.17884],[128.98212,37.17746],[128.98175,37.17762],[128.98158,37.17737],[128.98065,37.17761],[128.98034,37.17763],[128.97877,37.17852],[128.97908,37.17897],[128.97947,37.17897],[128.97964,37.17989],[128.9794,37.18003],[128.97904,37.18041],[128.97901,37.1807],[128.97865,37.18106],[128.97856,37.1815],[128.97875,37.18207],[128.97828,37.18257],[128.97827,37.18354],[128.97848,37.18379],[128.97827,37.18424],[128.97809,37.18429],[128.97809,37.18469],[128.97616,37.18493],[128.97531,37.18558],[128.97435,37.18601],[128.97259,37.18645],[128.97188,37.18638],[128.97183,37.18723],[128.97163,37.19003],[128.97198,37.19033],[128.97145,37.19183],[128.97171,37.19271],[128.97249,37.19409],[128.97201,37.19511],[128.97052,37.19631],[128.9698,37.19709],[128.96987,37.19786],[128.96955,37.19816],[128.96913,37.19887],[128.9689,37.19971],[128.96934,37.20072],[128.96877,37.20283],[128.96897,37.20447],[128.96771,37.20992],[128.96713,37.21194],[128.96773,37.21208],[128.96816,37.21212],[128.96878,37.21201],[128.96906,37.21175],[128.97018,37.21157],[128.97052,37.21193],[128.97133,37.21185],[128.97266,37.21221],[128.97338,37.21255],[128.97381,37.21264],[128.974,37.21323],[128.97439,37.21368],[128.97483,37.21389],[128.97534,37.214],[128.97553,37.21427],[128.97602,37.2146],[128.97748,37.21508],[128.97825,37.21506],[128.97908,37.21566],[128.97935,37.21568],[128.98039,37.21268],[128.98151,37.21267],[128.98409,37.21562],[128.98466,37.21539],[128.98552,37.21519],[128.98718,37.21568],[128.98787,37.2158],[128.98846,37.21579],[128.98907,37.21494],[128.98976,37.21436],[128.99006,37.21312],[128.99043,37.21207],[128.99078,37.21158],[128.9911,37.21136],[128.99153,37.21094],[128.99183,37.21027],[128.99339,37.20936],[128.99378,37.20929],[128.99411,37.20889],[128.99562,37.20819],[128.99641,37.2074],[128.99708,37.20715],[128.9979,37.20728],[128.99888,37.20777],[128.99876,37.20781],[128.99974,37.20846],[129.00017,37.20892],[128.99992,37.2094],[129.00027,37.21074],[128.9999,37.21191],[128.99999,37.2128],[129.00039,37.2135],[129.00034,37.21388],[129.00118,37.21503],[129.00098,37.21631],[129.00014,37.21763],[128.99998,37.21792],[129.00128,37.21842],[129.0023,37.21909],[129.00373,37.21967],[129.00482,37.21969],[129.00592,37.21997],[129.00641,37.22029],[129.0077,37.22042],[129.0087,37.22085],[129.01049,37.22082],[129.00998,37.22182],[129.00913,37.22243],[129.00846,37.22309],[129.00821,37.22369],[129.00852,37.22389],[129.0082,37.22408],[129.0076,37.22415],[129.00752,37.22431],[129.00664,37.22461],[129.00597,37.22514],[129.00587,37.22543],[129.00547,37.22577],[129.00504,37.22598],[129.00473,37.22628],[129.00446,37.22677],[129.00455,37.22709],[129.00603,37.22762],[129.00654,37.22749],[129.00732,37.22798],[129.0081,37.22913],[129.00763,37.23002],[129.00667,37.23058],[129.00545,37.23075],[129.00553,37.23131],[129.00614,37.23169],[129.00648,37.23182],[129.00663,37.23202],[129.00711,37.23228],[129.00737,37.23251],[129.00792,37.23264],[129.00743,37.23351],[129.00674,37.23374],[129.00586,37.23424],[129.00556,37.23466],[129.00499,37.23511],[129.00425,37.23527],[129.00372,37.23517],[129.00346,37.23522],[129.0021,37.2351],[129.00163,37.23515],[129.00137,37.23563],[129.00082,37.23564],[129.00067,37.23575],[128.99979,37.23554],[128.99955,37.23539],[128.99912,37.23531],[128.99771,37.23455],[128.99698,37.2345],[128.9967,37.2348],[128.99645,37.23525],[128.99616,37.23537],[128.99568,37.23524],[128.99475,37.23532],[128.99395,37.23533],[128.99319,37.23526],[128.99275,37.23574],[128.99217,37.23698],[128.99219,37.23868],[128.99203,37.23898],[128.99104,37.2396],[128.99078,37.24048],[128.98997,37.24079],[128.98995,37.24128],[128.99065,37.24263],[128.99287,37.24416],[128.99395,37.24462],[128.99545,37.24462],[128.99677,37.24337],[128.99851,37.24316],[128.99972,37.24356],[129.00001,37.24419],[129.00177,37.24466],[129.00181,37.24474],[129.00131,37.24507],[129.0011,37.24546],[129.00077,37.24576],[129.00109,37.24623],[129.00101,37.24683],[129.00081,37.24668],[129.00053,37.24713],[129.00089,37.24723],[129.00081,37.2475],[129.00164,37.24839],[129.00249,37.24906],[129.00155,37.2495],[129.00162,37.25056],[129.00311,37.25097],[129.00452,37.25073],[129.00603,37.25072],[129.0065,37.25059],[129.00706,37.25093],[129.00722,37.25201],[129.00747,37.25226],[129.0075,37.25261],[129.00764,37.25314],[129.00798,37.25351],[129.00775,37.25443],[129.00746,37.25506],[129.00704,37.25537],[129.00702,37.25561],[129.00729,37.25596],[129.00761,37.25588],[129.00792,37.25599],[129.00819,37.2567],[129.00874,37.25662],[129.00891,37.25631],[129.00897,37.25595],[129.00937,37.2556],[129.01008,37.25509],[129.0103,37.25517],[129.01045,37.25548],[129.01048,37.25679],[129.01029,37.25843],[129.00993,37.25956],[129.00832,37.26076],[129.00809,37.26115],[129.00659,37.26262],[129.00608,37.26332],[129.00511,37.26374],[129.0056,37.26425],[129.00597,37.26525],[129.00623,37.26618],[129.00649,37.26684],[129.00708,37.26722],[129.00745,37.26865],[129.00799,37.26939],[129.00795,37.27041],[129.00888,37.27019],[129.01026,37.26996],[129.01088,37.2704],[129.01105,37.27063],[129.01113,37.27147],[129.0112,37.27169],[129.01217,37.27255],[129.01268,37.27273],[129.01347,37.27347],[129.01513,37.27418],[129.01495,37.27468],[129.01438,37.27486],[129.01407,37.27521],[129.01345,37.27653],[129.01325,37.27734],[129.01327,37.27781],[129.01416,37.27869],[129.01319,37.2789],[129.01202,37.27937],[129.01123,37.27993],[129.01052,37.2805],[129.0101,37.28114],[129.00962,37.28138],[129.00932,37.2819],[129.00927,37.2823],[129.00864,37.28224],[129.00763,37.28239],[129.00705,37.28257],[129.00603,37.28281],[129.00667,37.28345],[129.00644,37.28435],[129.00592,37.28535],[129.00576,37.28652],[129.00505,37.28697],[129.00385,37.28837],[129.00459,37.28933],[129.00534,37.2901],[129.00535,37.29082],[129.00561,37.29215],[129.00609,37.29237],[129.00622,37.29291],[129.00728,37.29364],[129.00822,37.29509],[129.00874,37.29516],[129.01011,37.29581],[129.01099,37.29648],[129.0119,37.29752],[129.01187,37.29786],[129.01263,37.29885],[129.01375,37.29989],[129.01605,37.30083],[129.01807,37.30321],[129.01843,37.30351]]]},"properties":{"code":"32050530","name":"삼수동"}},{"type":"Feature","geometry":{"type":"Polygon","coordinates":[[[128.98043,37.1708],[128.97958,37.17048],[128.97882,37.16996],[128.97731,37.16999],[128.97554,37.16974],[128.97414,37.16973],[128.97198,37.16944],[128.97095,37.16908],[128.96705,37.16829],[128.96403,37.16807],[128.963,37.16739],[128.96187,37.16725],[128.96018,37.16664],[128.95986,37.16754],[128.95928,37.16826],[128.95744,37.16845],[128.95624,37.16885],[128.95459,37.16891],[128.95327,37.16954],[128.95244,37.1701],[128.95001,37.1712],[128.95016,37.17151],[128.94873,37.1716],[128.94783,37.17088],[128.94555,37.1709],[128.9429,37.16882],[128.9429,37.16907],[128.94255,37.16959],[128.94101,37.16992],[128.9398,37.17007],[128.93817,37.17033],[128.93676,37.16998],[128.9361,37.1696],[128.93535,37.16972],[128.93375,37.16928],[128.93305,37.16917],[128.93108,37.16863],[128.93026,37.16848],[128.9284,37.16752],[128.92726,37.1665],[128.91764,37.16113],[128.91806,37.16087],[128.91933,37.16104],[128.92066,37.16111],[128.92202,37.16017],[128.92305,37.1592],[128.92307,37.15864],[128.92338,37.15827],[128.92451,37.15753],[128.92684,37.15801],[128.92859,37.15808],[128.93004,37.15737],[128.93121,37.15644],[128.93251,37.15629],[128.93481,37.15545],[128.9357,37.15578],[128.9363,37.15571],[128.93881,37.15392],[128.93963,37.15404],[128.94085,37.15363],[128.9424,37.15269],[128.94292,37.15135],[128.94327,37.15112],[128.94415,37.15019],[128.94453,37.14958],[128.94516,37.14923],[128.9456,37.14866],[128.94713,37.14835],[128.94742,37.14792],[128.94868,37.14776],[128.94915,37.14747],[128.94929,37.14679],[128.95017,37.14637],[128.95191,37.14647],[128.95238,37.14637],[128.95296,37.14666],[128.954,37.14679],[128.95502,37.146],[128.95631,37.14529],[128.95668,37.14502],[128.95877,37.14439],[128.95973,37.14432],[128.96015,37.14376],[128.96027,37.1433],[128.95992,37.14278],[128.95953,37.14134],[128.95964,37.14093],[128.96015,37.14043],[128.96028,37.13991],[128.96018,37.13915],[128.96086,37.13858],[128.96188,37.13811],[128.96263,37.1379],[128.96352,37.13731],[128.96631,37.13699],[128.96952,37.13898],[128.97085,37.13954],[128.97213,37.13982],[128.97305,37.14109],[128.97396,37.14169],[128.9762,37.14243],[128.97744,37.14148],[128.97774,37.14157],[128.97864,37.1422],[128.97946,37.14251],[128.97929,37.14199],[128.98035,37.14295],[128.9812,37.14235],[128.98159,37.14187],[128.98187,37.14171],[128.98247,37.14101],[128.98229,37.14025],[128.98327,37.13935],[128.98405,37.13908],[128.98437,37.13789],[128.98468,37.13765],[128.98591,37.13695],[128.98594,37.13584],[128.98633,37.13568],[128.98677,37.13578],[128.98784,37.1356],[128.98823,37.13537],[128.98881,37.13527],[128.98958,37.13559],[128.99074,37.13621],[128.99146,37.13641],[128.99248,37.13622],[128.99316,37.13643],[128.9939,37.13636],[128.99468,37.13643],[128.99538,37.13685],[128.99687,37.13732],[128.99737,37.13847],[128.99757,37.13978],[128.99742,37.14107],[128.99756,37.14138],[128.99743,37.14283],[128.99827,37.14308],[128.99855,37.14308],[128.99886,37.14325],[128.9993,37.14392],[128.99966,37.14423],[129.00027,37.14446],[129.00061,37.14469],[129.0012,37.1454],[129.00193,37.14569],[129.00192,37.14652],[129.00147,37.14709],[129.00166,37.14751],[129.00204,37.14793],[129.00212,37.14953],[129.0024,37.14985],[129.00222,37.15032],[129.00182,37.15089],[129.00182,37.15135],[129.00196,37.1522],[129.00218,37.15261],[129.00256,37.15272],[129.00301,37.15389],[129.00388,37.15477],[129.00439,37.15593],[129.0045,37.15692],[129.00506,37.15792],[129.00555,37.15845],[129.00549,37.15859],[128.99223,37.16318],[128.992,37.16292],[128.99138,37.16308],[128.99131,37.16325],[128.99139,37.16367],[128.99046,37.16366],[128.99038,37.16359],[128.98924,37.16356],[128.98828,37.16383],[128.98731,37.16417],[128.98635,37.16497],[128.98552,37.16498],[128.98467,37.16588],[128.98434,37.16603],[128.98343,37.16659],[128.98298,37.16674],[128.98258,37.16702],[128.98176,37.16737],[128.98106,37.16802],[128.98069,37.16821],[128.9802,37.16908],[128.98055,37.16945],[128.98051,37.17001],[128.98059,37.17048],[128.98043,37.1708]]]},"properties":{"code":"32050540","name":"상장동"}},{"type":"Feature","geometry":{"type":"Polygon","coordinates":[[[129.09458,37.10365],[129.09353,37.10285],[129.09234,37.10234],[129.0913,37.10277],[129.0902,37.10304],[129.08819,37.1043],[129.08754,37.10527],[129.08645,37.10599],[129.08596,37.10621],[129.08561,37.10676],[129.08449,37.10743],[129.0837,37.10724],[129.08222,37.10723],[129.08146,37.10774],[129.07944,37.10806],[129.07872,37.10797],[129.07786,37.10852],[129.07686,37.1087],[129.07555,37.10932],[129.07451,37.11014],[129.07182,37.10947],[129.0711,37.10967],[129.07007,37.10928],[129.06931,37.10945],[129.06749,37.10923],[129.06686,37.10997],[129.06619,37.1099],[129.06454,37.11052],[129.06336,37.11023],[129.06216,37.11033],[129.06003,37.11023],[129.05878,37.10999],[129.0578,37.10992],[129.05623,37.1104],[129.05691,37.1126],[129.05707,37.11349],[129.0547,37.11442],[129.05361,37.1143],[129.05315,37.1141],[129.05269,37.11324],[129.05206,37.11306],[129.05184,37.11277],[129.05107,37.11233],[129.04951,37.11185],[129.04757,37.112],[129.04623,37.11203],[129.04529,37.11229],[129.04444,37.11199],[129.04313,37.1126],[129.04178,37.11242],[129.04125,37.11144],[129.04045,37.11122],[129.03963,37.11116],[129.03688,37.1107],[129.03694,37.11028],[129.03715,37.10995],[129.03723,37.10929],[129.03755,37.10892],[129.03758,37.10862],[129.03642,37.10876],[129.03603,37.1093],[129.03586,37.10916],[129.03497,37.10806],[129.03428,37.10716],[129.03319,37.1059],[129.03078,37.10618],[129.03028,37.10706],[129.02888,37.10866],[129.02827,37.10888],[129.02838,37.10953],[129.02755,37.11055],[129.02713,37.11056],[129.02667,37.11123],[129.02652,37.11245],[129.02598,37.11334],[129.0255,37.11368],[129.02467,37.1139],[129.02379,37.11466],[129.02358,37.11516],[129.02239,37.11584],[129.02287,37.11735],[129.02259,37.11757],[129.02231,37.11817],[129.02266,37.11862],[129.0228,37.11918],[129.02128,37.1196],[129.02122,37.11955],[129.01921,37.11893],[129.01867,37.11908],[129.01774,37.11848],[129.01739,37.11839],[129.01607,37.11818],[129.01534,37.11765],[129.0148,37.11625],[129.0148,37.11543],[129.01431,37.11521],[129.01394,37.11446],[129.01386,37.11368],[129.01381,37.11258],[129.01332,37.11169],[129.01264,37.11102],[129.01227,37.11006],[129.0107,37.10977],[129.01007,37.10971],[129.00933,37.11014],[129.00844,37.1102],[129.00841,37.11063],[129.00812,37.1111],[129.00689,37.11173],[129.00587,37.11309],[129.00546,37.11271],[129.00528,37.1118],[129.00502,37.11124],[129.00514,37.11113],[129.00547,37.11026],[129.00526,37.10998],[129.0052,37.10951],[129.00555,37.10896],[129.00622,37.10858],[129.00621,37.10767],[129.0054,37.10683],[129.0056,37.10665],[129.00669,37.10689],[129.00693,37.10664],[129.00803,37.10678],[129.01082,37.10573],[129.01163,37.1054],[129.01193,37.10577],[129.01223,37.10574],[129.0119,37.10369],[129.01312,37.10343],[129.01412,37.10089],[129.0133,37.10027],[129.013,37.09956],[129.01169,37.0988],[129.0109,37.09846],[129.00925,37.09735],[129.00793,37.09653],[129.00629,37.09598],[129.00443,37.09522],[129.00435,37.09444],[129.00443,37.0941],[129.00418,37.09319],[129.00445,37.09261],[129.0044,37.09247],[129.00269,37.09112],[129.00235,37.09095],[129.00134,37.08924],[129.00206,37.0885],[129.00268,37.08703],[129.00188,37.08675],[129.00099,37.0865],[129.0005,37.08647],[128.99894,37.08604],[128.99831,37.08549],[128.99729,37.08529],[128.99666,37.08486],[128.99589,37.08482],[128.99515,37.08536],[128.99452,37.08482],[128.99437,37.08448],[128.99399,37.08433],[128.99314,37.08347],[128.99124,37.08256],[128.99209,37.08238],[128.9924,37.08225],[128.99434,37.08207],[128.99507,37.08169],[128.99613,37.08143],[128.99644,37.08126],[128.99727,37.08174],[128.9988,37.08147],[128.99941,37.08092],[129.0003,37.08058],[129.00063,37.08036],[129.00322,37.08011],[129.00367,37.07988],[129.00391,37.07962],[129.0047,37.07951],[129.00572,37.07951],[129.00624,37.07939],[129.00679,37.07936],[129.00731,37.07909],[129.00846,37.07908],[129.00887,37.07894],[129.00958,37.07855],[129.01079,37.07843],[129.01145,37.07857],[129.01225,37.07837],[129.01271,37.07857],[129.0139,37.07855],[129.01461,37.0792],[129.01517,37.07953],[129.01693,37.07872],[129.01734,37.07846],[129.01865,37.07797],[129.01953,37.07696],[129.02038,37.07656],[129.02085,37.07654],[129.02188,37.07689],[129.02308,37.07814],[129.02435,37.07835],[129.02602,37.07775],[129.02742,37.07747],[129.02879,37.07709],[129.0295,37.07697],[129.03044,37.07703],[129.03129,37.07598],[129.03168,37.07558],[129.03241,37.07492],[129.03444,37.07565],[129.0353,37.0757],[129.03667,37.07617],[129.03693,37.07487],[129.03757,37.07467],[129.03816,37.07437],[129.03927,37.07407],[129.04024,37.07275],[129.04035,37.0724],[129.04128,37.07197],[129.04187,37.07106],[129.04279,37.07111],[129.04379,37.0711],[129.04527,37.07069],[129.04552,37.07052],[129.0463,37.07053],[129.04716,37.07042],[129.04833,37.07009],[129.04937,37.069],[129.04981,37.06889],[129.05002,37.0684],[129.05132,37.06783],[129.05238,37.06789],[129.05243,37.06823],[129.05217,37.06848],[129.05177,37.06861],[129.05198,37.06905],[129.05244,37.06927],[129.05343,37.07019],[129.05428,37.06982],[129.05473,37.06932],[129.05555,37.06896],[129.05707,37.0679],[129.05674,37.06739],[129.05633,37.06578],[129.05651,37.06519],[129.0574,37.06505],[129.05855,37.06523],[129.05944,37.06525],[129.05963,37.06566],[129.06068,37.06596],[129.06213,37.06827],[129.06314,37.06831],[129.06398,37.06814],[129.06395,37.06844],[129.06462,37.07041],[129.0651,37.07077],[129.06521,37.07175],[129.06563,37.07205],[129.06623,37.07355],[129.06737,37.07445],[129.0672,37.07478],[129.06742,37.07619],[129.06691,37.0767],[129.06692,37.0772],[129.06581,37.07817],[129.0656,37.07875],[129.06715,37.08098],[129.06878,37.082],[129.07008,37.08373],[129.07016,37.08389],[129.07081,37.08401],[129.07087,37.08528],[129.07013,37.08746],[129.07026,37.08756],[129.07042,37.08822],[129.07132,37.08858],[129.07251,37.08955],[129.07288,37.09005],[129.07415,37.09102],[129.075,37.09114],[129.07577,37.09153],[129.07695,37.09299],[129.07891,37.09302],[129.07999,37.09354],[129.08081,37.09337],[129.08268,37.09409],[129.08382,37.09481],[129.08405,37.09519],[129.08501,37.09585],[129.08593,37.09633],[129.08749,37.09711],[129.08856,37.09722],[129.09059,37.09716],[129.09128,37.09725],[129.0924,37.09864],[129.0944,37.09939],[129.09566,37.10031],[129.09448,37.10249],[129.09458,37.10365]]]},"properties":{"code":"32050550","name":"구문소동"}},{"type":"Feature","geometry":{"type":"Polygon","coordinates":[[[129.00587,37.11309],[129.00556,37.11346],[129.00641,37.11603],[129.00633,37.11684],[129.00578,37.11735],[129.00553,37.1172],[129.00509,37.11753],[129.00463,37.11729],[129.00312,37.11591],[129.00172,37.11523],[129.00087,37.11537],[129.00052,37.11516],[129.0001,37.11536],[129.00012,37.11603],[128.99928,37.11675],[128.99773,37.11689],[128.99715,37.11662],[128.99625,37.11715],[128.99558,37.11704],[128.99547,37.11617],[128.9949,37.11451],[128.9956,37.11349],[128.99482,37.11256],[128.99416,37.11236],[128.99252,37.11121],[128.99193,37.11047],[128.99207,37.11012],[128.99131,37.10988],[128.99113,37.10955],[128.99025,37.10916],[128.98927,37.10805],[128.98933,37.10697],[128.98861,37.10587],[128.98882,37.105],[128.98947,37.10408],[128.98931,37.10388],[128.98827,37.10352],[128.98788,37.10323],[128.9869,37.10309],[128.98599,37.10326],[128.98482,37.10272],[128.98404,37.10226],[128.98315,37.10155],[128.98247,37.10123],[128.98206,37.10124],[128.9813,37.10035],[128.98046,37.0998],[128.98029,37.09955],[128.97876,37.09913],[128.97748,37.09895],[128.97674,37.09834],[128.97649,37.09725],[128.97657,37.09698],[128.97643,37.09653],[128.97544,37.09645],[128.97441,37.09629],[128.97382,37.09633],[128.97194,37.09708],[128.97021,37.09759],[128.96801,37.09795],[128.96744,37.09795],[128.9669,37.09762],[128.96587,37.09753],[128.9652,37.0977],[128.96448,37.09807],[128.96412,37.09812],[128.96357,37.09843],[128.96306,37.09841],[128.96157,37.09925],[128.9608,37.09936],[128.95971,37.09991],[128.95838,37.1005],[128.95734,37.09909],[128.95643,37.09832],[128.95476,37.09748],[128.95284,37.09586],[128.95168,37.09553],[128.95137,37.09534],[128.95073,37.09536],[128.94999,37.09526],[128.94868,37.09487],[128.94714,37.09422],[128.94622,37.09413],[128.94566,37.09378],[128.94576,37.09279],[128.9465,37.0924],[128.94749,37.09168],[128.9479,37.09106],[128.94867,37.09043],[128.94941,37.08959],[128.94956,37.08936],[128.95025,37.08871],[128.95029,37.08798],[128.95077,37.08734],[128.95077,37.08714],[128.95126,37.08646],[128.9524,37.08589],[128.95343,37.08492],[128.95301,37.08374],[128.9531,37.08177],[128.9533,37.08125],[128.9537,37.08101],[128.95392,37.08067],[128.95416,37.08054],[128.9548,37.07972],[128.95482,37.07959],[128.95568,37.0793],[128.95631,37.07939],[128.95728,37.07902],[128.9575,37.07879],[128.95789,37.07876],[128.95854,37.07845],[128.95901,37.07779],[128.95927,37.07758],[128.96013,37.07786],[128.96101,37.07798],[128.96136,37.0783],[128.96285,37.07842],[128.96376,37.07866],[128.96394,37.07881],[128.96479,37.07891],[128.96559,37.07923],[128.96598,37.07918],[128.96623,37.07934],[128.96688,37.07933],[128.96832,37.07969],[128.96891,37.07979],[128.96999,37.07982],[128.97096,37.08059],[128.97088,37.08107],[128.97102,37.08109],[128.9718,37.08151],[128.97369,37.08142],[128.97425,37.08123],[128.97539,37.08101],[128.97659,37.08172],[128.97744,37.08145],[128.97763,37.08156],[128.97951,37.08228],[128.98067,37.08296],[128.98185,37.08293],[128.98266,37.08414],[128.9834,37.08462],[128.98417,37.08469],[128.9857,37.0843],[128.98638,37.0843],[128.98861,37.08437],[128.99124,37.08256],[128.99314,37.08347],[128.99399,37.08433],[128.99437,37.08448],[128.99452,37.08482],[128.99515,37.08536],[128.99589,37.08482],[128.99666,37.08486],[128.99729,37.08529],[128.99831,37.08549],[128.99894,37.08604],[129.0005,37.08647],[129.00099,37.0865],[129.00188,37.08675],[129.00268,37.08703],[129.00206,37.0885],[129.00134,37.08924],[129.00235,37.09095],[129.00269,37.09112],[129.0044,37.09247],[129.00445,37.09261],[129.00418,37.09319],[129.00443,37.0941],[129.00435,37.09444],[129.00443,37.09522],[129.00629,37.09598],[129.00793,37.09653],[129.00925,37.09735],[129.0109,37.09846],[129.01169,37.0988],[129.013,37.09956],[129.0133,37.10027],[129.01412,37.10089],[129.01312,37.10343],[129.0119,37.10369],[129.01223,37.10574],[129.01193,37.10577],[129.01163,37.1054],[129.01082,37.10573],[129.00803,37.10678],[129.00693,37.10664],[129.00669,37.10689],[129.0056,37.10665],[129.0054,37.10683],[129.00621,37.10767],[129.00622,37.10858],[129.00555,37.10896],[129.0052,37.10951],[129.00526,37.10998],[129.00547,37.11026],[129.00514,37.11113],[129.00502,37.11124],[129.00528,37.1118],[129.00546,37.11271],[129.00587,37.11309]]]},"properties":{"code":"32050560","name":"장성동"}},{"type":"Feature","geometry":{"type":"Polygon","coordinates":[[[129.0887,37.14394],[129.08847,37.143],[129.08785,37.14246],[129.08762,37.14178],[129.08651,37.14143],[129.08573,37.1409],[129.08518,37.14047],[129.08507,37.14028],[129.08431,37.14028],[129.08403,37.14008],[129.08313,37.14],[129.08162,37.14036],[129.08139,37.1406],[129.081,37.14063],[129.08065,37.14056],[129.08024,37.14024],[129.0794,37.14018],[129.07781,37.14073],[129.0774,37.14074],[129.07646,37.14138],[129.075,37.14221],[129.07399,37.1423],[129.07349,37.14224],[129.07309,37.14234],[129.07248,37.14282],[129.0719,37.14364],[129.06906,37.14352],[129.06813,37.14368],[129.0674,37.14364],[129.06685,37.14405],[129.06567,37.14386],[129.06475,37.14356],[129.06375,37.1436],[129.06309,37.1445],[129.06271,37.14464],[129.06177,37.14416],[129.0608,37.14396],[129.06041,37.14377],[129.06002,37.14331],[129.05871,37.14258],[129.05859,37.14231],[129.05813,37.14192],[129.0576,37.14099],[129.05689,37.14085],[129.05627,37.14132],[129.05563,37.14143],[129.05507,37.14164],[129.05449,37.14198],[129.05363,37.14191],[129.05249,37.14152],[129.05101,37.14127],[129.04963,37.14117],[129.04882,37.14099],[129.04802,37.14112],[129.04739,37.14132],[129.047,37.14129],[129.04609,37.1409],[129.04558,37.14038],[129.045,37.14],[129.04468,37.13961],[129.04398,37.13917],[129.04387,37.13854],[129.04296,37.13772],[129.04229,37.1369],[129.04196,37.13621],[129.04105,37.1353],[129.04032,37.13545],[129.04,37.13561],[129.03907,37.13556],[129.03851,37.13537],[129.03786,37.13493],[129.03709,37.1348],[129.0354,37.13509],[129.0349,37.13542],[129.03432,37.13589],[129.03397,37.13636],[129.03351,37.13679],[129.03298,37.13703],[129.03272,37.13699],[129.03174,37.13637],[129.03016,37.13604],[129.02933,37.13492],[129.0274,37.13418],[129.02622,37.13328],[129.02577,37.13307],[129.02464,37.13345],[129.02353,37.13366],[129.02206,37.1329],[129.0216,37.13274],[129.02072,37.13325],[129.02023,37.13334],[129.01913,37.13334],[129.01842,37.13313],[129.01636,37.13315],[129.01658,37.13222],[129.01589,37.13069],[129.01629,37.12989],[129.01651,37.12899],[129.01764,37.12752],[129.0179,37.12674],[129.01776,37.1261],[129.0183,37.12529],[129.01894,37.125],[129.01967,37.12439],[129.0195,37.12373],[129.02047,37.12251],[129.02039,37.12154],[129.02073,37.12082],[129.02085,37.11982],[129.02128,37.1196],[129.0228,37.11918],[129.02266,37.11862],[129.02231,37.11817],[129.02259,37.11757],[129.02287,37.11735],[129.02239,37.11584],[129.02358,37.11516],[129.02379,37.11466],[129.02467,37.1139],[129.0255,37.11368],[129.02598,37.11334],[129.02652,37.11245],[129.02667,37.11123],[129.02713,37.11056],[129.02755,37.11055],[129.02838,37.10953],[129.02827,37.10888],[129.02888,37.10866],[129.03028,37.10706],[129.03078,37.10618],[129.03319,37.1059],[129.03428,37.10716],[129.03497,37.10806],[129.03586,37.10916],[129.03603,37.1093],[129.03642,37.10876],[129.03758,37.10862],[129.03755,37.10892],[129.03723,37.10929],[129.03715,37.10995],[129.03694,37.11028],[129.03688,37.1107],[129.03963,37.11116],[129.04045,37.11122],[129.04125,37.11144],[129.04178,37.11242],[129.04313,37.1126],[129.04444,37.11199],[129.04529,37.11229],[129.04623,37.11203],[129.04757,37.112],[129.04951,37.11185],[129.05107,37.11233],[129.05184,37.11277],[129.05206,37.11306],[129.05269,37.11324],[129.05315,37.1141],[129.05361,37.1143],[129.0547,37.11442],[129.05707,37.11349],[129.05691,37.1126],[129.05623,37.1104],[129.0578,37.10992],[129.05878,37.10999],[129.06003,37.11023],[129.06216,37.11033],[129.06336,37.11023],[129.06454,37.11052],[129.06619,37.1099],[129.06686,37.10997],[129.06749,37.10923],[129.06931,37.10945],[129.07007,37.10928],[129.0711,37.10967],[129.07182,37.10947],[129.07451,37.11014],[129.07555,37.10932],[129.07686,37.1087],[129.07786,37.10852],[129.07872,37.10797],[129.07944,37.10806],[129.08146,37.10774],[129.08222,37.10723],[129.0837,37.10724],[129.08449,37.10743],[129.08561,37.10676],[129.08596,37.10621],[129.08645,37.10599],[129.08754,37.10527],[129.08819,37.1043],[129.0902,37.10304],[129.0913,37.10277],[129.09234,37.10234],[129.09353,37.10285],[129.09458,37.10365],[129.0946,37.10368],[129.09359,37.10523],[129.09372,37.10554],[129.09133,37.10827],[129.09069,37.10897],[129.09033,37.11015],[129.09004,37.11049],[129.09003,37.11084],[129.08864,37.11327],[129.08799,37.11365],[129.08791,37.11421],[129.08815,37.11492],[129.08947,37.11743],[129.08991,37.11754],[129.09101,37.1181],[129.09196,37.11947],[129.0918,37.11992],[129.09105,37.12025],[129.0904,37.12093],[129.09037,37.12179],[129.09013,37.12284],[129.08933,37.12334],[129.08906,37.12357],[129.08931,37.12437],[129.09008,37.12521],[129.09062,37.12642],[129.09098,37.12759],[129.09072,37.12963],[129.09154,37.13041],[129.09193,37.13059],[129.0928,37.1314],[129.09356,37.13422],[129.09358,37.13527],[129.09414,37.13627],[129.09485,37.13692],[129.09505,37.13776],[129.09537,37.13843],[129.09424,37.13935],[129.0938,37.14036],[129.09345,37.14216],[129.09238,37.14228],[129.09114,37.1432],[129.0887,37.14394]]]},"properties":{"code":"32050580","name":"철암동"}},{"type":"Feature","geometry":{"type":"Polygon","coordinates":[[[129.00256,37.15272],[129.00218,37.15261],[129.00196,37.1522],[129.00182,37.15135],[129.00182,37.15089],[129.00222,37.15032],[129.0024,37.14985],[129.00212,37.14953],[129.00204,37.14793],[129.00166,37.14751],[129.00147,37.14709],[129.00192,37.14652],[129.00193,37.14569],[129.0012,37.1454],[129.00061,37.14469],[129.00027,37.14446],[128.99966,37.14423],[128.9993,37.14392],[128.99886,37.14325],[128.99855,37.14308],[128.99827,37.14308],[128.99743,37.14283],[128.99756,37.14138],[128.99742,37.14107],[128.99757,37.13978],[128.99737,37.13847],[128.99687,37.13732],[128.99538,37.13685],[128.99468,37.13643],[128.9939,37.13636],[128.99316,37.13643],[128.99248,37.13622],[128.99146,37.13641],[128.99074,37.13621],[128.98958,37.13559],[128.98881,37.13527],[128.98823,37.13537],[128.98784,37.1356],[128.98677,37.13578],[128.98633,37.13568],[128.98594,37.13584],[128.98591,37.13695],[128.98468,37.13765],[128.98437,37.13789],[128.98405,37.13908],[128.98327,37.13935],[128.98229,37.14025],[128.98247,37.14101],[128.98187,37.14171],[128.98159,37.14187],[128.9812,37.14235],[128.98035,37.14295],[128.97929,37.14199],[128.97946,37.14251],[128.97864,37.1422],[128.97774,37.14157],[128.97744,37.14148],[128.9762,37.14243],[128.97396,37.14169],[128.97305,37.14109],[128.97213,37.13982],[128.97085,37.13954],[128.96952,37.13898],[128.96631,37.13699],[128.96352,37.13731],[128.96263,37.1379],[128.96188,37.13811],[128.96086,37.13858],[128.96018,37.13915],[128.96028,37.13991],[128.96015,37.14043],[128.95964,37.14093],[128.95953,37.14134],[128.95992,37.14278],[128.96027,37.1433],[128.96015,37.14376],[128.95973,37.14432],[128.95877,37.14439],[128.95668,37.14502],[128.95631,37.14529],[128.95502,37.146],[128.954,37.14679],[128.95296,37.14666],[128.95238,37.14637],[128.95191,37.14647],[128.95017,37.14637],[128.94929,37.14679],[128.94915,37.14747],[128.94868,37.14776],[128.94742,37.14792],[128.94713,37.14835],[128.9456,37.14866],[128.94516,37.14923],[128.94453,37.14958],[128.94415,37.15019],[128.94327,37.15112],[128.94292,37.15135],[128.9424,37.15269],[128.94085,37.15363],[128.93963,37.15404],[128.93881,37.15392],[128.9363,37.15571],[128.9357,37.15578],[128.93481,37.15545],[128.93251,37.15629],[128.93121,37.15644],[128.93004,37.15737],[128.92859,37.15808],[128.92684,37.15801],[128.92451,37.15753],[128.92338,37.15827],[128.92307,37.15864],[128.92305,37.1592],[128.92202,37.16017],[128.92066,37.16111],[128.91933,37.16104],[128.91806,37.16087],[128.91764,37.16113],[128.9176,37.16116],[128.91728,37.16069],[128.9168,37.15939],[128.91695,37.15792],[128.91674,37.15747],[128.91632,37.15715],[128.91597,37.15643],[128.91571,37.15538],[128.91493,37.15392],[128.91448,37.15365],[128.9142,37.15339],[128.91285,37.15074],[128.91255,37.15003],[128.91194,37.14926],[128.91089,37.14886],[128.90917,37.14792],[128.90814,37.14794],[128.90708,37.14787],[128.90638,37.14802],[128.90606,37.14817],[128.90501,37.14839],[128.90459,37.14819],[128.90365,37.14791],[128.9027,37.14781],[128.90182,37.14777],[128.90117,37.14739],[128.90053,37.14708],[128.89861,37.14704],[128.89738,37.14717],[128.89607,37.14663],[128.89487,37.14662],[128.894,37.14623],[128.8929,37.14531],[128.89251,37.1447],[128.89154,37.14432],[128.89068,37.14412],[128.88922,37.14253],[128.88855,37.14163],[128.88818,37.14107],[128.88814,37.14061],[128.88788,37.13984],[128.88797,37.13957],[128.88781,37.13837],[128.88737,37.13776],[128.88736,37.13731],[128.88706,37.13684],[128.88692,37.13632],[128.88714,37.13561],[128.88706,37.1353],[128.88698,37.13449],[128.88742,37.13302],[128.88778,37.13225],[128.88809,37.13189],[128.88807,37.13133],[128.88823,37.13098],[128.8882,37.13037],[128.88803,37.13022],[128.88837,37.12989],[128.88883,37.12928],[128.88902,37.12878],[128.88863,37.12705],[128.88872,37.126],[128.88924,37.12471],[128.88881,37.12419],[128.88832,37.12407],[128.88751,37.12345],[128.88685,37.12268],[128.88632,37.12174],[128.88571,37.12142],[128.88447,37.1213],[128.8832,37.12021],[128.88324,37.11978],[128.88309,37.11946],[128.8819,37.1194],[128.88078,37.11892],[128.87963,37.1187],[128.87948,37.11761],[128.87919,37.11724],[128.87847,37.11655],[128.8776,37.11654],[128.87759,37.11593],[128.87684,37.11519],[128.87646,37.11507],[128.87615,37.11459],[128.87444,37.11385],[128.87376,37.11379],[128.87325,37.11406],[128.87238,37.11417],[128.8718,37.11398],[128.87144,37.11397],[128.87046,37.11363],[128.87023,37.11321],[128.87027,37.11275],[128.86948,37.11247],[128.86932,37.11212],[128.86947,37.11057],[128.86944,37.10979],[128.86819,37.10897],[128.86716,37.10886],[128.86733,37.10829],[128.86762,37.10783],[128.86817,37.10725],[128.86879,37.10711],[128.86996,37.10779],[128.87048,37.10796],[128.87162,37.10783],[128.87287,37.10787],[128.87338,37.10808],[128.87422,37.10834],[128.87492,37.10829],[128.87555,37.10807],[128.87642,37.10745],[128.87715,37.10669],[128.8776,37.10592],[128.87814,37.10492],[128.87845,37.10477],[128.8788,37.10447],[128.88087,37.10438],[128.8819,37.10413],[128.88249,37.10379],[128.88249,37.10367],[128.88351,37.10299],[128.88452,37.10286],[128.88603,37.10274],[128.88674,37.10244],[128.88698,37.10215],[128.88725,37.10199],[128.88741,37.10171],[128.88717,37.10057],[128.88701,37.10029],[128.88694,37.09962],[128.88659,37.09902],[128.88645,37.09859],[128.88655,37.09726],[128.8867,37.09677],[128.88734,37.09562],[128.88763,37.09536],[128.88783,37.09546],[128.88799,37.09459],[128.88792,37.09365],[128.88827,37.09336],[128.88846,37.09263],[128.88856,37.09171],[128.88818,37.09112],[128.88718,37.09036],[128.88684,37.08993],[128.88653,37.08974],[128.88634,37.08934],[128.88605,37.08962],[128.88565,37.08936],[128.88557,37.0884],[128.88522,37.08677],[128.88531,37.08594],[128.88491,37.0851],[128.88505,37.08434],[128.885,37.08403],[128.88417,37.08368],[128.88354,37.08295],[128.88303,37.08258],[128.88253,37.08205],[128.88214,37.08144],[128.88157,37.08095],[128.88092,37.08056],[128.88058,37.08048],[128.87933,37.07991],[128.87868,37.07971],[128.87815,37.07965],[128.87691,37.07896],[128.87605,37.07869],[128.8756,37.07847],[128.87491,37.07861],[128.87454,37.0786],[128.87455,37.07823],[128.87508,37.07749],[128.87487,37.07708],[128.87496,37.076],[128.87482,37.07547],[128.87552,37.07443],[128.87557,37.07328],[128.87596,37.07285],[128.87641,37.07202],[128.87767,37.07119],[128.87811,37.07077],[128.87932,37.07015],[128.88047,37.06898],[128.88227,37.06785],[128.88305,37.0676],[128.88372,37.0672],[128.88531,37.06586],[128.8857,37.06595],[128.88574,37.06565],[128.88559,37.06547],[128.88538,37.06456],[128.88577,37.06398],[128.88615,37.06378],[128.88631,37.06313],[128.88662,37.06249],[128.8871,37.06213],[128.88839,37.06169],[128.88881,37.0618],[128.88969,37.06178],[128.89162,37.06204],[128.89245,37.06262],[128.89416,37.06347],[128.89529,37.06363],[128.89587,37.06416],[128.89613,37.06426],[128.89617,37.06474],[128.89753,37.06567],[128.89808,37.06621],[128.89874,37.06649],[128.89876,37.06666],[128.89942,37.06672],[128.90132,37.06679],[128.90258,37.06645],[128.90332,37.06639],[128.90498,37.06597],[128.90512,37.06597],[128.90609,37.06626],[128.90713,37.06688],[128.91032,37.06832],[128.91037,37.06962],[128.91019,37.07022],[128.91084,37.07115],[128.91223,37.07205],[128.91323,37.07309],[128.91429,37.07502],[128.91419,37.07603],[128.91484,37.07695],[128.9153,37.07745],[128.91621,37.07804],[128.91693,37.0787],[128.91694,37.0792],[128.91722,37.0801],[128.91695,37.08102],[128.91651,37.08208],[128.91506,37.08371],[128.91616,37.08442],[128.9175,37.08559],[128.91794,37.08583],[128.91862,37.08728],[128.91875,37.08747],[128.91948,37.08902],[128.9199,37.08938],[128.92017,37.08984],[128.92112,37.09059],[128.92132,37.09063],[128.92178,37.09143],[128.92332,37.09212],[128.92362,37.0921],[128.92452,37.09177],[128.92495,37.09184],[128.9253,37.09176],[128.92641,37.09183],[128.92667,37.09162],[128.9275,37.09132],[128.92861,37.09115],[128.92935,37.09118],[128.93145,37.09096],[128.93206,37.09087],[128.93306,37.09163],[128.93313,37.0918],[128.93439,37.09201],[128.93642,37.09213],[128.93674,37.09211],[128.9374,37.09237],[128.93782,37.0928],[128.9393,37.09299],[128.93989,37.09295],[128.94045,37.09341],[128.94147,37.09341],[128.94235,37.09334],[128.94291,37.0934],[128.94374,37.09333],[128.94422,37.09359],[128.94525,37.09366],[128.94566,37.09378],[128.94622,37.09413],[128.94714,37.09422],[128.94868,37.09487],[128.94999,37.09526],[128.95073,37.09536],[128.95137,37.09534],[128.95168,37.09553],[128.95284,37.09586],[128.95476,37.09748],[128.95643,37.09832],[128.95734,37.09909],[128.95838,37.1005],[128.95971,37.09991],[128.9608,37.09936],[128.96157,37.09925],[128.96306,37.09841],[128.96357,37.09843],[128.96412,37.09812],[128.96448,37.09807],[128.9652,37.0977],[128.96587,37.09753],[128.9669,37.09762],[128.96744,37.09795],[128.96801,37.09795],[128.97021,37.09759],[128.97194,37.09708],[128.97382,37.09633],[128.97441,37.09629],[128.97544,37.09645],[128.97643,37.09653],[128.97657,37.09698],[128.97649,37.09725],[128.97674,37.09834],[128.97748,37.09895],[128.97876,37.09913],[128.98029,37.09955],[128.98046,37.0998],[128.9813,37.10035],[128.98206,37.10124],[128.98247,37.10123],[128.98315,37.10155],[128.98404,37.10226],[128.98482,37.10272],[128.98599,37.10326],[128.9869,37.10309],[128.98788,37.10323],[128.98827,37.10352],[128.98931,37.10388],[128.98947,37.10408],[128.98882,37.105],[128.98861,37.10587],[128.98933,37.10697],[128.98927,37.10805],[128.99025,37.10916],[128.99113,37.10955],[128.99131,37.10988],[128.99207,37.11012],[128.99193,37.11047],[128.99252,37.11121],[128.99416,37.11236],[128.99482,37.11256],[128.9956,37.11349],[128.9949,37.11451],[128.99547,37.11617],[128.99558,37.11704],[128.99625,37.11715],[128.99715,37.11662],[128.99773,37.11689],[128.99928,37.11675],[129.00012,37.11603],[129.0001,37.11536],[129.00052,37.11516],[129.00087,37.11537],[129.00172,37.11523],[129.00312,37.11591],[129.00463,37.11729],[129.00509,37.11753],[129.00553,37.1172],[129.00578,37.11735],[129.00633,37.11684],[129.00641,37.11603],[129.00556,37.11346],[129.00587,37.11309],[129.00689,37.11173],[129.00812,37.1111],[129.00841,37.11063],[129.00844,37.1102],[129.00933,37.11014],[129.01007,37.10971],[129.0107,37.10977],[129.01227,37.11006],[129.01264,37.11102],[129.01332,37.11169],[129.01381,37.11258],[129.01386,37.11368],[129.01394,37.11446],[129.01431,37.11521],[129.0148,37.11543],[129.0148,37.11625],[129.01534,37.11765],[129.01607,37.11818],[129.01739,37.11839],[129.01774,37.11848],[129.01867,37.11908],[129.01921,37.11893],[129.02122,37.11955],[129.02128,37.1196],[129.02085,37.11982],[129.02073,37.12082],[129.02039,37.12154],[129.02047,37.12251],[129.0195,37.12373],[129.01967,37.12439],[129.01894,37.125],[129.0183,37.12529],[129.01776,37.1261],[129.0179,37.12674],[129.01764,37.12752],[129.01651,37.12899],[129.01629,37.12989],[129.01589,37.13069],[129.01658,37.13222],[129.01636,37.13315],[129.01589,37.13366],[129.01506,37.13368],[129.01435,37.13358],[129.01311,37.13359],[129.01239,37.13415],[129.01192,37.13458],[129.01087,37.13505],[129.00991,37.13566],[129.01018,37.13721],[129.00961,37.13788],[129.00961,37.13815],[129.00986,37.13844],[129.00997,37.13875],[129.0099,37.13935],[129.00964,37.13959],[129.00937,37.14024],[129.00991,37.14102],[129.00931,37.14209],[129.00971,37.14269],[129.00994,37.14387],[129.00989,37.145],[129.00995,37.14539],[129.01058,37.14633],[129.0099,37.14668],[129.00918,37.14722],[129.00837,37.14757],[129.00722,37.14773],[129.00699,37.14807],[129.00659,37.14829],[129.00571,37.1497],[129.00516,37.15034],[129.0043,37.15153],[129.00382,37.15202],[129.00256,37.15272]]]},"properties":{"code":"32050620","name":"문곡소도동"}}],"profileId":"gangwon","schemaVersion":2,"dataVersion":"gangwon-2022-563a6bb6162048a7"}
