{"type":"FeatureCollection","features":[{"type":"Feature","geometry":{"type":"Polygon","coordinates":[[[128.60189,38.21325],[128.60223,38.21322],[128.60231,38.21347],[128.60217,38.21374],[128.60225,38.21417],[128.60191,38.21466],[128.6014,38.21426],[128.60155,38.21388],[128.60118,38.21387],[128.60109,38.21416],[128.60073,38.21429],[128.60075,38.2145],[128.6004,38.21481],[128.59969,38.21505],[128.5994,38.21504],[128.59902,38.21481],[128.59899,38.21461],[128.59871,38.21456],[128.59804,38.21476],[128.59796,38.21492],[128.59716,38.2154],[128.59647,38.21616],[128.59581,38.21673],[128.59553,38.21717],[128.5954,38.21773],[128.59551,38.21816],[128.59582,38.21848],[128.59645,38.21859],[128.5964,38.21807],[128.59679,38.21802],[128.59682,38.21859],[128.59603,38.21938],[128.59548,38.21948],[128.59526,38.21927],[128.59566,38.21912],[128.59549,38.21869],[128.59502,38.21843],[128.59473,38.21839],[128.59408,38.2185],[128.5923,38.22038],[128.59225,38.22107],[128.59232,38.22136],[128.59259,38.22184],[128.59286,38.22201],[128.59353,38.22173],[128.59371,38.22152],[128.59393,38.22156],[128.59396,38.22182],[128.59307,38.2222],[128.59284,38.22296],[128.59256,38.22358],[128.59222,38.22352],[128.5923,38.22318],[128.59244,38.22312],[128.59273,38.22216],[128.59071,38.22115],[128.59018,38.22128],[128.59084,38.22168],[128.59095,38.2218],[128.59209,38.22241],[128.59203,38.22253],[128.5912,38.22209],[128.59071,38.22222],[128.59043,38.22253],[128.58977,38.22356],[128.58974,38.2241],[128.58983,38.22447],[128.59073,38.22463],[128.59082,38.22482],[128.58972,38.22454],[128.58944,38.22481],[128.58935,38.22525],[128.58884,38.22635],[128.58868,38.22684],[128.58988,38.22705],[128.59027,38.22659],[128.59147,38.22491],[128.59164,38.2246],[128.59187,38.22486],[128.59146,38.22533],[128.5907,38.22636],[128.59024,38.22713],[128.5899,38.22735],[128.58867,38.22716],[128.58839,38.22703],[128.58766,38.22721],[128.58749,38.22756],[128.58724,38.2277],[128.58714,38.22804],[128.5867,38.22851],[128.58687,38.22859],[128.5868,38.22922],[128.58647,38.22977],[128.58624,38.22984],[128.58618,38.23019],[128.58586,38.2304],[128.58555,38.23048],[128.58529,38.23074],[128.58493,38.23077],[128.58488,38.22931],[128.58466,38.2289],[128.58444,38.22871],[128.58405,38.22878],[128.58335,38.22918],[128.58257,38.22908],[128.58223,38.22803],[128.58093,38.22786],[128.58065,38.22763],[128.58032,38.22753],[128.58,38.22666],[128.57924,38.22621],[128.57925,38.22573],[128.57942,38.22537],[128.57904,38.22477],[128.57836,38.22431],[128.5779,38.22425],[128.57747,38.22393],[128.57601,38.22321],[128.57564,38.22259],[128.57507,38.22241],[128.57432,38.22179],[128.57382,38.22175],[128.57356,38.22154],[128.57243,38.22131],[128.57213,38.2214],[128.57186,38.22164],[128.57152,38.2216],[128.57134,38.22144],[128.57078,38.22142],[128.57023,38.22133],[128.56886,38.22087],[128.56871,38.22046],[128.56819,38.22014],[128.56733,38.22007],[128.56637,38.22044],[128.56507,38.2204],[128.56431,38.22069],[128.56334,38.22054],[128.56263,38.22076],[128.56123,38.22095],[128.56053,38.22071],[128.55979,38.22027],[128.55954,38.21984],[128.55927,38.21992],[128.55883,38.21982],[128.55846,38.21954],[128.5581,38.21951],[128.55718,38.21974],[128.55678,38.21963],[128.55646,38.21917],[128.55642,38.21878],[128.5556,38.21818],[128.55553,38.21802],[128.55448,38.21774],[128.55389,38.21799],[128.55384,38.21812],[128.55309,38.21782],[128.5525,38.21747],[128.55178,38.21753],[128.55099,38.21765],[128.55086,38.21794],[128.55045,38.21782],[128.54997,38.21801],[128.54933,38.21781],[128.54916,38.21764],[128.54819,38.21734],[128.54783,38.21758],[128.54676,38.21718],[128.54636,38.21685],[128.54595,38.21672],[128.5456,38.21674],[128.54526,38.21646],[128.54488,38.2166],[128.54405,38.21657],[128.54345,38.21713],[128.54302,38.21719],[128.54253,38.21712],[128.54161,38.21732],[128.54109,38.21753],[128.54011,38.21753],[128.53849,38.21713],[128.53807,38.21737],[128.5376,38.21737],[128.53621,38.21637],[128.53508,38.21593],[128.5337,38.21581],[128.53316,38.21534],[128.5324,38.21487],[128.53214,38.21439],[128.53058,38.21362],[128.53068,38.21302],[128.53047,38.21268],[128.53053,38.21254],[128.52983,38.21182],[128.52921,38.21126],[128.52863,38.2111],[128.52769,38.21051],[128.52639,38.21009],[128.52618,38.20986],[128.52538,38.20938],[128.52468,38.2089],[128.52376,38.20861],[128.52221,38.20762],[128.52327,38.20747],[128.52519,38.20695],[128.52727,38.20696],[128.52996,38.2058],[128.53035,38.20549],[128.53063,38.20503],[128.53216,38.20377],[128.53269,38.20366],[128.53332,38.20344],[128.53538,38.20358],[128.53609,38.20358],[128.53644,38.2035],[128.5369,38.20365],[128.53721,38.20358],[128.53743,38.20321],[128.53786,38.20304],[128.53854,38.20312],[128.54006,38.2035],[128.54096,38.20363],[128.54133,38.20353],[128.54157,38.20334],[128.54193,38.20322],[128.54228,38.2032],[128.54286,38.20303],[128.54393,38.20308],[128.54526,38.20326],[128.54545,38.20339],[128.54613,38.20358],[128.54732,38.20407],[128.54793,38.20451],[128.54905,38.20457],[128.54956,38.20478],[128.55053,38.20505],[128.55084,38.20498],[128.55166,38.20493],[128.55269,38.20575],[128.55282,38.20595],[128.55356,38.20665],[128.55387,38.20681],[128.55441,38.20679],[128.55589,38.20639],[128.55705,38.20566],[128.55782,38.20542],[128.55838,38.20519],[128.55981,38.20478],[128.56013,38.20475],[128.56048,38.20506],[128.56076,38.20543],[128.56121,38.20553],[128.56156,38.20583],[128.56234,38.20561],[128.56219,38.20593],[128.56254,38.20636],[128.56259,38.2068],[128.56246,38.20728],[128.56286,38.20749],[128.56304,38.20792],[128.56297,38.20826],[128.5634,38.20866],[128.56435,38.20898],[128.56441,38.20919],[128.56507,38.20998],[128.56554,38.20986],[128.56577,38.21007],[128.56638,38.21019],[128.56729,38.2103],[128.56759,38.21045],[128.56816,38.2109],[128.56881,38.21107],[128.56925,38.21138],[128.5694,38.21161],[128.56967,38.21239],[128.56988,38.21273],[128.57052,38.21285],[128.57148,38.2133],[128.57251,38.2134],[128.57277,38.21353],[128.57364,38.21439],[128.57372,38.21454],[128.57394,38.21561],[128.57419,38.21577],[128.575,38.21573],[128.57599,38.21524],[128.57624,38.21482],[128.5763,38.2145],[128.57665,38.21448],[128.57695,38.21465],[128.57758,38.21543],[128.57813,38.21593],[128.5786,38.21596],[128.57899,38.21575],[128.57943,38.21565],[128.57989,38.21541],[128.58079,38.21536],[128.58199,38.21556],[128.5825,38.21571],[128.58285,38.21597],[128.58352,38.21599],[128.58375,38.21526],[128.58381,38.21486],[128.58297,38.21497],[128.58269,38.21473],[128.58247,38.21431],[128.58219,38.21409],[128.58217,38.21373],[128.58177,38.21338],[128.58217,38.21311],[128.58253,38.21303],[128.58307,38.21278],[128.58351,38.21271],[128.58368,38.21233],[128.58403,38.21217],[128.58443,38.21227],[128.58432,38.21266],[128.5838,38.21311],[128.5837,38.21355],[128.5839,38.21399],[128.5843,38.2145],[128.58428,38.21464],[128.58513,38.21613],[128.58516,38.21666],[128.58545,38.21675],[128.58554,38.21638],[128.58721,38.21594],[128.58784,38.2151],[128.58811,38.21451],[128.58824,38.21368],[128.58818,38.21351],[128.58814,38.21239],[128.58856,38.21232],[128.58917,38.21245],[128.58984,38.21296],[128.5901,38.21277],[128.59055,38.21281],[128.59106,38.21309],[128.59149,38.21299],[128.59176,38.21377],[128.59316,38.21369],[128.59308,38.21348],[128.59331,38.21336],[128.59365,38.21338],[128.5938,38.21304],[128.59368,38.21295],[128.59401,38.21267],[128.59432,38.21263],[128.5945,38.21279],[128.59489,38.21293],[128.59516,38.21318],[128.59533,38.21309],[128.59627,38.21304],[128.5963,38.21356],[128.59668,38.21362],[128.59701,38.21394],[128.59737,38.21406],[128.59743,38.21425],[128.59786,38.21402],[128.59806,38.21403],[128.59819,38.21361],[128.59899,38.21333],[128.59951,38.21335],[128.5999,38.21293],[128.60015,38.21317],[128.60077,38.21343],[128.60087,38.21354],[128.60158,38.21353],[128.60189,38.21325]]]},"properties":{"code":"32060510","name":"영랑동"}},{"type":"Feature","geometry":{"type":"Polygon","coordinates":[[[128.60189,38.21325],[128.60158,38.21353],[128.60087,38.21354],[128.60077,38.21343],[128.60015,38.21317],[128.5999,38.21293],[128.59951,38.21335],[128.59899,38.21333],[128.59819,38.21361],[128.59806,38.21403],[128.59786,38.21402],[128.59743,38.21425],[128.59737,38.21406],[128.59701,38.21394],[128.59668,38.21362],[128.5963,38.21356],[128.59627,38.21304],[128.59533,38.21309],[128.59516,38.21318],[128.59489,38.21293],[128.5945,38.21279],[128.59432,38.21263],[128.59401,38.21267],[128.59368,38.21295],[128.5938,38.21304],[128.59365,38.21338],[128.59331,38.21336],[128.59308,38.21348],[128.59316,38.21369],[128.59176,38.21377],[128.59149,38.21299],[128.59106,38.21309],[128.59055,38.21281],[128.5901,38.21277],[128.58984,38.21296],[128.58917,38.21245],[128.58856,38.21232],[128.58814,38.21239],[128.58818,38.21351],[128.58824,38.21368],[128.58811,38.21451],[128.58784,38.2151],[128.58721,38.21594],[128.58554,38.21638],[128.58545,38.21675],[128.58516,38.21666],[128.58513,38.21613],[128.58428,38.21464],[128.5843,38.2145],[128.5839,38.21399],[128.5837,38.21355],[128.5838,38.21311],[128.58432,38.21266],[128.58443,38.21227],[128.58403,38.21217],[128.5839,38.21183],[128.58386,38.21119],[128.58375,38.21067],[128.58401,38.21066],[128.58475,38.21115],[128.58486,38.21088],[128.58534,38.21078],[128.58579,38.21051],[128.58594,38.21029],[128.58639,38.21002],[128.58664,38.20998],[128.58685,38.20965],[128.58698,38.20885],[128.58747,38.20867],[128.5876,38.20833],[128.5882,38.20809],[128.58854,38.20773],[128.58923,38.20761],[128.58946,38.20796],[128.5898,38.20783],[128.58951,38.20699],[128.59003,38.20681],[128.59027,38.20685],[128.59094,38.20678],[128.59115,38.20732],[128.59179,38.20725],[128.59171,38.20781],[128.59223,38.20789],[128.59245,38.20776],[128.59243,38.20747],[128.59265,38.20725],[128.59266,38.2069],[128.59368,38.20692],[128.5943,38.20688],[128.59448,38.20693],[128.59451,38.21067],[128.60052,38.21065],[128.60025,38.2107],[128.60025,38.21137],[128.60139,38.21134],[128.60148,38.2109],[128.60129,38.21065],[128.60097,38.21065],[128.60104,38.21029],[128.60182,38.21028],[128.60202,38.20936],[128.60234,38.20862],[128.6028,38.20739],[128.60237,38.20558],[128.60236,38.20529],[128.60296,38.20379],[128.60278,38.20355],[128.60295,38.20325],[128.60329,38.20325],[128.60355,38.20342],[128.6034,38.20386],[128.60272,38.20549],[128.60306,38.20712],[128.60305,38.2076],[128.6025,38.2091],[128.60234,38.20938],[128.60193,38.21128],[128.60226,38.21179],[128.60209,38.2122],[128.60152,38.2124],[128.60141,38.21276],[128.60161,38.21279],[128.60189,38.21325]]]},"properties":{"code":"32060520","name":"동명동"}},{"type":"Feature","geometry":{"type":"Polygon","coordinates":[[[128.58403,38.21217],[128.58368,38.21233],[128.58351,38.21271],[128.58307,38.21278],[128.58253,38.21303],[128.58217,38.21311],[128.58177,38.21338],[128.58217,38.21373],[128.58219,38.21409],[128.58247,38.21431],[128.58269,38.21473],[128.58297,38.21497],[128.58381,38.21486],[128.58375,38.21526],[128.58352,38.21599],[128.58285,38.21597],[128.5825,38.21571],[128.58199,38.21556],[128.58079,38.21536],[128.57989,38.21541],[128.57943,38.21565],[128.57899,38.21575],[128.5786,38.21596],[128.57813,38.21593],[128.57758,38.21543],[128.57695,38.21465],[128.57665,38.21448],[128.5763,38.2145],[128.57624,38.21482],[128.57599,38.21524],[128.575,38.21573],[128.57419,38.21577],[128.57394,38.21561],[128.57372,38.21454],[128.57364,38.21439],[128.57277,38.21353],[128.57251,38.2134],[128.57148,38.2133],[128.57052,38.21285],[128.56988,38.21273],[128.56967,38.21239],[128.5694,38.21161],[128.56925,38.21138],[128.56881,38.21107],[128.56834,38.21065],[128.568,38.21009],[128.56767,38.20998],[128.56845,38.20972],[128.56889,38.20952],[128.57013,38.20964],[128.57059,38.20947],[128.57135,38.20904],[128.57215,38.20883],[128.57242,38.20899],[128.57265,38.20896],[128.57294,38.20903],[128.57354,38.209],[128.57364,38.20892],[128.57433,38.20882],[128.57481,38.20885],[128.57551,38.20903],[128.57612,38.20928],[128.57635,38.20922],[128.57685,38.20889],[128.57737,38.20886],[128.57794,38.20902],[128.5782,38.2089],[128.57857,38.20896],[128.5792,38.20874],[128.57982,38.20905],[128.57988,38.20891],[128.57939,38.20863],[128.57918,38.20843],[128.58121,38.20683],[128.58111,38.20656],[128.58148,38.20625],[128.58212,38.20591],[128.58281,38.20572],[128.58357,38.20569],[128.58403,38.2056],[128.58457,38.20594],[128.58496,38.20595],[128.5859,38.2057],[128.58577,38.20543],[128.58579,38.20485],[128.58572,38.20453],[128.58528,38.20448],[128.58524,38.20412],[128.58531,38.2038],[128.58615,38.20362],[128.58625,38.20332],[128.58676,38.20298],[128.5872,38.20252],[128.58744,38.202],[128.58804,38.20196],[128.58825,38.20154],[128.58854,38.20075],[128.59031,38.20124],[128.59233,38.2014],[128.59255,38.20198],[128.5925,38.20261],[128.59228,38.20296],[128.59217,38.2033],[128.59222,38.204],[128.59319,38.205],[128.59313,38.20504],[128.59413,38.20599],[128.5943,38.20688],[128.59368,38.20692],[128.59266,38.2069],[128.59265,38.20725],[128.59243,38.20747],[128.59245,38.20776],[128.59223,38.20789],[128.59171,38.20781],[128.59179,38.20725],[128.59115,38.20732],[128.59094,38.20678],[128.59027,38.20685],[128.59003,38.20681],[128.58951,38.20699],[128.5898,38.20783],[128.58946,38.20796],[128.58923,38.20761],[128.58854,38.20773],[128.5882,38.20809],[128.5876,38.20833],[128.58747,38.20867],[128.58698,38.20885],[128.58685,38.20965],[128.58664,38.20998],[128.58639,38.21002],[128.58594,38.21029],[128.58579,38.21051],[128.58534,38.21078],[128.58486,38.21088],[128.58475,38.21115],[128.58401,38.21066],[128.58375,38.21067],[128.58386,38.21119],[128.5839,38.21183],[128.58403,38.21217]]]},"properties":{"code":"32060540","name":"금호동"}},{"type":"Feature","geometry":{"type":"Polygon","coordinates":[[[128.58854,38.20075],[128.58825,38.20154],[128.58804,38.20196],[128.58744,38.202],[128.5872,38.20252],[128.58676,38.20298],[128.58625,38.20332],[128.58615,38.20362],[128.58531,38.2038],[128.58524,38.20412],[128.58528,38.20448],[128.58572,38.20453],[128.58579,38.20485],[128.58577,38.20543],[128.5859,38.2057],[128.58496,38.20595],[128.58457,38.20594],[128.58403,38.2056],[128.58357,38.20569],[128.58281,38.20572],[128.58212,38.20591],[128.58148,38.20625],[128.58111,38.20656],[128.58121,38.20683],[128.57918,38.20843],[128.57939,38.20863],[128.57988,38.20891],[128.57982,38.20905],[128.5792,38.20874],[128.57857,38.20896],[128.5782,38.2089],[128.57794,38.20902],[128.57737,38.20886],[128.57685,38.20889],[128.57635,38.20922],[128.57612,38.20928],[128.57551,38.20903],[128.57481,38.20885],[128.57433,38.20882],[128.57364,38.20892],[128.57354,38.209],[128.57294,38.20903],[128.57265,38.20896],[128.57281,38.20876],[128.57286,38.20842],[128.57251,38.20831],[128.57303,38.20761],[128.57295,38.20755],[128.57365,38.20668],[128.57375,38.20664],[128.57427,38.2057],[128.57478,38.20572],[128.57584,38.2059],[128.57654,38.20637],[128.57753,38.20462],[128.57872,38.20242],[128.57936,38.20142],[128.57972,38.20078],[128.57956,38.20025],[128.58044,38.19945],[128.58177,38.19822],[128.58277,38.19736],[128.58293,38.19727],[128.58375,38.19794],[128.58368,38.19804],[128.58409,38.19843],[128.58434,38.19855],[128.58349,38.1994],[128.5858,38.20002],[128.58574,38.20013],[128.58742,38.20054],[128.58746,38.20045],[128.58854,38.20075]]]},"properties":{"code":"32060560","name":"교동"}},{"type":"Feature","geometry":{"type":"Polygon","coordinates":[[[128.57265,38.20896],[128.57242,38.20899],[128.57215,38.20883],[128.57135,38.20904],[128.57059,38.20947],[128.57013,38.20964],[128.56889,38.20952],[128.56845,38.20972],[128.56767,38.20998],[128.568,38.21009],[128.56834,38.21065],[128.56881,38.21107],[128.56816,38.2109],[128.56759,38.21045],[128.56729,38.2103],[128.56638,38.21019],[128.56577,38.21007],[128.56554,38.20986],[128.56507,38.20998],[128.56441,38.20919],[128.56435,38.20898],[128.5634,38.20866],[128.56297,38.20826],[128.56304,38.20792],[128.56286,38.20749],[128.56246,38.20728],[128.56259,38.2068],[128.56254,38.20636],[128.56219,38.20593],[128.56234,38.20561],[128.56156,38.20583],[128.56121,38.20553],[128.56076,38.20543],[128.56048,38.20506],[128.56013,38.20475],[128.55981,38.20478],[128.55838,38.20519],[128.55782,38.20542],[128.55705,38.20566],[128.55589,38.20639],[128.55441,38.20679],[128.55387,38.20681],[128.55356,38.20665],[128.55282,38.20595],[128.55269,38.20575],[128.55166,38.20493],[128.55084,38.20498],[128.55053,38.20505],[128.54956,38.20478],[128.54905,38.20457],[128.54793,38.20451],[128.54732,38.20407],[128.54613,38.20358],[128.54545,38.20339],[128.54526,38.20326],[128.54393,38.20308],[128.54286,38.20303],[128.54228,38.2032],[128.54193,38.20322],[128.54157,38.20334],[128.54133,38.20353],[128.54096,38.20363],[128.54006,38.2035],[128.53854,38.20312],[128.53786,38.20304],[128.53743,38.20321],[128.53721,38.20358],[128.5369,38.20365],[128.53644,38.2035],[128.53609,38.20358],[128.53538,38.20358],[128.53332,38.20344],[128.53269,38.20366],[128.53216,38.20377],[128.53063,38.20503],[128.53035,38.20549],[128.52996,38.2058],[128.52727,38.20696],[128.52519,38.20695],[128.52327,38.20747],[128.52221,38.20762],[128.52031,38.20737],[128.51977,38.20753],[128.51909,38.20764],[128.51755,38.20729],[128.5164,38.2069],[128.51503,38.20686],[128.51399,38.20774],[128.51347,38.2075],[128.51245,38.20746],[128.51213,38.20728],[128.51152,38.20666],[128.5114,38.20648],[128.51067,38.20584],[128.51003,38.20562],[128.50872,38.20468],[128.50685,38.2039],[128.50561,38.20378],[128.50407,38.20353],[128.50142,38.20326],[128.5007,38.20264],[128.49924,38.20221],[128.49911,38.20161],[128.4987,38.20125],[128.49873,38.20078],[128.49831,38.20022],[128.49838,38.19912],[128.4979,38.19867],[128.49776,38.19793],[128.4967,38.19754],[128.49552,38.19641],[128.49529,38.19598],[128.4948,38.19579],[128.49427,38.19614],[128.49328,38.19626],[128.49258,38.19585],[128.4921,38.1957],[128.49177,38.19513],[128.49129,38.19471],[128.49087,38.1946],[128.49084,38.19423],[128.4903,38.19399],[128.49038,38.19349],[128.48973,38.19303],[128.48932,38.19232],[128.48933,38.1919],[128.48895,38.19175],[128.4885,38.19075],[128.48786,38.19013],[128.4866,38.1895],[128.48655,38.18902],[128.48594,38.18852],[128.48535,38.18835],[128.48455,38.18797],[128.48384,38.18807],[128.48318,38.18786],[128.48269,38.18804],[128.48223,38.18777],[128.48161,38.18781],[128.48112,38.18733],[128.48078,38.18745],[128.47982,38.18744],[128.47933,38.18791],[128.47804,38.18826],[128.4772,38.18889],[128.4771,38.18804],[128.47675,38.1868],[128.47683,38.18639],[128.47712,38.18628],[128.47766,38.18595],[128.47824,38.18574],[128.47845,38.18548],[128.47879,38.18553],[128.47972,38.18545],[128.48,38.18522],[128.48035,38.18515],[128.4811,38.1854],[128.48162,38.18528],[128.48289,38.18547],[128.48389,38.18544],[128.48458,38.18524],[128.48499,38.18503],[128.48561,38.18486],[128.48597,38.18465],[128.48654,38.18412],[128.48711,38.18385],[128.48756,38.18356],[128.48903,38.18345],[128.48963,38.18326],[128.49054,38.18315],[128.49116,38.18289],[128.49156,38.18299],[128.49242,38.18287],[128.49386,38.18283],[128.49433,38.18259],[128.49478,38.1826],[128.49537,38.18224],[128.49578,38.18179],[128.4964,38.18197],[128.4972,38.18203],[128.49795,38.18216],[128.49848,38.1824],[128.4992,38.1822],[128.50012,38.18226],[128.50128,38.18253],[128.50283,38.18237],[128.50595,38.18177],[128.50676,38.18092],[128.50813,38.1806],[128.50858,38.18034],[128.50936,38.17977],[128.51137,38.17966],[128.51243,38.17947],[128.51366,38.17854],[128.51416,38.1784],[128.51457,38.17838],[128.51509,38.1779],[128.51646,38.17745],[128.51752,38.17751],[128.51787,38.17725],[128.51907,38.17662],[128.52093,38.17615],[128.52145,38.17559],[128.52194,38.17554],[128.52298,38.17562],[128.52348,38.17557],[128.52445,38.17513],[128.52582,38.17458],[128.52714,38.17419],[128.52776,38.1745],[128.52849,38.17431],[128.52915,38.17464],[128.52983,38.17468],[128.53134,38.174],[128.53216,38.1741],[128.53259,38.17378],[128.53297,38.17398],[128.53349,38.17384],[128.5345,38.17393],[128.53561,38.17411],[128.53649,38.17339],[128.53716,38.17322],[128.53861,38.17308],[128.53939,38.17269],[128.53994,38.17232],[128.54123,38.17247],[128.54275,38.17291],[128.54337,38.17253],[128.54425,38.17173],[128.54598,38.17198],[128.54667,38.17215],[128.54766,38.1721],[128.54922,38.1722],[128.55005,38.17275],[128.55032,38.17389],[128.55086,38.1744],[128.55146,38.17481],[128.55207,38.17511],[128.55286,38.17489],[128.55334,38.17496],[128.55383,38.17526],[128.55419,38.1751],[128.55482,38.17513],[128.55522,38.17486],[128.55576,38.17501],[128.55702,38.17461],[128.55788,38.17493],[128.55826,38.17542],[128.55903,38.17597],[128.55887,38.17658],[128.5589,38.177],[128.55916,38.17718],[128.56009,38.17736],[128.56029,38.17776],[128.56108,38.17797],[128.56191,38.17873],[128.56218,38.17873],[128.56216,38.17917],[128.56206,38.17939],[128.56207,38.18038],[128.562,38.18105],[128.56189,38.18124],[128.56187,38.18182],[128.56179,38.18227],[128.5619,38.18333],[128.56192,38.18399],[128.56252,38.1848],[128.56255,38.18515],[128.5623,38.18583],[128.56192,38.18637],[128.56207,38.1866],[128.56206,38.18686],[128.56238,38.18718],[128.56272,38.18732],[128.5628,38.18752],[128.56253,38.18762],[128.56244,38.18789],[128.56304,38.18801],[128.56302,38.19172],[128.563,38.19229],[128.56683,38.19245],[128.57454,38.19282],[128.57544,38.19286],[128.5756,38.19271],[128.57654,38.19281],[128.5777,38.1928],[128.57842,38.19289],[128.57879,38.19299],[128.58213,38.19332],[128.58198,38.19411],[128.58256,38.19433],[128.58244,38.19458],[128.58306,38.19456],[128.58293,38.19727],[128.58277,38.19736],[128.58177,38.19822],[128.58044,38.19945],[128.57956,38.20025],[128.57972,38.20078],[128.57936,38.20142],[128.57872,38.20242],[128.57753,38.20462],[128.57654,38.20637],[128.57584,38.2059],[128.57478,38.20572],[128.57427,38.2057],[128.57375,38.20664],[128.57365,38.20668],[128.57295,38.20755],[128.57303,38.20761],[128.57251,38.20831],[128.57286,38.20842],[128.57281,38.20876],[128.57265,38.20896]]]},"properties":{"code":"32060570","name":"노학동"}},{"type":"Feature","geometry":{"type":"Polygon","coordinates":[[[128.5935,38.19155],[128.59173,38.19155],[128.59173,38.1923],[128.59088,38.1923],[128.59056,38.1924],[128.58779,38.19239],[128.58747,38.1921],[128.58336,38.19208],[128.58308,38.19288],[128.58222,38.19288],[128.58213,38.19332],[128.57879,38.19299],[128.57842,38.19289],[128.5777,38.1928],[128.57654,38.19281],[128.5756,38.19271],[128.57544,38.19286],[128.57454,38.19282],[128.56683,38.19245],[128.563,38.19229],[128.56302,38.19172],[128.56304,38.18801],[128.56244,38.18789],[128.56253,38.18762],[128.5628,38.18752],[128.56272,38.18732],[128.56238,38.18718],[128.56206,38.18686],[128.56207,38.1866],[128.56192,38.18637],[128.5623,38.18583],[128.56255,38.18515],[128.56252,38.1848],[128.56192,38.18399],[128.5619,38.18333],[128.56179,38.18227],[128.56187,38.18182],[128.56189,38.18124],[128.562,38.18105],[128.56207,38.18038],[128.56206,38.17939],[128.56216,38.17917],[128.56218,38.17873],[128.56191,38.17873],[128.56108,38.17797],[128.56029,38.17776],[128.56009,38.17736],[128.55916,38.17718],[128.5589,38.177],[128.55887,38.17658],[128.55903,38.17597],[128.55826,38.17542],[128.55788,38.17493],[128.55913,38.17438],[128.55991,38.17411],[128.56174,38.17445],[128.56268,38.1745],[128.56364,38.17484],[128.56381,38.17461],[128.56445,38.17413],[128.56525,38.17503],[128.56549,38.17516],[128.56593,38.17731],[128.56635,38.17741],[128.56647,38.1776],[128.56762,38.17797],[128.56798,38.17812],[128.56952,38.17794],[128.56967,38.17796],[128.57019,38.17776],[128.57208,38.17841],[128.57278,38.17822],[128.5731,38.17798],[128.57452,38.17717],[128.57548,38.17623],[128.57572,38.17612],[128.57619,38.17621],[128.57649,38.17609],[128.57734,38.17588],[128.57767,38.17627],[128.57804,38.17651],[128.5788,38.17642],[128.57984,38.17647],[128.58056,38.17639],[128.58175,38.17651],[128.58191,38.17712],[128.58238,38.17775],[128.58324,38.17778],[128.5845,38.17876],[128.58472,38.17864],[128.58511,38.17875],[128.5857,38.17849],[128.58643,38.17835],[128.58759,38.1783],[128.58897,38.17862],[128.58927,38.17835],[128.58951,38.17786],[128.59008,38.1776],[128.59122,38.17796],[128.59141,38.17826],[128.59182,38.17827],[128.59215,38.17846],[128.59257,38.1783],[128.59261,38.17812],[128.59388,38.17763],[128.59497,38.17755],[128.59579,38.17735],[128.5958,38.17767],[128.59649,38.17757],[128.5966,38.17725],[128.59706,38.17719],[128.59807,38.17781],[128.5982,38.17823],[128.59848,38.1787],[128.59907,38.17925],[128.5997,38.17911],[128.59994,38.17912],[128.60041,38.17933],[128.6004,38.17961],[128.60002,38.17977],[128.60012,38.18035],[128.60033,38.18044],[128.60036,38.18102],[128.60051,38.18136],[128.601,38.18148],[128.60138,38.18141],[128.60086,38.18286],[128.60041,38.18347],[128.60092,38.18372],[128.60095,38.18405],[128.60134,38.18516],[128.60148,38.18519],[128.60147,38.18654],[128.60124,38.1871],[128.6004,38.18879],[128.60009,38.18931],[128.59996,38.18963],[128.59956,38.19036],[128.59907,38.19037],[128.59794,38.19028],[128.59694,38.19017],[128.59684,38.19021],[128.59565,38.19009],[128.59533,38.19024],[128.59558,38.19064],[128.59525,38.19064],[128.59495,38.19045],[128.59457,38.1909],[128.59383,38.19108],[128.5935,38.19103],[128.5935,38.19155]]]},"properties":{"code":"32060580","name":"조양동"}},{"type":"Feature","geometry":{"type":"MultiPolygon","coordinates":[[[[128.61393,38.19872],[128.61313,38.19845],[128.6127,38.1985],[128.61251,38.1981],[128.61292,38.19776],[128.61358,38.19739],[128.61403,38.19747],[128.61431,38.19735],[128.61458,38.19756],[128.61471,38.19808],[128.61456,38.19819],[128.61453,38.19854],[128.61393,38.19872]]],[[[128.60687,38.18659],[128.60648,38.18715],[128.60614,38.18754],[128.60494,38.18931],[128.60397,38.19091],[128.60375,38.19146],[128.60376,38.19198],[128.60417,38.19229],[128.60491,38.19263],[128.6051,38.19218],[128.60546,38.19236],[128.60485,38.19319],[128.60447,38.19311],[128.60453,38.19292],[128.60487,38.19272],[128.60436,38.19249],[128.60391,38.19236],[128.60367,38.1921],[128.60293,38.19236],[128.60189,38.19337],[128.60117,38.19411],[128.60095,38.19444],[128.60012,38.19528],[128.59998,38.19537],[128.59885,38.19655],[128.59827,38.19722],[128.59761,38.1981],[128.59727,38.19879],[128.59704,38.20002],[128.59711,38.20072],[128.59745,38.20087],[128.60031,38.2017],[128.60078,38.20185],[128.60059,38.20218],[128.60013,38.20194],[128.5983,38.2014],[128.59801,38.20135],[128.598,38.20182],[128.59776,38.20194],[128.59776,38.20132],[128.59702,38.20089],[128.59678,38.20116],[128.59521,38.20097],[128.59511,38.20104],[128.59342,38.20059],[128.5935,38.19155],[128.5935,38.19103],[128.59383,38.19108],[128.59457,38.1909],[128.59495,38.19045],[128.59525,38.19064],[128.59558,38.19064],[128.59533,38.19024],[128.59565,38.19009],[128.59684,38.19021],[128.59694,38.19017],[128.59794,38.19028],[128.59907,38.19037],[128.59956,38.19036],[128.59996,38.18963],[128.60009,38.18931],[128.6004,38.18879],[128.60124,38.1871],[128.60147,38.18654],[128.60148,38.18519],[128.60134,38.18516],[128.60095,38.18405],[128.60092,38.18372],[128.60041,38.18347],[128.60086,38.18286],[128.60138,38.18141],[128.60164,38.18124],[128.60185,38.18094],[128.6025,38.18212],[128.60242,38.18243],[128.60253,38.18302],[128.60289,38.18396],[128.60328,38.18415],[128.60339,38.18438],[128.60398,38.18398],[128.60408,38.18493],[128.60482,38.18496],[128.60551,38.18521],[128.60587,38.1854],[128.60553,38.18599],[128.60687,38.18659]]],[[[128.59961,38.20623],[128.59953,38.2066],[128.59841,38.20693],[128.59802,38.20697],[128.59614,38.20689],[128.59481,38.20582],[128.59393,38.2048],[128.59299,38.20367],[128.59292,38.20308],[128.59301,38.20231],[128.59328,38.20152],[128.59456,38.20184],[128.59531,38.20199],[128.59542,38.20234],[128.59514,38.20255],[128.59497,38.203],[128.59503,38.20372],[128.5953,38.20489],[128.59566,38.20581],[128.59937,38.20548],[128.59951,38.20608],[128.60006,38.20601],[128.60014,38.20622],[128.59961,38.20623]]]]},"properties":{"code":"32060590","name":"청호동"}},{"type":"Feature","geometry":{"type":"Polygon","coordinates":[[[128.4772,38.18889],[128.47628,38.19093],[128.47711,38.1928],[128.47632,38.19324],[128.47474,38.19371],[128.47358,38.19472],[128.47125,38.19582],[128.47006,38.19636],[128.46797,38.19765],[128.46663,38.19862],[128.46515,38.19743],[128.4645,38.19764],[128.46354,38.19711],[128.46261,38.19694],[128.46206,38.19724],[128.46139,38.19717],[128.45991,38.19779],[128.45769,38.19754],[128.45684,38.19797],[128.4558,38.19821],[128.45513,38.19801],[128.45446,38.19812],[128.45416,38.19854],[128.45199,38.19901],[128.45056,38.1997],[128.44895,38.20056],[128.44745,38.20183],[128.44594,38.2032],[128.44426,38.20358],[128.44236,38.20375],[128.44231,38.20372],[128.44141,38.20313],[128.44075,38.19968],[128.44022,38.19858],[128.43968,38.19733],[128.43863,38.1961],[128.43845,38.19256],[128.43633,38.19226],[128.43481,38.19102],[128.43315,38.19081],[128.43176,38.19015],[128.42961,38.1901],[128.42897,38.18979],[128.42844,38.18929],[128.42806,38.18934],[128.42651,38.18915],[128.42625,38.18735],[128.42603,38.1872],[128.42587,38.18656],[128.42608,38.18629],[128.42496,38.18576],[128.42461,38.18498],[128.42443,38.18477],[128.42452,38.18415],[128.42444,38.18389],[128.42448,38.18311],[128.42368,38.18259],[128.42233,38.18152],[128.42182,38.17777],[128.42114,38.17669],[128.42206,38.17604],[128.4235,38.17572],[128.42413,38.1746],[128.42563,38.17363],[128.42582,38.17325],[128.42757,38.17267],[128.42799,38.17145],[128.42965,38.17087],[128.43115,38.16987],[128.43188,38.1696],[128.43227,38.16912],[128.43319,38.16861],[128.4331,38.16765],[128.43364,38.16733],[128.43377,38.16632],[128.43449,38.1659],[128.43493,38.16587],[128.43552,38.16521],[128.43546,38.16463],[128.43567,38.16437],[128.43652,38.16387],[128.43773,38.16301],[128.43848,38.1627],[128.43903,38.16258],[128.43854,38.16094],[128.438,38.16002],[128.43748,38.15959],[128.43816,38.15889],[128.43803,38.15784],[128.43848,38.15666],[128.43842,38.15628],[128.43821,38.15605],[128.43792,38.15487],[128.43856,38.15418],[128.44194,38.15203],[128.44265,38.15113],[128.44306,38.1496],[128.4452,38.14911],[128.4464,38.14817],[128.44919,38.14746],[128.45203,38.14467],[128.45352,38.14459],[128.45448,38.14331],[128.45585,38.14225],[128.45713,38.1419],[128.4588,38.14096],[128.45912,38.14024],[128.46114,38.1398],[128.46278,38.13895],[128.46345,38.13846],[128.4639,38.13821],[128.46508,38.13733],[128.46596,38.13692],[128.46455,38.13527],[128.466,38.13352],[128.46601,38.1316],[128.46536,38.13026],[128.46424,38.12867],[128.46547,38.1264],[128.46582,38.12131],[128.46516,38.11954],[128.46486,38.11921],[128.46693,38.11895],[128.46724,38.11902],[128.46825,38.11961],[128.46925,38.12027],[128.47001,38.12107],[128.47118,38.12204],[128.47204,38.12302],[128.4734,38.12404],[128.47494,38.12462],[128.47561,38.1253],[128.47733,38.12648],[128.4783,38.12839],[128.47999,38.12933],[128.48129,38.13068],[128.48329,38.13171],[128.48597,38.13267],[128.48796,38.13389],[128.48856,38.13493],[128.49017,38.13555],[128.49129,38.13649],[128.49394,38.13595],[128.49556,38.13621],[128.49643,38.13624],[128.49737,38.13614],[128.49862,38.13521],[128.49928,38.13499],[128.49977,38.13528],[128.49994,38.13512],[128.50048,38.13495],[128.50105,38.13513],[128.50127,38.13513],[128.50219,38.13537],[128.50261,38.13567],[128.50443,38.13617],[128.50697,38.13624],[128.50881,38.13653],[128.51057,38.13626],[128.51138,38.13628],[128.51297,38.13624],[128.51336,38.13612],[128.51412,38.13611],[128.51514,38.13556],[128.51588,38.13553],[128.51795,38.13613],[128.52036,38.13676],[128.52189,38.13732],[128.52295,38.13804],[128.52507,38.13816],[128.52543,38.13744],[128.52603,38.13729],[128.52642,38.13706],[128.52704,38.13683],[128.52752,38.13647],[128.52794,38.13633],[128.52987,38.13609],[128.52976,38.13642],[128.53035,38.13725],[128.53056,38.13798],[128.53095,38.13875],[128.53127,38.14026],[128.53141,38.14065],[128.53147,38.14135],[128.53146,38.14194],[128.53171,38.14244],[128.53217,38.14282],[128.53284,38.14301],[128.53402,38.14402],[128.53453,38.14431],[128.53486,38.14465],[128.53533,38.14484],[128.53545,38.14504],[128.53506,38.14855],[128.53586,38.1489],[128.53656,38.14914],[128.53771,38.14949],[128.53875,38.14938],[128.53971,38.14941],[128.54151,38.14885],[128.54229,38.14831],[128.54289,38.14828],[128.54318,38.14858],[128.54428,38.14887],[128.54477,38.14891],[128.54587,38.14926],[128.54595,38.14923],[128.5477,38.14918],[128.54887,38.14905],[128.54925,38.14918],[128.54978,38.14926],[128.55001,38.14941],[128.55044,38.14942],[128.55086,38.14912],[128.55169,38.14931],[128.55258,38.14852],[128.55421,38.1487],[128.55429,38.14891],[128.55675,38.14891],[128.55721,38.14871],[128.55771,38.14863],[128.55834,38.14841],[128.55899,38.14855],[128.55938,38.14852],[128.55952,38.14836],[128.55985,38.14834],[128.56037,38.14855],[128.56068,38.14881],[128.56136,38.14894],[128.56149,38.14925],[128.562,38.14941],[128.5621,38.1498],[128.56257,38.15],[128.56268,38.15017],[128.56315,38.15031],[128.56343,38.15086],[128.56344,38.15117],[128.56393,38.15117],[128.56464,38.15145],[128.5648,38.15173],[128.5652,38.15186],[128.56567,38.15227],[128.56616,38.15235],[128.56655,38.15263],[128.56669,38.15302],[128.56724,38.15331],[128.56735,38.15345],[128.56824,38.15342],[128.56844,38.15372],[128.56869,38.15381],[128.56924,38.15368],[128.56971,38.15381],[128.56966,38.15415],[128.57018,38.15427],[128.57029,38.1544],[128.57032,38.15512],[128.57048,38.15527],[128.57014,38.1556],[128.56991,38.15593],[128.57004,38.15623],[128.57014,38.1589],[128.57041,38.15985],[128.57025,38.16066],[128.56991,38.16117],[128.56985,38.16189],[128.57116,38.16124],[128.57272,38.16097],[128.57339,38.16115],[128.57603,38.1613],[128.57842,38.16113],[128.58186,38.16152],[128.58406,38.16162],[128.58658,38.16126],[128.58724,38.1609],[128.58882,38.16076],[128.5902,38.16059],[128.59067,38.16057],[128.59167,38.16065],[128.59365,38.16099],[128.59554,38.1602],[128.597,38.15989],[128.59804,38.15997],[128.60014,38.15995],[128.60125,38.15953],[128.6034,38.15895],[128.60473,38.15904],[128.60602,38.15952],[128.60805,38.16066],[128.60872,38.16128],[128.60916,38.16135],[128.60914,38.16218],[128.60931,38.16269],[128.60914,38.16283],[128.60926,38.1636],[128.61,38.16355],[128.61026,38.16313],[128.61031,38.16255],[128.61064,38.16268],[128.61052,38.1633],[128.61033,38.16376],[128.60985,38.16387],[128.60917,38.16386],[128.60902,38.16402],[128.60902,38.16452],[128.6088,38.16523],[128.60874,38.16631],[128.60836,38.16769],[128.60792,38.16834],[128.61008,38.16926],[128.61034,38.17006],[128.60996,38.17014],[128.60996,38.16982],[128.60982,38.1694],[128.60881,38.16895],[128.60847,38.16888],[128.60802,38.16949],[128.60826,38.16961],[128.60782,38.17023],[128.6078,38.17133],[128.60893,38.17136],[128.60848,38.17154],[128.6078,38.17155],[128.60779,38.17287],[128.60763,38.173],[128.60696,38.17301],[128.60647,38.17316],[128.60622,38.1734],[128.60612,38.17387],[128.60629,38.17416],[128.60661,38.17413],[128.6073,38.17446],[128.60771,38.17427],[128.60789,38.17407],[128.608,38.17366],[128.61047,38.17365],[128.61047,38.17318],[128.61084,38.17164],[128.61076,38.17135],[128.61095,38.17117],[128.61117,38.17038],[128.61147,38.1701],[128.61137,38.16997],[128.61172,38.16969],[128.61208,38.16993],[128.61182,38.17026],[128.61143,38.17049],[128.61078,38.17321],[128.61068,38.17334],[128.6107,38.175],[128.61069,38.17645],[128.61084,38.17694],[128.61064,38.177],[128.60992,38.17696],[128.60959,38.177],[128.60927,38.17753],[128.6092,38.17806],[128.60936,38.17888],[128.60952,38.17924],[128.60972,38.17932],[128.61067,38.17909],[128.61066,38.17822],[128.61048,38.17799],[128.61071,38.17789],[128.61093,38.17812],[128.61096,38.17888],[128.61107,38.17902],[128.61154,38.17903],[128.61192,38.1793],[128.61287,38.17938],[128.61419,38.17993],[128.61436,38.18024],[128.61466,38.18045],[128.61458,38.18098],[128.61481,38.18111],[128.61451,38.18146],[128.61389,38.18165],[128.61357,38.18162],[128.61271,38.1818],[128.61189,38.18183],[128.61101,38.18231],[128.61102,38.1826],[128.61081,38.18292],[128.61047,38.18309],[128.60972,38.18324],[128.60939,38.18346],[128.60902,38.18393],[128.60841,38.18459],[128.60808,38.18504],[128.60721,38.18602],[128.60687,38.18659],[128.60553,38.18599],[128.60587,38.1854],[128.60551,38.18521],[128.60482,38.18496],[128.60408,38.18493],[128.60398,38.18398],[128.60339,38.18438],[128.60328,38.18415],[128.60289,38.18396],[128.60253,38.18302],[128.60242,38.18243],[128.6025,38.18212],[128.60185,38.18094],[128.60164,38.18124],[128.60138,38.18141],[128.601,38.18148],[128.60051,38.18136],[128.60036,38.18102],[128.60033,38.18044],[128.60012,38.18035],[128.60002,38.17977],[128.6004,38.17961],[128.60041,38.17933],[128.59994,38.17912],[128.5997,38.17911],[128.59907,38.17925],[128.59848,38.1787],[128.5982,38.17823],[128.59807,38.17781],[128.59706,38.17719],[128.5966,38.17725],[128.59649,38.17757],[128.5958,38.17767],[128.59579,38.17735],[128.59497,38.17755],[128.59388,38.17763],[128.59261,38.17812],[128.59257,38.1783],[128.59215,38.17846],[128.59182,38.17827],[128.59141,38.17826],[128.59122,38.17796],[128.59008,38.1776],[128.58951,38.17786],[128.58927,38.17835],[128.58897,38.17862],[128.58759,38.1783],[128.58643,38.17835],[128.5857,38.17849],[128.58511,38.17875],[128.58472,38.17864],[128.5845,38.17876],[128.58324,38.17778],[128.58238,38.17775],[128.58191,38.17712],[128.58175,38.17651],[128.58056,38.17639],[128.57984,38.17647],[128.5788,38.17642],[128.57804,38.17651],[128.57767,38.17627],[128.57734,38.17588],[128.57649,38.17609],[128.57619,38.17621],[128.57572,38.17612],[128.57548,38.17623],[128.57452,38.17717],[128.5731,38.17798],[128.57278,38.17822],[128.57208,38.17841],[128.57019,38.17776],[128.56967,38.17796],[128.56952,38.17794],[128.56798,38.17812],[128.56762,38.17797],[128.56647,38.1776],[128.56635,38.17741],[128.56593,38.17731],[128.56549,38.17516],[128.56525,38.17503],[128.56445,38.17413],[128.56381,38.17461],[128.56364,38.17484],[128.56268,38.1745],[128.56174,38.17445],[128.55991,38.17411],[128.55913,38.17438],[128.55788,38.17493],[128.55702,38.17461],[128.55576,38.17501],[128.55522,38.17486],[128.55482,38.17513],[128.55419,38.1751],[128.55383,38.17526],[128.55334,38.17496],[128.55286,38.17489],[128.55207,38.17511],[128.55146,38.17481],[128.55086,38.1744],[128.55032,38.17389],[128.55005,38.17275],[128.54922,38.1722],[128.54766,38.1721],[128.54667,38.17215],[128.54598,38.17198],[128.54425,38.17173],[128.54337,38.17253],[128.54275,38.17291],[128.54123,38.17247],[128.53994,38.17232],[128.53939,38.17269],[128.53861,38.17308],[128.53716,38.17322],[128.53649,38.17339],[128.53561,38.17411],[128.5345,38.17393],[128.53349,38.17384],[128.53297,38.17398],[128.53259,38.17378],[128.53216,38.1741],[128.53134,38.174],[128.52983,38.17468],[128.52915,38.17464],[128.52849,38.17431],[128.52776,38.1745],[128.52714,38.17419],[128.52582,38.17458],[128.52445,38.17513],[128.52348,38.17557],[128.52298,38.17562],[128.52194,38.17554],[128.52145,38.17559],[128.52093,38.17615],[128.51907,38.17662],[128.51787,38.17725],[128.51752,38.17751],[128.51646,38.17745],[128.51509,38.1779],[128.51457,38.17838],[128.51416,38.1784],[128.51366,38.17854],[128.51243,38.17947],[128.51137,38.17966],[128.50936,38.17977],[128.50858,38.18034],[128.50813,38.1806],[128.50676,38.18092],[128.50595,38.18177],[128.50283,38.18237],[128.50128,38.18253],[128.50012,38.18226],[128.4992,38.1822],[128.49848,38.1824],[128.49795,38.18216],[128.4972,38.18203],[128.4964,38.18197],[128.49578,38.18179],[128.49537,38.18224],[128.49478,38.1826],[128.49433,38.18259],[128.49386,38.18283],[128.49242,38.18287],[128.49156,38.18299],[128.49116,38.18289],[128.49054,38.18315],[128.48963,38.18326],[128.48903,38.18345],[128.48756,38.18356],[128.48711,38.18385],[128.48654,38.18412],[128.48597,38.18465],[128.48561,38.18486],[128.48499,38.18503],[128.48458,38.18524],[128.48389,38.18544],[128.48289,38.18547],[128.48162,38.18528],[128.4811,38.1854],[128.48035,38.18515],[128.48,38.18522],[128.47972,38.18545],[128.47879,38.18553],[128.47845,38.18548],[128.47824,38.18574],[128.47766,38.18595],[128.47712,38.18628],[128.47683,38.18639],[128.47675,38.1868],[128.4771,38.18804],[128.4772,38.18889]]]},"properties":{"code":"32060600","name":"대포동"}}],"profileId":"gangwon","schemaVersion":2,"dataVersion":"gangwon-2022-563a6bb6162048a7"}
