{"type":"FeatureCollection","features":[{"type":"Feature","geometry":{"type":"Polygon","coordinates":[[[127.86263,38.28324],[127.86214,38.28286],[127.86081,38.28255],[127.8597,38.28256],[127.85846,38.28313],[127.85673,38.28342],[127.85445,38.28434],[127.85378,38.28432],[127.85228,38.28465],[127.851,38.28439],[127.84873,38.28418],[127.84776,38.28401],[127.84574,38.28359],[127.84462,38.28379],[127.84395,38.28436],[127.84294,38.28479],[127.84125,38.28578],[127.84001,38.2864],[127.83882,38.2871],[127.83757,38.28729],[127.83544,38.28711],[127.83369,38.28687],[127.8329,38.28657],[127.83082,38.28614],[127.82803,38.28638],[127.82617,38.28641],[127.82431,38.28664],[127.82237,38.28706],[127.82098,38.28756],[127.81962,38.28777],[127.81765,38.28798],[127.81646,38.28804],[127.81514,38.28799],[127.81453,38.28792],[127.81258,38.28793],[127.81148,38.28796],[127.80898,38.28708],[127.80795,38.28649],[127.80654,38.28521],[127.80473,38.28311],[127.80388,38.28161],[127.80252,38.2787],[127.80156,38.27715],[127.80048,38.27725],[127.79868,38.27784],[127.79731,38.278],[127.79584,38.278],[127.79421,38.27874],[127.79285,38.27962],[127.79155,38.28026],[127.7907,38.28145],[127.79001,38.28261],[127.78853,38.28379],[127.7873,38.28463],[127.78564,38.28547],[127.78432,38.2864],[127.78224,38.28806],[127.77981,38.28746],[127.77747,38.28666],[127.77278,38.28564],[127.77043,38.28555],[127.76773,38.28536],[127.76589,38.28509],[127.76371,38.28459],[127.76185,38.28397],[127.76041,38.28338],[127.75877,38.28329],[127.75648,38.28347],[127.75415,38.28356],[127.75227,38.28353],[127.75062,38.28334],[127.74919,38.28287],[127.74716,38.28204],[127.74555,38.28122],[127.74365,38.28064],[127.7421,38.28022],[127.73989,38.27931],[127.73744,38.27799],[127.7356,38.27816],[127.73437,38.27865],[127.73289,38.27866],[127.73156,38.27803],[127.73036,38.27726],[127.72887,38.27637],[127.72818,38.27572],[127.7272,38.27439],[127.72557,38.27286],[127.7233,38.27066],[127.72299,38.27021],[127.72285,38.26936],[127.72244,38.2678],[127.72182,38.26635],[127.72085,38.26499],[127.71936,38.26358],[127.71724,38.26214],[127.71533,38.2608],[127.71392,38.26017],[127.71221,38.25932],[127.71221,38.258],[127.71225,38.25692],[127.71259,38.25599],[127.71285,38.25411],[127.71314,38.25341],[127.71364,38.25267],[127.71378,38.25164],[127.71307,38.25042],[127.71498,38.24947],[127.71652,38.24896],[127.71802,38.24808],[127.71912,38.24692],[127.71989,38.24569],[127.72079,38.24467],[127.72153,38.24345],[127.72164,38.24234],[127.723,38.24056],[127.72414,38.2393],[127.72562,38.23805],[127.72634,38.23725],[127.72676,38.23566],[127.72753,38.2344],[127.72842,38.23278],[127.72875,38.23146],[127.72919,38.23014],[127.72569,38.23028],[127.72381,38.23041],[127.72233,38.23021],[127.72121,38.23038],[127.72017,38.23021],[127.71879,38.23005],[127.71748,38.22982],[127.71619,38.22931],[127.71508,38.22878],[127.71404,38.22804],[127.7132,38.22736],[127.71193,38.22672],[127.71066,38.2264],[127.71006,38.22608],[127.70965,38.22547],[127.7084,38.22472],[127.70789,38.22389],[127.7077,38.22265],[127.70797,38.2215],[127.70836,38.22031],[127.70845,38.21912],[127.70818,38.21814],[127.70829,38.21703],[127.70856,38.21608],[127.70841,38.21519],[127.70772,38.21447],[127.70796,38.21353],[127.70787,38.21283],[127.70593,38.21027],[127.70524,38.20924],[127.70513,38.20824],[127.70615,38.20524],[127.70631,38.20391],[127.70666,38.20345],[127.7069,38.20252],[127.70699,38.20165],[127.70685,38.20074],[127.70663,38.19966],[127.70618,38.19874],[127.70537,38.1979],[127.70588,38.19688],[127.70623,38.19532],[127.70652,38.19512],[127.70676,38.19422],[127.70666,38.19306],[127.70641,38.19263],[127.70666,38.19157],[127.70638,38.19094],[127.70594,38.19012],[127.70597,38.18935],[127.70581,38.18858],[127.7053,38.18798],[127.70439,38.18722],[127.7042,38.18673],[127.70473,38.18583],[127.7044,38.18383],[127.7034,38.18292],[127.70316,38.18172],[127.70209,38.18063],[127.70118,38.17977],[127.70095,38.17869],[127.70128,38.17774],[127.70114,38.17715],[127.70074,38.1764],[127.70139,38.17553],[127.70108,38.17471],[127.70084,38.1744],[127.70022,38.17402],[127.69919,38.17311],[127.69778,38.17276],[127.69687,38.17181],[127.69672,38.17135],[127.69631,38.17082],[127.69652,38.1704],[127.69655,38.16912],[127.69598,38.16807],[127.69631,38.16738],[127.6964,38.16669],[127.69622,38.16597],[127.69532,38.16538],[127.69427,38.16545],[127.69208,38.16473],[127.6914,38.16411],[127.68843,38.16393],[127.68787,38.16354],[127.68748,38.16302],[127.68734,38.16246],[127.68624,38.16213],[127.68601,38.16193],[127.68603,38.16162],[127.68555,38.16127],[127.68527,38.16051],[127.68485,38.16011],[127.68398,38.1603],[127.68257,38.16112],[127.68144,38.16157],[127.68058,38.16162],[127.67941,38.16117],[127.67775,38.16091],[127.67752,38.16071],[127.67685,38.16052],[127.67642,38.15999],[127.676,38.16002],[127.67563,38.1598],[127.67499,38.15956],[127.67462,38.15891],[127.6744,38.1587],[127.67458,38.15712],[127.67456,38.15627],[127.6748,38.15581],[127.67692,38.15545],[127.67685,38.15509],[127.67685,38.154],[127.67605,38.15407],[127.67529,38.15394],[127.67391,38.15328],[127.67299,38.15268],[127.67245,38.15246],[127.67248,38.15208],[127.67283,38.1522],[127.67308,38.15062],[127.67259,38.15042],[127.67224,38.15014],[127.67043,38.15037],[127.66841,38.15029],[127.66776,38.15048],[127.66655,38.15026],[127.66541,38.14989],[127.6648,38.14975],[127.66366,38.1498],[127.66274,38.1493],[127.66261,38.14895],[127.66262,38.14785],[127.66313,38.14773],[127.66344,38.14705],[127.66396,38.14665],[127.66461,38.1463],[127.66526,38.14529],[127.66507,38.14466],[127.66472,38.14417],[127.66585,38.14366],[127.6661,38.14328],[127.66697,38.14285],[127.66862,38.1425],[127.66973,38.14237],[127.6718,38.14225],[127.6731,38.14183],[127.67361,38.14159],[127.67403,38.14177],[127.67451,38.1414],[127.67505,38.14118],[127.6754,38.14076],[127.67652,38.13928],[127.67687,38.13896],[127.67747,38.13899],[127.67803,38.13929],[127.67909,38.13909],[127.67969,38.13886],[127.68086,38.13878],[127.68145,38.13864],[127.6818,38.13829],[127.68262,38.13841],[127.68356,38.13838],[127.68418,38.13829],[127.68515,38.13824],[127.68604,38.13726],[127.68709,38.13562],[127.68845,38.13345],[127.68932,38.13113],[127.68938,38.12845],[127.69057,38.12692],[127.69069,38.12648],[127.69156,38.12266],[127.6911,38.12009],[127.69109,38.11953],[127.68705,38.11843],[127.68636,38.11843],[127.68572,38.1183],[127.68504,38.11779],[127.68482,38.11702],[127.68412,38.1164],[127.68376,38.11591],[127.68321,38.11548],[127.68328,38.11495],[127.6835,38.11452],[127.68392,38.11409],[127.68474,38.11373],[127.68522,38.1132],[127.68492,38.11323],[127.68451,38.11347],[127.68436,38.11369],[127.68368,38.11403],[127.68357,38.11392],[127.68292,38.11399],[127.68218,38.11415],[127.68169,38.11415],[127.68115,38.11441],[127.68095,38.11432],[127.6801,38.1142],[127.67929,38.11404],[127.67903,38.11368],[127.67897,38.1134],[127.67789,38.11266],[127.67758,38.11262],[127.67647,38.11207],[127.67705,38.11126],[127.67724,38.11048],[127.67751,38.10962],[127.678,38.10876],[127.67859,38.10891],[127.68004,38.10855],[127.68091,38.10791],[127.68111,38.10681],[127.68163,38.10637],[127.68358,38.10516],[127.68453,38.10529],[127.68664,38.10378],[127.68858,38.10365],[127.68888,38.10335],[127.68862,38.10221],[127.69213,38.10224],[127.69163,38.10162],[127.69147,38.10134],[127.69141,38.10097],[127.69101,38.10063],[127.69016,38.10023],[127.68951,38.09979],[127.68921,38.09912],[127.68833,38.09829],[127.68784,38.09697],[127.68697,38.09554],[127.68873,38.0939],[127.68852,38.0936],[127.68796,38.09316],[127.68734,38.09251],[127.687,38.09186],[127.68718,38.09175],[127.68791,38.09164],[127.68891,38.09173],[127.68964,38.09148],[127.69011,38.09124],[127.69276,38.09083],[127.69312,38.09086],[127.69407,38.09064],[127.6943,38.09149],[127.69482,38.09238],[127.69508,38.09347],[127.69516,38.09439],[127.69568,38.09523],[127.69619,38.09624],[127.69698,38.09708],[127.69747,38.09798],[127.69901,38.09907],[127.69953,38.09955],[127.70077,38.10035],[127.70193,38.10057],[127.70701,38.10085],[127.70891,38.10099],[127.71503,38.10052],[127.7167,38.10004],[127.71736,38.09954],[127.71813,38.0991],[127.71901,38.09877],[127.72046,38.09773],[127.72194,38.09679],[127.72282,38.0961],[127.72372,38.09559],[127.72472,38.09514],[127.72631,38.09421],[127.72694,38.09346],[127.72762,38.09285],[127.72779,38.09276],[127.72863,38.09222],[127.72975,38.09109],[127.73131,38.09002],[127.73311,38.08842],[127.73481,38.08695],[127.73638,38.08614],[127.73729,38.08576],[127.73938,38.08498],[127.74093,38.08454],[127.74333,38.08377],[127.7442,38.08355],[127.74569,38.08328],[127.74612,38.08325],[127.74735,38.08335],[127.74939,38.08385],[127.75065,38.08436],[127.75202,38.08515],[127.7535,38.08632],[127.75412,38.08686],[127.75476,38.0877],[127.7552,38.08861],[127.75627,38.09107],[127.75648,38.0916],[127.75699,38.09245],[127.75766,38.09364],[127.75836,38.09509],[127.75901,38.09665],[127.75946,38.09765],[127.76006,38.09855],[127.76094,38.09995],[127.7616,38.10119],[127.76236,38.10236],[127.76299,38.10349],[127.76327,38.10426],[127.76359,38.10571],[127.76376,38.10731],[127.7638,38.10849],[127.7637,38.11008],[127.76368,38.11163],[127.7636,38.11467],[127.76359,38.1157],[127.76339,38.11826],[127.76333,38.11893],[127.76293,38.12086],[127.76232,38.12197],[127.76156,38.12281],[127.76097,38.12463],[127.76156,38.12591],[127.76291,38.12788],[127.76505,38.13005],[127.76631,38.13079],[127.76719,38.13117],[127.76706,38.13163],[127.76748,38.13166],[127.76935,38.13158],[127.76971,38.13144],[127.77002,38.13155],[127.76987,38.1321],[127.77031,38.1319],[127.77024,38.13158],[127.77049,38.1315],[127.7708,38.13156],[127.77065,38.13114],[127.7713,38.13054],[127.77177,38.13057],[127.77224,38.13035],[127.77318,38.12959],[127.7722,38.12908],[127.77268,38.12879],[127.77405,38.12788],[127.77526,38.1267],[127.77656,38.12498],[127.77818,38.12312],[127.77851,38.1227],[127.77853,38.12138],[127.77904,38.11909],[127.77888,38.11875],[127.77692,38.11585],[127.77582,38.11455],[127.7751,38.11354],[127.77439,38.11232],[127.77403,38.11151],[127.77359,38.11028],[127.77304,38.10832],[127.77306,38.10788],[127.77344,38.10673],[127.77373,38.10634],[127.77486,38.10511],[127.77606,38.1037],[127.77668,38.10341],[127.77901,38.10246],[127.78102,38.10182],[127.78195,38.10154],[127.7844,38.10107],[127.78843,38.10091],[127.79097,38.10087],[127.79314,38.10092],[127.79532,38.10089],[127.79773,38.10149],[127.79885,38.1018],[127.79981,38.10218],[127.80335,38.10284],[127.8053,38.10318],[127.8077,38.10335],[127.80896,38.10348],[127.81027,38.10355],[127.81136,38.10377],[127.8136,38.10445],[127.81495,38.10514],[127.81688,38.10621],[127.81804,38.107],[127.8201,38.10858],[127.82109,38.10923],[127.82223,38.11007],[127.82317,38.11071],[127.82485,38.11181],[127.82567,38.11222],[127.8266,38.11283],[127.82726,38.11339],[127.82941,38.11432],[127.8305,38.11473],[127.8317,38.11497],[127.83295,38.11511],[127.83733,38.11507],[127.83863,38.11507],[127.84045,38.11493],[127.84155,38.11474],[127.84268,38.11463],[127.84504,38.11432],[127.8463,38.11397],[127.84737,38.11376],[127.84964,38.11323],[127.85076,38.11285],[127.85209,38.11182],[127.85378,38.11081],[127.85451,38.11019],[127.85506,38.10979],[127.85694,38.10836],[127.8584,38.10694],[127.85909,38.10616],[127.85964,38.10526],[127.86076,38.10378],[127.86145,38.10304],[127.86239,38.10226],[127.86328,38.10195],[127.86561,38.1015],[127.86833,38.10145],[127.87065,38.10149],[127.87165,38.10159],[127.87295,38.10205],[127.87365,38.10277],[127.87425,38.10369],[127.87482,38.10529],[127.87511,38.10627],[127.87534,38.10725],[127.87592,38.10886],[127.87626,38.11091],[127.87686,38.11282],[127.87704,38.11384],[127.87709,38.1148],[127.87718,38.11546],[127.87771,38.11732],[127.87813,38.11839],[127.87924,38.11887],[127.88007,38.11884],[127.88114,38.11867],[127.88246,38.11854],[127.88205,38.11873],[127.88122,38.119],[127.8795,38.11915],[127.87782,38.11897],[127.87701,38.11896],[127.87639,38.11901],[127.8762,38.11911],[127.87621,38.11993],[127.87675,38.1214],[127.87662,38.12238],[127.8757,38.12377],[127.87571,38.12408],[127.8753,38.12478],[127.87542,38.12539],[127.87574,38.12579],[127.87583,38.12605],[127.87532,38.12648],[127.87505,38.12711],[127.87526,38.12803],[127.87543,38.12836],[127.87553,38.12904],[127.87591,38.12934],[127.8757,38.12994],[127.87592,38.13136],[127.8758,38.13187],[127.87639,38.13238],[127.87672,38.13281],[127.87688,38.13376],[127.8767,38.13391],[127.87624,38.13476],[127.87575,38.13496],[127.87559,38.13557],[127.87579,38.13623],[127.87539,38.13667],[127.875,38.13732],[127.87461,38.13831],[127.87387,38.13918],[127.87381,38.1392],[127.8739,38.14138],[127.87482,38.14256],[127.87523,38.14379],[127.876,38.14487],[127.87552,38.14591],[127.87592,38.14725],[127.87597,38.14765],[127.87659,38.14855],[127.8772,38.1507],[127.87705,38.15187],[127.87768,38.15316],[127.87708,38.15463],[127.87539,38.15676],[127.87555,38.15793],[127.87554,38.15896],[127.87616,38.15994],[127.87596,38.1604],[127.87701,38.16221],[127.87824,38.16335],[127.8786,38.16416],[127.88028,38.1656],[127.88055,38.16617],[127.88088,38.16729],[127.88125,38.16949],[127.88104,38.17053],[127.87947,38.1728],[127.87906,38.17418],[127.87897,38.17676],[127.87943,38.17789],[127.87857,38.17963],[127.8773,38.18156],[127.87758,38.18348],[127.87766,38.1848],[127.87741,38.1862],[127.87574,38.18828],[127.87557,38.19007],[127.8753,38.19124],[127.87648,38.19298],[127.87668,38.1948],[127.87739,38.19581],[127.87817,38.19668],[127.87824,38.19694],[127.87816,38.19767],[127.87775,38.19811],[127.87552,38.19984],[127.87414,38.20044],[127.87324,38.20079],[127.87216,38.20143],[127.87184,38.20209],[127.87131,38.20237],[127.87016,38.20331],[127.8694,38.20382],[127.86826,38.20476],[127.86764,38.20519],[127.86725,38.20524],[127.86649,38.20501],[127.86605,38.20472],[127.86535,38.20454],[127.86338,38.20432],[127.86283,38.20414],[127.86215,38.20384],[127.86055,38.20339],[127.8596,38.20322],[127.85856,38.20333],[127.85787,38.20411],[127.85698,38.20482],[127.85681,38.2053],[127.85674,38.20601],[127.85639,38.20629],[127.85568,38.20648],[127.85325,38.20677],[127.85325,38.20715],[127.85283,38.20776],[127.85253,38.20842],[127.85175,38.2089],[127.85186,38.20973],[127.85222,38.21101],[127.8526,38.21201],[127.85314,38.21265],[127.85434,38.21378],[127.85398,38.21477],[127.85338,38.21542],[127.85218,38.21703],[127.85213,38.2176],[127.85176,38.21837],[127.85211,38.21989],[127.85192,38.22044],[127.85177,38.22164],[127.85189,38.22277],[127.85196,38.22401],[127.8521,38.22499],[127.85207,38.22688],[127.85231,38.22776],[127.85246,38.22852],[127.85252,38.22932],[127.85266,38.23006],[127.8532,38.23066],[127.85393,38.23102],[127.85477,38.23133],[127.85623,38.23239],[127.85698,38.23319],[127.85807,38.23412],[127.85815,38.23521],[127.85799,38.23608],[127.85801,38.237],[127.85819,38.23758],[127.85819,38.23812],[127.85802,38.23882],[127.85797,38.23961],[127.85773,38.24053],[127.85709,38.24195],[127.85646,38.2432],[127.85608,38.24457],[127.85611,38.245],[127.85564,38.24499],[127.85483,38.24533],[127.85384,38.24569],[127.85376,38.24629],[127.85402,38.24686],[127.85395,38.24785],[127.85383,38.24874],[127.85407,38.2495],[127.85412,38.25112],[127.85437,38.25205],[127.85528,38.25267],[127.85515,38.25354],[127.85538,38.254],[127.85529,38.25434],[127.8548,38.25491],[127.85408,38.25557],[127.85394,38.25618],[127.8535,38.25652],[127.85331,38.25706],[127.8534,38.25806],[127.85388,38.25901],[127.85588,38.26135],[127.85854,38.26341],[127.8595,38.26518],[127.85955,38.26618],[127.85908,38.26677],[127.85873,38.2674],[127.85915,38.26832],[127.85971,38.27066],[127.86002,38.27183],[127.8601,38.2728],[127.86039,38.2734],[127.86139,38.27449],[127.86288,38.27549],[127.8638,38.27666],[127.8638,38.27797],[127.86337,38.27888],[127.86315,38.27974],[127.8624,38.28021],[127.86235,38.28089],[127.86319,38.28176],[127.86334,38.28256],[127.86263,38.28324]]]},"properties":{"code":"32570110","name":"화천읍"}},{"type":"Feature","geometry":{"type":"Polygon","coordinates":[[[127.88246,38.11854],[127.88114,38.11867],[127.88007,38.11884],[127.87924,38.11887],[127.87813,38.11839],[127.87771,38.11732],[127.87718,38.11546],[127.87709,38.1148],[127.87704,38.11384],[127.87686,38.11282],[127.87626,38.11091],[127.87592,38.10886],[127.87534,38.10725],[127.87511,38.10627],[127.87482,38.10529],[127.87425,38.10369],[127.87365,38.10277],[127.87295,38.10205],[127.87165,38.10159],[127.87065,38.10149],[127.86833,38.10145],[127.86561,38.1015],[127.86328,38.10195],[127.86239,38.10226],[127.86145,38.10304],[127.86076,38.10378],[127.85964,38.10526],[127.85909,38.10616],[127.8584,38.10694],[127.85694,38.10836],[127.85506,38.10979],[127.85451,38.11019],[127.85378,38.11081],[127.85209,38.11182],[127.85076,38.11285],[127.84964,38.11323],[127.84737,38.11376],[127.8463,38.11397],[127.84504,38.11432],[127.84268,38.11463],[127.84155,38.11474],[127.84045,38.11493],[127.83863,38.11507],[127.83733,38.11507],[127.83295,38.11511],[127.8317,38.11497],[127.8305,38.11473],[127.82941,38.11432],[127.82726,38.11339],[127.8266,38.11283],[127.82567,38.11222],[127.82485,38.11181],[127.82317,38.11071],[127.82223,38.11007],[127.82109,38.10923],[127.8201,38.10858],[127.81804,38.107],[127.81688,38.10621],[127.81495,38.10514],[127.8136,38.10445],[127.81136,38.10377],[127.81027,38.10355],[127.80896,38.10348],[127.8077,38.10335],[127.8053,38.10318],[127.80335,38.10284],[127.79981,38.10218],[127.79885,38.1018],[127.79773,38.10149],[127.79532,38.10089],[127.79314,38.10092],[127.79097,38.10087],[127.78843,38.10091],[127.7844,38.10107],[127.78195,38.10154],[127.78102,38.10182],[127.77901,38.10246],[127.77668,38.10341],[127.77606,38.1037],[127.77486,38.10511],[127.77373,38.10634],[127.77344,38.10673],[127.77306,38.10788],[127.77304,38.10832],[127.77359,38.11028],[127.77403,38.11151],[127.77439,38.11232],[127.7751,38.11354],[127.77582,38.11455],[127.77692,38.11585],[127.77888,38.11875],[127.77904,38.11909],[127.77853,38.12138],[127.77851,38.1227],[127.77818,38.12312],[127.77656,38.12498],[127.77526,38.1267],[127.77405,38.12788],[127.77268,38.12879],[127.7722,38.12908],[127.77318,38.12959],[127.77224,38.13035],[127.77177,38.13057],[127.7713,38.13054],[127.77065,38.13114],[127.7708,38.13156],[127.77049,38.1315],[127.77024,38.13158],[127.77031,38.1319],[127.76987,38.1321],[127.77002,38.13155],[127.76971,38.13144],[127.76935,38.13158],[127.76748,38.13166],[127.76706,38.13163],[127.76719,38.13117],[127.76631,38.13079],[127.76505,38.13005],[127.76291,38.12788],[127.76156,38.12591],[127.76097,38.12463],[127.76156,38.12281],[127.76232,38.12197],[127.76293,38.12086],[127.76333,38.11893],[127.76339,38.11826],[127.76359,38.1157],[127.7636,38.11467],[127.76368,38.11163],[127.7637,38.11008],[127.7638,38.10849],[127.76376,38.10731],[127.76359,38.10571],[127.76327,38.10426],[127.76299,38.10349],[127.76236,38.10236],[127.7616,38.10119],[127.76094,38.09995],[127.76006,38.09855],[127.75946,38.09765],[127.75901,38.09665],[127.75836,38.09509],[127.75766,38.09364],[127.75699,38.09245],[127.75648,38.0916],[127.75627,38.09107],[127.7552,38.08861],[127.75476,38.0877],[127.75412,38.08686],[127.7535,38.08632],[127.75202,38.08515],[127.75065,38.08436],[127.74939,38.08385],[127.74735,38.08335],[127.74612,38.08325],[127.74569,38.08328],[127.7442,38.08355],[127.74333,38.08377],[127.74093,38.08454],[127.73938,38.08498],[127.73729,38.08576],[127.73638,38.08614],[127.73481,38.08695],[127.73311,38.08842],[127.73131,38.09002],[127.72975,38.09109],[127.72863,38.09222],[127.72779,38.09276],[127.72685,38.09213],[127.72674,38.0919],[127.72684,38.09103],[127.7273,38.09022],[127.7271,38.08927],[127.72788,38.08791],[127.72795,38.08725],[127.72926,38.08706],[127.72988,38.08622],[127.7304,38.08571],[127.73123,38.08474],[127.73243,38.08363],[127.7331,38.08332],[127.734,38.08329],[127.73439,38.08258],[127.73528,38.08235],[127.73672,38.08134],[127.73699,38.08082],[127.73725,38.08052],[127.73769,38.07976],[127.73728,38.07953],[127.73681,38.07904],[127.73684,38.07756],[127.73646,38.07594],[127.73655,38.07552],[127.73676,38.07514],[127.73683,38.07466],[127.73683,38.0727],[127.7366,38.07152],[127.73608,38.07007],[127.7351,38.06927],[127.73428,38.06827],[127.73464,38.06802],[127.73656,38.0664],[127.73707,38.06616],[127.73727,38.06551],[127.73761,38.06508],[127.73745,38.06481],[127.73845,38.06313],[127.73886,38.06287],[127.74158,38.06266],[127.74268,38.06289],[127.745,38.06249],[127.74853,38.06153],[127.75024,38.06042],[127.75066,38.05601],[127.75069,38.05518],[127.75053,38.05319],[127.75074,38.05106],[127.74983,38.04996],[127.74692,38.04441],[127.74769,38.04293],[127.74754,38.04194],[127.74753,38.03944],[127.74785,38.03906],[127.74802,38.03825],[127.74758,38.03825],[127.74756,38.0381],[127.74804,38.03788],[127.74824,38.03736],[127.74853,38.03727],[127.74894,38.03694],[127.74889,38.0366],[127.74938,38.03638],[127.74986,38.03609],[127.75022,38.03544],[127.75087,38.03559],[127.75142,38.03522],[127.7521,38.03504],[127.75286,38.03511],[127.75367,38.03475],[127.7543,38.03491],[127.75491,38.03467],[127.75538,38.03479],[127.7568,38.03454],[127.7574,38.03474],[127.75772,38.03458],[127.7583,38.03475],[127.75845,38.03433],[127.75901,38.03424],[127.75916,38.03358],[127.75911,38.03294],[127.75961,38.03253],[127.75963,38.03186],[127.76048,38.03098],[127.76091,38.03058],[127.76093,38.02985],[127.76196,38.0298],[127.76246,38.02952],[127.76298,38.02961],[127.76358,38.02947],[127.76428,38.02917],[127.76452,38.02878],[127.76501,38.02886],[127.76533,38.0287],[127.76606,38.02886],[127.76649,38.02867],[127.76743,38.02865],[127.768,38.02823],[127.7688,38.02805],[127.76958,38.02824],[127.77032,38.02747],[127.77028,38.02708],[127.77043,38.02669],[127.77098,38.02632],[127.77093,38.02555],[127.77119,38.0248],[127.77178,38.02461],[127.77185,38.02394],[127.77239,38.02328],[127.77293,38.02279],[127.77304,38.02206],[127.77369,38.02177],[127.77386,38.02125],[127.77396,38.02064],[127.77436,38.02032],[127.77447,38.01926],[127.77441,38.01892],[127.77517,38.01858],[127.77516,38.01771],[127.77474,38.01733],[127.7747,38.0166],[127.77421,38.01597],[127.77361,38.01563],[127.77334,38.01497],[127.77337,38.01431],[127.77383,38.01358],[127.7751,38.01394],[127.77599,38.0139],[127.77654,38.0136],[127.77822,38.0139],[127.77916,38.01366],[127.77939,38.0131],[127.77979,38.01266],[127.78019,38.01185],[127.78066,38.00961],[127.78134,38.00852],[127.78321,38.00649],[127.78427,38.00409],[127.78555,38.00276],[127.78554,38.00152],[127.7867,38.00051],[127.78649,37.99928],[127.78785,37.99828],[127.78712,37.99662],[127.78667,37.99541],[127.78755,37.99728],[127.78775,37.9968],[127.78785,37.99536],[127.78821,37.99429],[127.79047,37.99429],[127.79167,37.99482],[127.79464,37.99571],[127.79637,37.99681],[127.79771,37.99732],[127.79955,37.99819],[127.80205,37.99966],[127.80317,38.0005],[127.80482,38.0006],[127.8063,38.00054],[127.80811,38.00074],[127.80905,38.00152],[127.81163,38.00325],[127.81324,38.00367],[127.81565,38.00367],[127.81692,38.00355],[127.82031,38.00388],[127.82135,38.00353],[127.82246,38.00295],[127.82496,38.00115],[127.82541,38.00105],[127.82622,38.00099],[127.8271,38.00078],[127.82716,38.00163],[127.82797,38.00261],[127.82896,38.0032],[127.82852,38.00587],[127.83038,38.00838],[127.83199,38.00862],[127.83357,38.0088],[127.83513,38.00962],[127.83705,38.011],[127.83775,38.01217],[127.83981,38.01383],[127.84192,38.01421],[127.84423,38.01442],[127.8464,38.01414],[127.8474,38.01432],[127.84823,38.01524],[127.84985,38.01671],[127.85223,38.01697],[127.85586,38.01799],[127.85757,38.01842],[127.8581,38.01882],[127.85501,38.02313],[127.85415,38.02526],[127.85415,38.02641],[127.85559,38.02862],[127.85081,38.03085],[127.85083,38.0317],[127.85049,38.03261],[127.84968,38.03348],[127.84972,38.03438],[127.84939,38.03528],[127.84919,38.03626],[127.8501,38.03778],[127.84998,38.03882],[127.84996,38.03996],[127.85047,38.04065],[127.85175,38.04217],[127.85122,38.04254],[127.85116,38.04314],[127.85123,38.04341],[127.85168,38.04377],[127.85139,38.04524],[127.8512,38.04555],[127.85147,38.04615],[127.8519,38.04641],[127.85198,38.04669],[127.85267,38.04796],[127.85305,38.0483],[127.85341,38.05052],[127.85516,38.05231],[127.85913,38.04998],[127.86078,38.04998],[127.86256,38.05015],[127.86429,38.05028],[127.86725,38.05025],[127.86802,38.04965],[127.8686,38.04957],[127.86965,38.04919],[127.87058,38.04926],[127.87233,38.04845],[127.87276,38.04882],[127.87484,38.04923],[127.87625,38.04848],[127.878,38.04764],[127.879,38.04734],[127.88021,38.04764],[127.88266,38.04803],[127.88468,38.04901],[127.88637,38.04945],[127.88827,38.05017],[127.89039,38.05012],[127.89503,38.05109],[127.89779,38.05086],[127.89947,38.04992],[127.90119,38.0504],[127.90267,38.05065],[127.90267,38.0506],[127.90271,38.05059],[127.90375,38.05253],[127.9049,38.05344],[127.90847,38.05489],[127.9098,38.05603],[127.91175,38.05664],[127.91323,38.05765],[127.91364,38.05854],[127.91269,38.05965],[127.91028,38.06355],[127.90918,38.0642],[127.90724,38.06607],[127.90589,38.0687],[127.90435,38.07013],[127.90394,38.07183],[127.90375,38.0731],[127.90432,38.0749],[127.90514,38.07615],[127.90608,38.07703],[127.90585,38.07731],[127.90649,38.07781],[127.90702,38.07809],[127.90707,38.07903],[127.90776,38.08043],[127.90717,38.08073],[127.90663,38.08115],[127.90624,38.08164],[127.90573,38.08284],[127.9056,38.08324],[127.90519,38.08396],[127.90459,38.08417],[127.9038,38.08471],[127.90362,38.08592],[127.90336,38.08649],[127.90354,38.08686],[127.90352,38.08709],[127.90299,38.08771],[127.90272,38.08857],[127.90192,38.08967],[127.90141,38.09054],[127.90111,38.09088],[127.89671,38.09115],[127.8951,38.09161],[127.89244,38.09206],[127.8916,38.09211],[127.89035,38.09246],[127.88948,38.09238],[127.88826,38.09351],[127.888,38.09452],[127.8879,38.09548],[127.88748,38.09701],[127.88736,38.09794],[127.88737,38.09886],[127.88756,38.10008],[127.88763,38.10033],[127.88711,38.10095],[127.88691,38.10127],[127.88614,38.10145],[127.88513,38.10188],[127.88495,38.10216],[127.88499,38.10238],[127.88551,38.10272],[127.88558,38.1032],[127.88635,38.10352],[127.88624,38.10392],[127.88583,38.10445],[127.88588,38.10485],[127.88577,38.10515],[127.88554,38.10539],[127.88559,38.10619],[127.88533,38.10649],[127.88547,38.10708],[127.88484,38.10798],[127.88481,38.10844],[127.88447,38.10869],[127.8841,38.10906],[127.88401,38.10945],[127.88432,38.10975],[127.88477,38.10983],[127.88555,38.11041],[127.8862,38.11098],[127.88641,38.11136],[127.887,38.11173],[127.88694,38.11228],[127.88648,38.11315],[127.88732,38.1146],[127.88783,38.1153],[127.8873,38.1161],[127.88636,38.1167],[127.88454,38.11759],[127.8834,38.11801],[127.88246,38.11854]]]},"properties":{"code":"32570310","name":"간동면"}},{"type":"Feature","geometry":{"type":"Polygon","coordinates":[[[127.67647,38.11207],[127.67603,38.11326],[127.67459,38.11534],[127.67448,38.11603],[127.67348,38.11673],[127.67318,38.11708],[127.67355,38.11766],[127.67384,38.11848],[127.67359,38.11915],[127.67261,38.11953],[127.67152,38.11944],[127.67054,38.1194],[127.66925,38.11949],[127.66892,38.11972],[127.66838,38.11994],[127.66782,38.12063],[127.66717,38.12067],[127.66683,38.12093],[127.66627,38.12107],[127.66559,38.12092],[127.66509,38.12119],[127.66334,38.12152],[127.66316,38.12165],[127.66147,38.12433],[127.65944,38.12473],[127.65814,38.12482],[127.65697,38.12436],[127.65533,38.12397],[127.65431,38.12368],[127.65344,38.12433],[127.65213,38.12561],[127.65135,38.12608],[127.64929,38.12582],[127.64907,38.12591],[127.64706,38.12505],[127.64627,38.12491],[127.64626,38.12524],[127.64585,38.12583],[127.64537,38.12547],[127.64547,38.12513],[127.64529,38.12492],[127.64536,38.12436],[127.64506,38.12436],[127.64482,38.12466],[127.64442,38.12455],[127.64196,38.12551],[127.63936,38.12656],[127.63735,38.12701],[127.63651,38.12712],[127.63349,38.12645],[127.63297,38.12629],[127.63253,38.12589],[127.6301,38.12504],[127.628,38.124],[127.6257,38.12318],[127.6246,38.12252],[127.6231,38.12215],[127.62234,38.12121],[127.62113,38.12132],[127.62027,38.12083],[127.61936,38.12135],[127.61928,38.1223],[127.61823,38.12276],[127.61755,38.12377],[127.61576,38.12503],[127.61396,38.12615],[127.61124,38.12722],[127.61092,38.12757],[127.60963,38.12851],[127.60908,38.12925],[127.60734,38.13074],[127.60663,38.13254],[127.60522,38.13332],[127.60384,38.13393],[127.60206,38.13363],[127.59921,38.13434],[127.59727,38.13399],[127.59637,38.133],[127.59485,38.13347],[127.59355,38.13296],[127.59174,38.13246],[127.59,38.1324],[127.58676,38.13296],[127.58487,38.13228],[127.57976,38.13292],[127.57829,38.13292],[127.57637,38.13359],[127.57406,38.13363],[127.57113,38.13411],[127.56898,38.13368],[127.56693,38.13417],[127.5647,38.13379],[127.56227,38.13245],[127.5616,38.13073],[127.55951,38.12925],[127.55839,38.12803],[127.55842,38.12752],[127.55866,38.12667],[127.55868,38.12549],[127.55954,38.12395],[127.56008,38.12381],[127.56087,38.12303],[127.56052,38.12174],[127.5605,38.12033],[127.56154,38.11846],[127.56212,38.1169],[127.56216,38.11541],[127.56196,38.11505],[127.56173,38.11405],[127.56174,38.11347],[127.56141,38.11299],[127.56078,38.11176],[127.56057,38.11103],[127.56019,38.11023],[127.55906,38.10905],[127.55685,38.10711],[127.5558,38.10638],[127.55584,38.10499],[127.55578,38.1045],[127.55522,38.10342],[127.55479,38.10274],[127.55464,38.10227],[127.55479,38.10137],[127.55515,38.10063],[127.5555,38.10005],[127.55545,38.09951],[127.55611,38.09876],[127.55611,38.09811],[127.55632,38.09743],[127.55661,38.09691],[127.55775,38.09595],[127.55835,38.09582],[127.55841,38.09541],[127.55873,38.095],[127.55959,38.09439],[127.55995,38.09364],[127.56025,38.09349],[127.5607,38.09295],[127.56037,38.09186],[127.56082,38.09143],[127.56077,38.09091],[127.56137,38.0903],[127.56172,38.08976],[127.56155,38.08949],[127.56201,38.08926],[127.56222,38.0885],[127.56223,38.08799],[127.56294,38.08702],[127.56344,38.0866],[127.56342,38.086],[127.564,38.08585],[127.56423,38.08556],[127.5648,38.08506],[127.56518,38.08491],[127.56611,38.08386],[127.56863,38.08424],[127.57075,38.08442],[127.57157,38.08484],[127.57349,38.08503],[127.57558,38.08481],[127.57634,38.08434],[127.57857,38.08345],[127.58081,38.08242],[127.58255,38.08196],[127.58318,38.08109],[127.58474,38.08088],[127.58566,38.0802],[127.58778,38.08035],[127.5889,38.08088],[127.59062,38.08053],[127.5935,38.08032],[127.5953,38.08011],[127.59684,38.0799],[127.59704,38.07915],[127.59757,38.07762],[127.59817,38.07686],[127.59956,38.07601],[127.60035,38.07563],[127.60146,38.07461],[127.60231,38.07421],[127.60391,38.07328],[127.60473,38.07265],[127.60776,38.07167],[127.6076,38.07052],[127.60807,38.06994],[127.60828,38.06894],[127.6082,38.06835],[127.60791,38.06753],[127.60732,38.06635],[127.60634,38.06404],[127.6054,38.06105],[127.60817,38.06026],[127.6096,38.05916],[127.61168,38.05652],[127.61157,38.0559],[127.61167,38.05542],[127.61197,38.0556],[127.61215,38.05638],[127.61252,38.05672],[127.61404,38.05745],[127.61569,38.05774],[127.61725,38.05752],[127.61803,38.05718],[127.61891,38.05618],[127.62037,38.05469],[127.62177,38.05331],[127.62228,38.05289],[127.62366,38.05155],[127.6251,38.05099],[127.62628,38.05078],[127.6311,38.0501],[127.63289,38.05005],[127.63381,38.05018],[127.63565,38.05066],[127.63791,38.05137],[127.6412,38.05198],[127.64148,38.05276],[127.64116,38.05292],[127.64178,38.05337],[127.64344,38.05506],[127.6443,38.05586],[127.64538,38.05645],[127.64614,38.05661],[127.64804,38.05629],[127.65048,38.05553],[127.65199,38.05451],[127.65272,38.05347],[127.65326,38.05213],[127.65332,38.05093],[127.65305,38.04971],[127.65185,38.04734],[127.64989,38.04571],[127.6489,38.04457],[127.64871,38.0435],[127.6488,38.04115],[127.64894,38.0406],[127.64882,38.03947],[127.64845,38.03744],[127.64843,38.03607],[127.64811,38.03438],[127.64811,38.0334],[127.64853,38.03152],[127.64899,38.03078],[127.6491,38.03083],[127.64979,38.03022],[127.65018,38.02848],[127.65027,38.02792],[127.65076,38.02701],[127.65324,38.02425],[127.65412,38.02383],[127.65549,38.02414],[127.65474,38.02577],[127.6549,38.02728],[127.65602,38.02732],[127.65797,38.02798],[127.65906,38.02843],[127.66033,38.02887],[127.66072,38.02966],[127.66196,38.02936],[127.66267,38.02976],[127.66337,38.02994],[127.66384,38.02998],[127.6643,38.03035],[127.66499,38.03029],[127.66537,38.03039],[127.66591,38.03099],[127.66603,38.03156],[127.66695,38.03212],[127.66756,38.03257],[127.66831,38.03329],[127.66882,38.03354],[127.66956,38.03418],[127.67,38.03432],[127.67094,38.03484],[127.67159,38.03491],[127.67184,38.0351],[127.67259,38.03504],[127.67342,38.03527],[127.67403,38.03561],[127.67486,38.03558],[127.67551,38.03578],[127.67844,38.03589],[127.68033,38.03486],[127.68071,38.0346],[127.68133,38.03455],[127.68159,38.03415],[127.68264,38.03427],[127.68322,38.03488],[127.68398,38.03488],[127.68471,38.03456],[127.6859,38.03429],[127.68723,38.03433],[127.6894,38.03507],[127.69001,38.0353],[127.69076,38.03525],[127.69135,38.03544],[127.69205,38.03523],[127.69264,38.03536],[127.69372,38.03536],[127.69438,38.03557],[127.69518,38.03612],[127.69575,38.03662],[127.6963,38.03687],[127.69716,38.03703],[127.69767,38.03728],[127.69818,38.03737],[127.69851,38.03761],[127.69859,38.03781],[127.69906,38.03796],[127.69944,38.03795],[127.70022,38.0382],[127.70059,38.03816],[127.70123,38.03787],[127.70179,38.03775],[127.70246,38.0374],[127.70315,38.03724],[127.70379,38.03681],[127.70457,38.03655],[127.70528,38.03571],[127.70599,38.03539],[127.70642,38.035],[127.7068,38.03478],[127.7073,38.03419],[127.70776,38.03378],[127.70804,38.03338],[127.70943,38.03233],[127.71012,38.03059],[127.7106,38.03027],[127.71095,38.02944],[127.71151,38.02829],[127.7119,38.02722],[127.71217,38.02657],[127.71302,38.0251],[127.71353,38.02393],[127.71439,38.02413],[127.7155,38.02402],[127.71593,38.02468],[127.71653,38.02483],[127.71705,38.02455],[127.71813,38.02472],[127.71893,38.02457],[127.71966,38.02476],[127.72073,38.02461],[127.72176,38.0248],[127.72251,38.0248],[127.72326,38.02468],[127.72385,38.02499],[127.72452,38.02489],[127.72539,38.0251],[127.7253,38.02558],[127.72552,38.02603],[127.72616,38.02632],[127.72628,38.02702],[127.72705,38.0275],[127.72718,38.02825],[127.72851,38.02929],[127.72867,38.02983],[127.72874,38.0303],[127.72853,38.03113],[127.72913,38.03192],[127.72892,38.03247],[127.72925,38.03281],[127.72982,38.03292],[127.73118,38.03312],[127.73209,38.03302],[127.7323,38.03392],[127.73254,38.03471],[127.73293,38.03534],[127.73276,38.03564],[127.73375,38.03581],[127.73415,38.03635],[127.73499,38.03677],[127.73531,38.03718],[127.7362,38.0372],[127.73689,38.0378],[127.73761,38.03788],[127.73803,38.0383],[127.73869,38.03823],[127.73965,38.03793],[127.7402,38.03808],[127.74089,38.03794],[127.74169,38.03788],[127.74233,38.03811],[127.74327,38.03792],[127.74391,38.03767],[127.74473,38.0377],[127.74528,38.03802],[127.74561,38.03851],[127.74562,38.0391],[127.74635,38.03935],[127.74674,38.03955],[127.74725,38.03946],[127.74724,38.03897],[127.74763,38.03855],[127.74758,38.03825],[127.74802,38.03825],[127.74785,38.03906],[127.74753,38.03944],[127.74754,38.04194],[127.74769,38.04293],[127.74692,38.04441],[127.74983,38.04996],[127.75074,38.05106],[127.75053,38.05319],[127.75069,38.05518],[127.75066,38.05601],[127.75024,38.06042],[127.74853,38.06153],[127.745,38.06249],[127.74268,38.06289],[127.74158,38.06266],[127.73886,38.06287],[127.73845,38.06313],[127.73745,38.06481],[127.73761,38.06508],[127.73727,38.06551],[127.73707,38.06616],[127.73656,38.0664],[127.73464,38.06802],[127.73428,38.06827],[127.7351,38.06927],[127.73608,38.07007],[127.7366,38.07152],[127.73683,38.0727],[127.73683,38.07466],[127.73676,38.07514],[127.73655,38.07552],[127.73646,38.07594],[127.73684,38.07756],[127.73681,38.07904],[127.73728,38.07953],[127.73769,38.07976],[127.73725,38.08052],[127.73699,38.08082],[127.73672,38.08134],[127.73528,38.08235],[127.73439,38.08258],[127.734,38.08329],[127.7331,38.08332],[127.73243,38.08363],[127.73123,38.08474],[127.7304,38.08571],[127.72988,38.08622],[127.72926,38.08706],[127.72795,38.08725],[127.72788,38.08791],[127.7271,38.08927],[127.7273,38.09022],[127.72684,38.09103],[127.72674,38.0919],[127.72685,38.09213],[127.72779,38.09276],[127.72762,38.09285],[127.72694,38.09346],[127.72631,38.09421],[127.72472,38.09514],[127.72372,38.09559],[127.72282,38.0961],[127.72194,38.09679],[127.72046,38.09773],[127.71901,38.09877],[127.71813,38.0991],[127.71736,38.09954],[127.7167,38.10004],[127.71503,38.10052],[127.70891,38.10099],[127.70701,38.10085],[127.70193,38.10057],[127.70077,38.10035],[127.69953,38.09955],[127.69901,38.09907],[127.69747,38.09798],[127.69698,38.09708],[127.69619,38.09624],[127.69568,38.09523],[127.69516,38.09439],[127.69508,38.09347],[127.69482,38.09238],[127.6943,38.09149],[127.69407,38.09064],[127.69312,38.09086],[127.69276,38.09083],[127.69011,38.09124],[127.68964,38.09148],[127.68891,38.09173],[127.68791,38.09164],[127.68718,38.09175],[127.687,38.09186],[127.68734,38.09251],[127.68796,38.09316],[127.68852,38.0936],[127.68873,38.0939],[127.68697,38.09554],[127.68784,38.09697],[127.68833,38.09829],[127.68921,38.09912],[127.68951,38.09979],[127.69016,38.10023],[127.69101,38.10063],[127.69141,38.10097],[127.69147,38.10134],[127.69163,38.10162],[127.69213,38.10224],[127.68862,38.10221],[127.68888,38.10335],[127.68858,38.10365],[127.68664,38.10378],[127.68453,38.10529],[127.68358,38.10516],[127.68163,38.10637],[127.68111,38.10681],[127.68091,38.10791],[127.68004,38.10855],[127.67859,38.10891],[127.678,38.10876],[127.67751,38.10962],[127.67724,38.11048],[127.67705,38.11126],[127.67647,38.11207]]]},"properties":{"code":"32570320","name":"하남면"}},{"type":"Feature","geometry":{"type":"Polygon","coordinates":[[[127.71307,38.25042],[127.71156,38.25067],[127.70994,38.25068],[127.70874,38.25013],[127.7074,38.24922],[127.70609,38.24852],[127.70463,38.24811],[127.703,38.24816],[127.69831,38.24854],[127.69646,38.24861],[127.69448,38.24891],[127.69121,38.24926],[127.68965,38.24938],[127.68835,38.25002],[127.6873,38.25078],[127.68624,38.25146],[127.68461,38.25191],[127.68279,38.25233],[127.68099,38.2533],[127.68037,38.25414],[127.67974,38.25529],[127.67867,38.2575],[127.67818,38.25803],[127.67757,38.25829],[127.67613,38.25847],[127.67513,38.25878],[127.67476,38.25923],[127.67466,38.26041],[127.67316,38.26263],[127.67235,38.26339],[127.67197,38.26385],[127.66959,38.26363],[127.66783,38.26328],[127.66568,38.26319],[127.6641,38.26328],[127.66285,38.26375],[127.66122,38.2639],[127.65987,38.26383],[127.65883,38.26329],[127.65736,38.26281],[127.65461,38.26238],[127.65308,38.26176],[127.65077,38.261],[127.64814,38.25983],[127.64695,38.25982],[127.64646,38.26013],[127.64591,38.26104],[127.64526,38.26173],[127.64447,38.26183],[127.64252,38.26183],[127.64135,38.26205],[127.6398,38.26255],[127.63895,38.26237],[127.63785,38.26153],[127.63693,38.26121],[127.63597,38.26118],[127.63455,38.26142],[127.63303,38.26207],[127.63197,38.26301],[127.63079,38.26351],[127.62943,38.26376],[127.62806,38.26386],[127.62708,38.26385],[127.62467,38.26505],[127.62375,38.2658],[127.62275,38.26742],[127.62206,38.26786],[127.62091,38.26832],[127.62028,38.2688],[127.61969,38.26946],[127.61956,38.2704],[127.61998,38.27139],[127.61995,38.27233],[127.61932,38.27345],[127.61832,38.27415],[127.61706,38.27453],[127.61453,38.27503],[127.61296,38.27614],[127.61184,38.27732],[127.61079,38.27838],[127.60945,38.27941],[127.6085,38.28046],[127.60788,38.28166],[127.6076,38.28298],[127.6074,38.28473],[127.60578,38.2839],[127.60363,38.28312],[127.60222,38.28286],[127.60063,38.28297],[127.59943,38.28285],[127.59855,38.28248],[127.59733,38.28159],[127.59588,38.28023],[127.59397,38.27792],[127.59398,38.27581],[127.59631,38.27124],[127.59858,38.26989],[127.59753,38.26695],[127.59786,38.26491],[127.59701,38.26309],[127.59733,38.26266],[127.59386,38.26115],[127.59111,38.26037],[127.58926,38.25743],[127.58783,38.25716],[127.58732,38.25715],[127.58712,38.25735],[127.58679,38.25745],[127.58634,38.25728],[127.5857,38.25743],[127.58476,38.25784],[127.58421,38.25769],[127.5838,38.25723],[127.58324,38.25714],[127.58275,38.2567],[127.58208,38.25645],[127.58144,38.2568],[127.58107,38.25695],[127.58086,38.25662],[127.5801,38.25658],[127.579,38.25616],[127.57868,38.25575],[127.57875,38.25512],[127.57856,38.25383],[127.57739,38.25319],[127.57718,38.25288],[127.57686,38.25272],[127.57664,38.25239],[127.57584,38.25221],[127.57569,38.252],[127.57464,38.25131],[127.57424,38.25126],[127.57345,38.25079],[127.57337,38.25061],[127.57007,38.24897],[127.56942,38.24762],[127.56939,38.24654],[127.56959,38.24587],[127.56927,38.24512],[127.56932,38.24415],[127.56915,38.243],[127.56837,38.24141],[127.56721,38.23986],[127.56651,38.23829],[127.56423,38.2364],[127.56376,38.23622],[127.56234,38.23512],[127.56088,38.23425],[127.55874,38.23254],[127.5567,38.23209],[127.5551,38.23205],[127.55432,38.23213],[127.55267,38.23206],[127.55145,38.23178],[127.55027,38.23189],[127.54934,38.2314],[127.54744,38.23132],[127.5465,38.23114],[127.54512,38.23118],[127.54315,38.23094],[127.5432,38.23077],[127.5419,38.22923],[127.54016,38.22634],[127.53941,38.22466],[127.53908,38.22203],[127.54044,38.22048],[127.54006,38.22039],[127.5404,38.21962],[127.54224,38.2177],[127.54242,38.21681],[127.54128,38.21583],[127.54037,38.21518],[127.53988,38.21452],[127.53834,38.21259],[127.53751,38.21192],[127.53671,38.21062],[127.53509,38.21075],[127.53281,38.21071],[127.53162,38.2106],[127.52991,38.20845],[127.5287,38.20633],[127.52763,38.20478],[127.52694,38.20358],[127.52603,38.20265],[127.52499,38.20213],[127.525,38.20126],[127.52451,38.20062],[127.52149,38.20015],[127.52051,38.20005],[127.52021,38.19999],[127.51892,38.1994],[127.51706,38.19903],[127.51512,38.19962],[127.51352,38.19963],[127.5109,38.19921],[127.50857,38.19915],[127.50799,38.19792],[127.50706,38.19477],[127.50668,38.19274],[127.50592,38.19078],[127.50578,38.1898],[127.50539,38.18836],[127.5048,38.18627],[127.50379,38.18486],[127.50429,38.18196],[127.50474,38.18052],[127.50446,38.17878],[127.5039,38.17742],[127.50421,38.17603],[127.50482,38.17484],[127.50422,38.17351],[127.50317,38.17251],[127.50243,38.17171],[127.50096,38.17096],[127.50028,38.17008],[127.49954,38.16888],[127.49877,38.16793],[127.49787,38.16735],[127.49713,38.16728],[127.49658,38.16616],[127.49558,38.16514],[127.49524,38.16415],[127.49532,38.1635],[127.49502,38.16275],[127.49447,38.16208],[127.49342,38.16152],[127.49194,38.16063],[127.49091,38.15975],[127.4907,38.15919],[127.49136,38.15773],[127.49186,38.15681],[127.49228,38.15583],[127.4936,38.15528],[127.49384,38.15483],[127.49499,38.15313],[127.49516,38.15297],[127.49599,38.15249],[127.49687,38.15221],[127.49812,38.15215],[127.49884,38.15195],[127.49935,38.15146],[127.5001,38.15134],[127.50042,38.15092],[127.50112,38.15027],[127.50222,38.14931],[127.5028,38.14849],[127.50386,38.1485],[127.50473,38.14908],[127.50516,38.14961],[127.50614,38.14972],[127.50696,38.1499],[127.5077,38.14976],[127.50909,38.14927],[127.5098,38.14916],[127.51041,38.14943],[127.51101,38.1499],[127.51142,38.15042],[127.51215,38.15064],[127.51324,38.15072],[127.51407,38.15099],[127.51521,38.15067],[127.51663,38.15115],[127.51815,38.15191],[127.51882,38.15201],[127.51959,38.15205],[127.52079,38.15267],[127.52138,38.15321],[127.52274,38.15409],[127.52463,38.15418],[127.52592,38.15432],[127.52723,38.15456],[127.52841,38.15497],[127.52996,38.15474],[127.53148,38.15505],[127.53253,38.15513],[127.53366,38.15546],[127.53455,38.15559],[127.53507,38.15595],[127.53604,38.15626],[127.53671,38.15608],[127.53761,38.15617],[127.5386,38.15616],[127.53941,38.15647],[127.54021,38.15657],[127.54083,38.15619],[127.54123,38.1557],[127.54254,38.15522],[127.54363,38.15498],[127.54489,38.15457],[127.54634,38.15415],[127.54699,38.15372],[127.54902,38.15343],[127.54911,38.15103],[127.54876,38.14954],[127.5489,38.14789],[127.54856,38.14639],[127.54883,38.14496],[127.5491,38.14202],[127.54908,38.14138],[127.5486,38.13961],[127.54867,38.13739],[127.54958,38.13625],[127.54979,38.13505],[127.54979,38.13486],[127.5493,38.13294],[127.54982,38.13197],[127.55029,38.13123],[127.55246,38.12956],[127.55488,38.12884],[127.55657,38.12785],[127.55834,38.12819],[127.55839,38.12803],[127.55951,38.12925],[127.5616,38.13073],[127.56227,38.13245],[127.5647,38.13379],[127.56693,38.13417],[127.56898,38.13368],[127.57113,38.13411],[127.57406,38.13363],[127.57637,38.13359],[127.57829,38.13292],[127.57976,38.13292],[127.58487,38.13228],[127.58676,38.13296],[127.59,38.1324],[127.59174,38.13246],[127.59355,38.13296],[127.59485,38.13347],[127.59637,38.133],[127.59727,38.13399],[127.59921,38.13434],[127.60206,38.13363],[127.60384,38.13393],[127.60522,38.13332],[127.60663,38.13254],[127.60734,38.13074],[127.60908,38.12925],[127.60963,38.12851],[127.61092,38.12757],[127.61124,38.12722],[127.61396,38.12615],[127.61576,38.12503],[127.61755,38.12377],[127.61823,38.12276],[127.61928,38.1223],[127.61936,38.12135],[127.62027,38.12083],[127.62113,38.12132],[127.62234,38.12121],[127.6231,38.12215],[127.6246,38.12252],[127.6257,38.12318],[127.628,38.124],[127.6301,38.12504],[127.63253,38.12589],[127.63297,38.12629],[127.63349,38.12645],[127.63651,38.12712],[127.63735,38.12701],[127.63936,38.12656],[127.64196,38.12551],[127.64442,38.12455],[127.64482,38.12466],[127.64506,38.12436],[127.64536,38.12436],[127.64529,38.12492],[127.64547,38.12513],[127.64537,38.12547],[127.64585,38.12583],[127.64626,38.12524],[127.64627,38.12491],[127.64706,38.12505],[127.64907,38.12591],[127.64929,38.12582],[127.65135,38.12608],[127.65213,38.12561],[127.65344,38.12433],[127.65431,38.12368],[127.65533,38.12397],[127.65697,38.12436],[127.65814,38.12482],[127.65944,38.12473],[127.66147,38.12433],[127.66316,38.12165],[127.66334,38.12152],[127.66509,38.12119],[127.66559,38.12092],[127.66627,38.12107],[127.66683,38.12093],[127.66717,38.12067],[127.66782,38.12063],[127.66838,38.11994],[127.66892,38.11972],[127.66925,38.11949],[127.67054,38.1194],[127.67152,38.11944],[127.67261,38.11953],[127.67359,38.11915],[127.67384,38.11848],[127.67355,38.11766],[127.67318,38.11708],[127.67348,38.11673],[127.67448,38.11603],[127.67459,38.11534],[127.67603,38.11326],[127.67647,38.11207],[127.67758,38.11262],[127.67789,38.11266],[127.67897,38.1134],[127.67903,38.11368],[127.67929,38.11404],[127.6801,38.1142],[127.68095,38.11432],[127.68115,38.11441],[127.68169,38.11415],[127.68218,38.11415],[127.68292,38.11399],[127.68357,38.11392],[127.68368,38.11403],[127.68436,38.11369],[127.68451,38.11347],[127.68492,38.11323],[127.68522,38.1132],[127.68474,38.11373],[127.68392,38.11409],[127.6835,38.11452],[127.68328,38.11495],[127.68321,38.11548],[127.68376,38.11591],[127.68412,38.1164],[127.68482,38.11702],[127.68504,38.11779],[127.68572,38.1183],[127.68636,38.11843],[127.68705,38.11843],[127.69109,38.11953],[127.6911,38.12009],[127.69156,38.12266],[127.69069,38.12648],[127.69057,38.12692],[127.68938,38.12845],[127.68932,38.13113],[127.68845,38.13345],[127.68709,38.13562],[127.68604,38.13726],[127.68515,38.13824],[127.68418,38.13829],[127.68356,38.13838],[127.68262,38.13841],[127.6818,38.13829],[127.68145,38.13864],[127.68086,38.13878],[127.67969,38.13886],[127.67909,38.13909],[127.67803,38.13929],[127.67747,38.13899],[127.67687,38.13896],[127.67652,38.13928],[127.6754,38.14076],[127.67505,38.14118],[127.67451,38.1414],[127.67403,38.14177],[127.67361,38.14159],[127.6731,38.14183],[127.6718,38.14225],[127.66973,38.14237],[127.66862,38.1425],[127.66697,38.14285],[127.6661,38.14328],[127.66585,38.14366],[127.66472,38.14417],[127.66507,38.14466],[127.66526,38.14529],[127.66461,38.1463],[127.66396,38.14665],[127.66344,38.14705],[127.66313,38.14773],[127.66262,38.14785],[127.66261,38.14895],[127.66274,38.1493],[127.66366,38.1498],[127.6648,38.14975],[127.66541,38.14989],[127.66655,38.15026],[127.66776,38.15048],[127.66841,38.15029],[127.67043,38.15037],[127.67224,38.15014],[127.67259,38.15042],[127.67308,38.15062],[127.67283,38.1522],[127.67248,38.15208],[127.67245,38.15246],[127.67299,38.15268],[127.67391,38.15328],[127.67529,38.15394],[127.67605,38.15407],[127.67685,38.154],[127.67685,38.15509],[127.67692,38.15545],[127.6748,38.15581],[127.67456,38.15627],[127.67458,38.15712],[127.6744,38.1587],[127.67462,38.15891],[127.67499,38.15956],[127.67563,38.1598],[127.676,38.16002],[127.67642,38.15999],[127.67685,38.16052],[127.67752,38.16071],[127.67775,38.16091],[127.67941,38.16117],[127.68058,38.16162],[127.68144,38.16157],[127.68257,38.16112],[127.68398,38.1603],[127.68485,38.16011],[127.68527,38.16051],[127.68555,38.16127],[127.68603,38.16162],[127.68601,38.16193],[127.68624,38.16213],[127.68734,38.16246],[127.68748,38.16302],[127.68787,38.16354],[127.68843,38.16393],[127.6914,38.16411],[127.69208,38.16473],[127.69427,38.16545],[127.69532,38.16538],[127.69622,38.16597],[127.6964,38.16669],[127.69631,38.16738],[127.69598,38.16807],[127.69655,38.16912],[127.69652,38.1704],[127.69631,38.17082],[127.69672,38.17135],[127.69687,38.17181],[127.69778,38.17276],[127.69919,38.17311],[127.70022,38.17402],[127.70084,38.1744],[127.70108,38.17471],[127.70139,38.17553],[127.70074,38.1764],[127.70114,38.17715],[127.70128,38.17774],[127.70095,38.17869],[127.70118,38.17977],[127.70209,38.18063],[127.70316,38.18172],[127.7034,38.18292],[127.7044,38.18383],[127.70473,38.18583],[127.7042,38.18673],[127.70439,38.18722],[127.7053,38.18798],[127.70581,38.18858],[127.70597,38.18935],[127.70594,38.19012],[127.70638,38.19094],[127.70666,38.19157],[127.70641,38.19263],[127.70666,38.19306],[127.70676,38.19422],[127.70652,38.19512],[127.70623,38.19532],[127.70588,38.19688],[127.70537,38.1979],[127.70618,38.19874],[127.70663,38.19966],[127.70685,38.20074],[127.70699,38.20165],[127.7069,38.20252],[127.70666,38.20345],[127.70631,38.20391],[127.70615,38.20524],[127.70513,38.20824],[127.70524,38.20924],[127.70593,38.21027],[127.70787,38.21283],[127.70796,38.21353],[127.70772,38.21447],[127.70841,38.21519],[127.70856,38.21608],[127.70829,38.21703],[127.70818,38.21814],[127.70845,38.21912],[127.70836,38.22031],[127.70797,38.2215],[127.7077,38.22265],[127.70789,38.22389],[127.7084,38.22472],[127.70965,38.22547],[127.71006,38.22608],[127.71066,38.2264],[127.71193,38.22672],[127.7132,38.22736],[127.71404,38.22804],[127.71508,38.22878],[127.71619,38.22931],[127.71748,38.22982],[127.71879,38.23005],[127.72017,38.23021],[127.72121,38.23038],[127.72233,38.23021],[127.72381,38.23041],[127.72569,38.23028],[127.72919,38.23014],[127.72875,38.23146],[127.72842,38.23278],[127.72753,38.2344],[127.72676,38.23566],[127.72634,38.23725],[127.72562,38.23805],[127.72414,38.2393],[127.723,38.24056],[127.72164,38.24234],[127.72153,38.24345],[127.72079,38.24467],[127.71989,38.24569],[127.71912,38.24692],[127.71802,38.24808],[127.71652,38.24896],[127.71498,38.24947],[127.71307,38.25042]]]},"properties":{"code":"32570330","name":"상서면"}},{"type":"Feature","geometry":{"type":"Polygon","coordinates":[[[127.55839,38.12803],[127.55834,38.12819],[127.55657,38.12785],[127.55488,38.12884],[127.55246,38.12956],[127.55029,38.13123],[127.54982,38.13197],[127.5493,38.13294],[127.54979,38.13486],[127.54979,38.13505],[127.54958,38.13625],[127.54867,38.13739],[127.5486,38.13961],[127.54908,38.14138],[127.5491,38.14202],[127.54883,38.14496],[127.54856,38.14639],[127.5489,38.14789],[127.54876,38.14954],[127.54911,38.15103],[127.54902,38.15343],[127.54699,38.15372],[127.54634,38.15415],[127.54489,38.15457],[127.54363,38.15498],[127.54254,38.15522],[127.54123,38.1557],[127.54083,38.15619],[127.54021,38.15657],[127.53941,38.15647],[127.5386,38.15616],[127.53761,38.15617],[127.53671,38.15608],[127.53604,38.15626],[127.53507,38.15595],[127.53455,38.15559],[127.53366,38.15546],[127.53253,38.15513],[127.53148,38.15505],[127.52996,38.15474],[127.52841,38.15497],[127.52723,38.15456],[127.52592,38.15432],[127.52463,38.15418],[127.52274,38.15409],[127.52138,38.15321],[127.52079,38.15267],[127.51959,38.15205],[127.51882,38.15201],[127.51815,38.15191],[127.51663,38.15115],[127.51521,38.15067],[127.51407,38.15099],[127.51324,38.15072],[127.51215,38.15064],[127.51142,38.15042],[127.51101,38.1499],[127.51041,38.14943],[127.5098,38.14916],[127.50909,38.14927],[127.5077,38.14976],[127.50696,38.1499],[127.50614,38.14972],[127.50516,38.14961],[127.50473,38.14908],[127.50386,38.1485],[127.5028,38.14849],[127.50233,38.1476],[127.50218,38.1468],[127.50226,38.14509],[127.50195,38.14436],[127.50182,38.14371],[127.50054,38.14228],[127.5004,38.14169],[127.49976,38.14147],[127.49817,38.14171],[127.49756,38.14032],[127.49597,38.13806],[127.496,38.13668],[127.4956,38.13612],[127.49498,38.13441],[127.49529,38.13299],[127.49398,38.132],[127.49191,38.13058],[127.49163,38.12979],[127.49111,38.12966],[127.49068,38.12942],[127.49052,38.12897],[127.48957,38.12824],[127.4886,38.12795],[127.48735,38.12707],[127.4864,38.12667],[127.48428,38.12522],[127.48265,38.12461],[127.48111,38.12483],[127.48001,38.12448],[127.47936,38.12443],[127.47868,38.12474],[127.47766,38.12504],[127.47739,38.1249],[127.47499,38.12443],[127.47437,38.12468],[127.47181,38.12435],[127.47047,38.12458],[127.46886,38.12522],[127.46751,38.12515],[127.46595,38.12466],[127.46356,38.12426],[127.46221,38.12296],[127.46167,38.12288],[127.46037,38.12318],[127.45899,38.12324],[127.45723,38.12273],[127.45689,38.12175],[127.45485,38.1213],[127.45417,38.12057],[127.45395,38.11935],[127.45413,38.11825],[127.45384,38.11744],[127.45289,38.11734],[127.45119,38.11768],[127.44947,38.1178],[127.44768,38.11737],[127.44591,38.11712],[127.44706,38.11968],[127.44695,38.11995],[127.44666,38.12018],[127.44668,38.12044],[127.44632,38.12095],[127.44584,38.12139],[127.44548,38.12143],[127.44529,38.12168],[127.44525,38.12231],[127.44454,38.12378],[127.4433,38.12394],[127.4419,38.12443],[127.44134,38.12434],[127.44013,38.12333],[127.43989,38.12297],[127.43811,38.12183],[127.43684,38.12048],[127.43594,38.12006],[127.43493,38.11918],[127.43286,38.11829],[127.43053,38.11537],[127.43093,38.11536],[127.43229,38.11341],[127.4327,38.11248],[127.43294,38.11151],[127.4335,38.11102],[127.4343,38.11063],[127.4354,38.11045],[127.43748,38.11048],[127.4395,38.10972],[127.43977,38.10936],[127.44045,38.10883],[127.44116,38.10752],[127.44136,38.10679],[127.44143,38.10512],[127.44158,38.10351],[127.44226,38.10188],[127.44357,38.09997],[127.44462,38.09838],[127.44517,38.09747],[127.44521,38.0947],[127.44564,38.094],[127.44588,38.09269],[127.44551,38.09136],[127.44512,38.08911],[127.44495,38.08839],[127.4448,38.08798],[127.44533,38.08687],[127.44644,38.08556],[127.44666,38.08464],[127.44656,38.08292],[127.44708,38.08073],[127.44691,38.07907],[127.44638,38.07763],[127.44448,38.07478],[127.44457,38.07405],[127.44594,38.07306],[127.44643,38.07239],[127.44674,38.07122],[127.44647,38.06854],[127.44674,38.06723],[127.44602,38.06475],[127.4461,38.06398],[127.4448,38.06133],[127.4452,38.06059],[127.44465,38.05975],[127.44448,38.05823],[127.44458,38.05726],[127.44514,38.05628],[127.44593,38.0556],[127.44672,38.05422],[127.446,38.0518],[127.44624,38.05121],[127.44836,38.05051],[127.44953,38.04927],[127.45043,38.04862],[127.45237,38.0481],[127.45291,38.04719],[127.4527,38.04398],[127.45176,38.04157],[127.45102,38.03809],[127.45204,38.03539],[127.45187,38.0346],[127.45271,38.03375],[127.45323,38.03266],[127.4534,38.0308],[127.45538,38.02921],[127.456,38.0277],[127.4562,38.02732],[127.45636,38.02672],[127.45524,38.02521],[127.45582,38.02441],[127.45596,38.0224],[127.45665,38.02091],[127.4568,38.02],[127.45686,38.01846],[127.45753,38.01699],[127.45913,38.01567],[127.45984,38.01459],[127.46058,38.01429],[127.46154,38.01285],[127.46296,38.01172],[127.46438,38.01155],[127.46533,38.01078],[127.46788,38.00953],[127.46966,38.00884],[127.47061,38.00793],[127.47156,38.00645],[127.47232,38.00628],[127.47398,38.00631],[127.47521,38.0064],[127.47702,38.0063],[127.47975,38.00638],[127.48152,38.00623],[127.48296,38.00543],[127.4853,38.0049],[127.48756,38.00506],[127.48966,38.00503],[127.49127,38.00478],[127.49193,38.00463],[127.4931,38.00427],[127.49631,38.00377],[127.4974,38.00371],[127.49806,38.00128],[127.49907,38.00091],[127.50053,38.00049],[127.50169,37.99964],[127.50392,37.99795],[127.5089,38.00131],[127.51237,38.00021],[127.51519,38.0007],[127.5169,38.00064],[127.51873,38.0009],[127.52059,38.00101],[127.52338,38.00155],[127.52613,38.00135],[127.52934,38.00165],[127.53109,38.00239],[127.53692,38.00066],[127.53988,38.00057],[127.54031,38.00116],[127.54038,38.002],[127.54067,38.00235],[127.54071,38.00295],[127.54107,38.004],[127.54118,38.00511],[127.54174,38.00736],[127.54244,38.0092],[127.54291,38.01016],[127.5431,38.01086],[127.54356,38.01167],[127.54348,38.01354],[127.5438,38.01476],[127.5439,38.0159],[127.54421,38.01626],[127.54433,38.01687],[127.54436,38.01759],[127.54486,38.01858],[127.54476,38.01953],[127.54638,38.01967],[127.54744,38.0201],[127.54843,38.02019],[127.54924,38.02011],[127.5507,38.01978],[127.55293,38.0198],[127.55379,38.01998],[127.55518,38.02058],[127.55636,38.02081],[127.55738,38.02077],[127.55883,38.02075],[127.55999,38.02077],[127.56101,38.02103],[127.56176,38.02139],[127.56262,38.02157],[127.56385,38.02199],[127.56438,38.02291],[127.56462,38.02353],[127.56498,38.02418],[127.56437,38.02518],[127.56427,38.02591],[127.5644,38.02631],[127.56517,38.02729],[127.56539,38.02972],[127.56667,38.03077],[127.56695,38.03192],[127.56779,38.03231],[127.56994,38.03288],[127.57064,38.03394],[127.57406,38.03551],[127.57477,38.03651],[127.5756,38.03707],[127.57603,38.03798],[127.57721,38.03909],[127.57864,38.03977],[127.57862,38.04062],[127.57848,38.04092],[127.57832,38.04174],[127.5778,38.04288],[127.57641,38.04429],[127.57589,38.0447],[127.57554,38.04543],[127.57485,38.04613],[127.57398,38.04712],[127.57402,38.04756],[127.57423,38.0486],[127.57433,38.04956],[127.57411,38.05091],[127.57506,38.0518],[127.57542,38.05242],[127.57615,38.05272],[127.57709,38.05301],[127.57795,38.05337],[127.57863,38.05372],[127.57917,38.05415],[127.57958,38.05471],[127.57957,38.05577],[127.57894,38.05635],[127.57862,38.05678],[127.57769,38.05692],[127.57691,38.05766],[127.57697,38.05825],[127.5773,38.05909],[127.57714,38.05952],[127.57727,38.06018],[127.57708,38.06074],[127.57693,38.06157],[127.57622,38.06227],[127.57409,38.06402],[127.57329,38.06453],[127.57249,38.06493],[127.56973,38.0667],[127.56807,38.06676],[127.56717,38.06648],[127.5666,38.06644],[127.56565,38.06771],[127.56545,38.06836],[127.56536,38.06943],[127.56505,38.06993],[127.56486,38.07039],[127.56438,38.0711],[127.56417,38.07168],[127.56424,38.07255],[127.56453,38.07404],[127.56427,38.07516],[127.56471,38.0758],[127.56512,38.07655],[127.5655,38.07707],[127.56636,38.07811],[127.56634,38.07878],[127.5667,38.07929],[127.56652,38.08001],[127.56548,38.08172],[127.56535,38.08227],[127.56559,38.08301],[127.56611,38.08386],[127.56518,38.08491],[127.5648,38.08506],[127.56423,38.08556],[127.564,38.08585],[127.56342,38.086],[127.56344,38.0866],[127.56294,38.08702],[127.56223,38.08799],[127.56222,38.0885],[127.56201,38.08926],[127.56155,38.08949],[127.56172,38.08976],[127.56137,38.0903],[127.56077,38.09091],[127.56082,38.09143],[127.56037,38.09186],[127.5607,38.09295],[127.56025,38.09349],[127.55995,38.09364],[127.55959,38.09439],[127.55873,38.095],[127.55841,38.09541],[127.55835,38.09582],[127.55775,38.09595],[127.55661,38.09691],[127.55632,38.09743],[127.55611,38.09811],[127.55611,38.09876],[127.55545,38.09951],[127.5555,38.10005],[127.55515,38.10063],[127.55479,38.10137],[127.55464,38.10227],[127.55479,38.10274],[127.55522,38.10342],[127.55578,38.1045],[127.55584,38.10499],[127.5558,38.10638],[127.55685,38.10711],[127.55906,38.10905],[127.56019,38.11023],[127.56057,38.11103],[127.56078,38.11176],[127.56141,38.11299],[127.56174,38.11347],[127.56173,38.11405],[127.56196,38.11505],[127.56216,38.11541],[127.56212,38.1169],[127.56154,38.11846],[127.5605,38.12033],[127.56052,38.12174],[127.56087,38.12303],[127.56008,38.12381],[127.55954,38.12395],[127.55868,38.12549],[127.55866,38.12667],[127.55842,38.12752],[127.55839,38.12803]]]},"properties":{"code":"32570340","name":"사내면"}}],"profileId":"gangwon","schemaVersion":2,"dataVersion":"gangwon-2022-563a6bb6162048a7"}
