{"type":"FeatureCollection","features":[{"type":"Feature","geometry":{"type":"Polygon","coordinates":[[[128.02901,38.15675],[128.02876,38.15719],[128.02886,38.15729],[128.02871,38.15826],[128.02895,38.15893],[128.02876,38.15923],[128.02883,38.1603],[128.02772,38.16124],[128.02783,38.16187],[128.02834,38.1624],[128.02839,38.16257],[128.02819,38.16321],[128.02764,38.16351],[128.02734,38.16359],[128.02702,38.16399],[128.02659,38.16415],[128.02633,38.16435],[128.02648,38.16494],[128.02653,38.16685],[128.02632,38.16735],[128.02554,38.16726],[128.02457,38.16703],[128.02417,38.16751],[128.02389,38.16824],[128.02341,38.16838],[128.02333,38.16886],[128.02312,38.16922],[128.0232,38.16963],[128.02291,38.16979],[128.02255,38.17064],[128.02276,38.17078],[128.02277,38.1711],[128.02252,38.17153],[128.02229,38.17229],[128.02298,38.17259],[128.02319,38.17256],[128.02353,38.17279],[128.02376,38.17309],[128.02402,38.17314],[128.02453,38.17348],[128.02426,38.17393],[128.02394,38.17423],[128.02376,38.1749],[128.02413,38.17525],[128.02408,38.17578],[128.02388,38.17636],[128.02352,38.17696],[128.02314,38.17728],[128.02321,38.1775],[128.02309,38.17803],[128.02311,38.17867],[128.02349,38.17887],[128.02346,38.17903],[128.02286,38.17915],[128.02236,38.17935],[128.02243,38.18011],[128.02235,38.18096],[128.02237,38.18142],[128.02183,38.18203],[128.02176,38.18289],[128.02226,38.18328],[128.02223,38.18348],[128.02242,38.18384],[128.02238,38.18409],[128.02273,38.18462],[128.02241,38.18482],[128.02179,38.18474],[128.02136,38.1849],[128.02124,38.18517],[128.02049,38.18615],[128.02075,38.18677],[128.021,38.18708],[128.02108,38.18747],[128.02108,38.18808],[128.02078,38.18845],[128.0204,38.18854],[128.0202,38.18875],[128.01963,38.18894],[128.01957,38.18908],[128.01871,38.18949],[128.01854,38.18966],[128.01823,38.19035],[128.01791,38.19066],[128.01804,38.19106],[128.0178,38.19115],[128.01764,38.19153],[128.01783,38.19207],[128.01807,38.19227],[128.01795,38.19252],[128.0172,38.19299],[128.01722,38.1933],[128.01636,38.19334],[128.01601,38.19345],[128.01577,38.19381],[128.01507,38.19422],[128.01502,38.19458],[128.01469,38.19491],[128.01321,38.19606],[128.01263,38.19618],[128.01208,38.19665],[128.01094,38.19714],[128.00856,38.19786],[128.00871,38.19876],[128.00788,38.19979],[128.0037,38.19965],[128.00255,38.19946],[128.00182,38.19969],[127.99966,38.19797],[127.99783,38.19731],[127.99622,38.19798],[127.99507,38.19763],[127.99349,38.19632],[127.99254,38.19607],[127.9919,38.19523],[127.99112,38.19482],[127.99044,38.19412],[127.98951,38.19376],[127.98803,38.19361],[127.98685,38.19392],[127.98624,38.19322],[127.98453,38.19237],[127.98336,38.19167],[127.98375,38.19113],[127.98284,38.18945],[127.98269,38.18816],[127.98195,38.18684],[127.9821,38.18516],[127.98239,38.18408],[127.98335,38.18294],[127.98342,38.18196],[127.98388,38.18171],[127.98356,38.18062],[127.98406,38.18002],[127.98357,38.17923],[127.98248,38.17883],[127.98115,38.17872],[127.9809,38.17856],[127.98048,38.17793],[127.97869,38.17717],[127.97683,38.17649],[127.97608,38.17637],[127.97443,38.17531],[127.97326,38.17512],[127.97232,38.17476],[127.97111,38.17425],[127.97028,38.17358],[127.96882,38.17258],[127.96838,38.1724],[127.96805,38.17212],[127.96718,38.17165],[127.96713,38.17147],[127.96659,38.17116],[127.96582,38.17088],[127.96554,38.17059],[127.96488,38.17042],[127.96429,38.17017],[127.96367,38.17025],[127.96251,38.17017],[127.96142,38.16973],[127.96077,38.17003],[127.95997,38.17005],[127.95949,38.17015],[127.95911,38.17059],[127.95862,38.17074],[127.95774,38.17079],[127.95725,38.17113],[127.95667,38.17129],[127.95586,38.17117],[127.95522,38.17133],[127.95437,38.17138],[127.95347,38.17171],[127.95272,38.17117],[127.95202,38.17123],[127.95149,38.17092],[127.95021,38.17067],[127.95014,38.17074],[127.94877,38.17155],[127.94778,38.17279],[127.94599,38.1733],[127.94472,38.17392],[127.9439,38.1753],[127.9418,38.17515],[127.94032,38.1749],[127.93882,38.17484],[127.93663,38.17483],[127.93404,38.17479],[127.93315,38.17538],[127.93235,38.17602],[127.93087,38.17653],[127.92936,38.17724],[127.92805,38.17763],[127.92648,38.17708],[127.92516,38.17622],[127.92411,38.17614],[127.92371,38.17591],[127.92217,38.17596],[127.92117,38.17641],[127.92104,38.17643],[127.92072,38.1758],[127.92074,38.17528],[127.92039,38.1751],[127.92018,38.17377],[127.91948,38.17337],[127.91912,38.17302],[127.9179,38.17171],[127.91724,38.17133],[127.91675,38.17081],[127.91669,38.17042],[127.91609,38.17005],[127.91585,38.17002],[127.91534,38.17025],[127.91505,38.17065],[127.91377,38.17097],[127.91259,38.17028],[127.91168,38.16978],[127.91104,38.16956],[127.91075,38.16959],[127.91015,38.16947],[127.9098,38.16964],[127.90949,38.1699],[127.9083,38.16936],[127.9077,38.16928],[127.90723,38.16955],[127.90666,38.16929],[127.90624,38.16897],[127.90544,38.16881],[127.90489,38.16855],[127.90418,38.16831],[127.90378,38.16784],[127.90317,38.16757],[127.90229,38.16645],[127.90202,38.16591],[127.90215,38.16562],[127.90148,38.16578],[127.90065,38.1665],[127.89986,38.16621],[127.89897,38.16733],[127.89881,38.16793],[127.89878,38.16866],[127.89915,38.1695],[127.89965,38.17014],[127.90012,38.171],[127.89979,38.17124],[127.89999,38.17145],[127.89982,38.17158],[127.8999,38.17182],[127.90021,38.17172],[127.90053,38.17184],[127.89964,38.17241],[127.89905,38.17252],[127.89843,38.17283],[127.89762,38.17173],[127.89636,38.17055],[127.89524,38.16958],[127.89371,38.16857],[127.89246,38.16767],[127.89076,38.16728],[127.88897,38.16769],[127.88674,38.16724],[127.88444,38.16841],[127.88245,38.16931],[127.88104,38.17053],[127.88125,38.16949],[127.88088,38.16729],[127.88055,38.16617],[127.88028,38.1656],[127.8786,38.16416],[127.87824,38.16335],[127.87701,38.16221],[127.87596,38.1604],[127.87616,38.15994],[127.87554,38.15896],[127.87555,38.15793],[127.87539,38.15676],[127.87708,38.15463],[127.87768,38.15316],[127.87705,38.15187],[127.8772,38.1507],[127.87659,38.14855],[127.87597,38.14765],[127.87592,38.14725],[127.87552,38.14591],[127.876,38.14487],[127.87523,38.14379],[127.87482,38.14256],[127.8739,38.14138],[127.87381,38.1392],[127.87387,38.13918],[127.87461,38.13831],[127.875,38.13732],[127.87539,38.13667],[127.87579,38.13623],[127.87559,38.13557],[127.87575,38.13496],[127.87624,38.13476],[127.8767,38.13391],[127.87688,38.13376],[127.87672,38.13281],[127.87639,38.13238],[127.8758,38.13187],[127.87592,38.13136],[127.8757,38.12994],[127.87591,38.12934],[127.87553,38.12904],[127.87543,38.12836],[127.87526,38.12803],[127.87505,38.12711],[127.87532,38.12648],[127.87583,38.12605],[127.87574,38.12579],[127.87542,38.12539],[127.8753,38.12478],[127.87571,38.12408],[127.8757,38.12377],[127.87662,38.12238],[127.87675,38.1214],[127.87621,38.11993],[127.8762,38.11911],[127.87639,38.11901],[127.87701,38.11896],[127.87782,38.11897],[127.8795,38.11915],[127.88122,38.119],[127.88205,38.11873],[127.88246,38.11854],[127.8834,38.11801],[127.88454,38.11759],[127.88636,38.1167],[127.8873,38.1161],[127.88783,38.1153],[127.88732,38.1146],[127.88648,38.11315],[127.88694,38.11228],[127.887,38.11173],[127.88641,38.11136],[127.8862,38.11098],[127.88555,38.11041],[127.88477,38.10983],[127.88432,38.10975],[127.88401,38.10945],[127.8841,38.10906],[127.88447,38.10869],[127.88481,38.10844],[127.88484,38.10798],[127.88547,38.10708],[127.88533,38.10649],[127.88559,38.10619],[127.88554,38.10539],[127.88577,38.10515],[127.88588,38.10485],[127.88583,38.10445],[127.88624,38.10392],[127.88635,38.10352],[127.88558,38.1032],[127.88551,38.10272],[127.88499,38.10238],[127.88495,38.10216],[127.88513,38.10188],[127.88614,38.10145],[127.88691,38.10127],[127.88711,38.10095],[127.88763,38.10033],[127.88756,38.10008],[127.88737,38.09886],[127.88736,38.09794],[127.88748,38.09701],[127.8879,38.09548],[127.888,38.09452],[127.88826,38.09351],[127.88948,38.09238],[127.89035,38.09246],[127.8916,38.09211],[127.89244,38.09206],[127.8951,38.09161],[127.89671,38.09115],[127.90111,38.09088],[127.90141,38.09054],[127.90192,38.08967],[127.90272,38.08857],[127.90299,38.08771],[127.90352,38.08709],[127.90354,38.08686],[127.90336,38.08649],[127.90362,38.08592],[127.9038,38.08471],[127.90459,38.08417],[127.90519,38.08396],[127.9056,38.08324],[127.90573,38.08284],[127.90624,38.08164],[127.90663,38.08115],[127.90717,38.08073],[127.90776,38.08043],[127.90707,38.07903],[127.90702,38.07809],[127.90649,38.07781],[127.90585,38.07731],[127.90608,38.07703],[127.90514,38.07615],[127.90432,38.0749],[127.90375,38.0731],[127.90394,38.07183],[127.90435,38.07013],[127.90589,38.0687],[127.90724,38.06607],[127.90918,38.0642],[127.91028,38.06355],[127.91269,38.05965],[127.91364,38.05854],[127.91323,38.05765],[127.91175,38.05664],[127.9098,38.05603],[127.90847,38.05489],[127.9049,38.05344],[127.90375,38.05253],[127.90271,38.05059],[127.90267,38.0506],[127.90277,38.04895],[127.90404,38.04617],[127.90364,38.04437],[127.90371,38.04185],[127.90263,38.04061],[127.90186,38.03822],[127.90275,38.03763],[127.90288,38.0367],[127.90283,38.03615],[127.9027,38.03533],[127.90255,38.03475],[127.90404,38.03335],[127.90381,38.03301],[127.9037,38.03199],[127.904,38.03122],[127.90407,38.03033],[127.90457,38.02976],[127.90633,38.02842],[127.90749,38.02711],[127.90984,38.02563],[127.91027,38.02462],[127.91138,38.02411],[127.91245,38.02369],[127.91338,38.02286],[127.91515,38.02217],[127.91627,38.0222],[127.91722,38.02165],[127.91778,38.02128],[127.91825,38.02107],[127.91923,38.02107],[127.91994,38.02098],[127.92044,38.02078],[127.92093,38.02049],[127.92118,38.02048],[127.92223,38.02011],[127.92281,38.02004],[127.92323,38.02007],[127.9238,38.0203],[127.92442,38.01998],[127.92479,38.02003],[127.92532,38.01986],[127.92551,38.01961],[127.92627,38.01907],[127.92668,38.01892],[127.92758,38.01902],[127.92865,38.01898],[127.9292,38.01883],[127.92942,38.01846],[127.92991,38.01843],[127.92998,38.01827],[127.93065,38.01802],[127.93137,38.01789],[127.93196,38.01735],[127.93227,38.01723],[127.93282,38.01666],[127.93425,38.01561],[127.93449,38.0155],[127.93453,38.01513],[127.93436,38.01478],[127.93453,38.01422],[127.93447,38.01382],[127.93652,38.01419],[127.9382,38.01422],[127.94043,38.01505],[127.94333,38.01672],[127.94493,38.01837],[127.94606,38.02057],[127.94714,38.02258],[127.94686,38.02584],[127.94643,38.02914],[127.94701,38.03133],[127.94861,38.03412],[127.94992,38.03619],[127.95085,38.03726],[127.95175,38.0382],[127.95261,38.03854],[127.95543,38.03868],[127.95762,38.03783],[127.96301,38.03486],[127.96611,38.03205],[127.96902,38.0309],[127.97249,38.03055],[127.97778,38.02957],[127.9815,38.02836],[127.98161,38.02862],[127.98113,38.02979],[127.97935,38.03489],[127.97863,38.03583],[127.97802,38.03674],[127.97752,38.03684],[127.97708,38.03715],[127.97747,38.03785],[127.9783,38.03798],[127.97928,38.03832],[127.98024,38.03822],[127.98053,38.03878],[127.98058,38.03911],[127.98031,38.0395],[127.98023,38.04019],[127.97993,38.04089],[127.97984,38.04153],[127.97986,38.04229],[127.97968,38.04257],[127.97926,38.04363],[127.97944,38.04411],[127.97967,38.04567],[127.9794,38.04589],[127.9796,38.04627],[127.97995,38.04636],[127.97974,38.04668],[127.97945,38.04684],[127.97942,38.04714],[127.97904,38.04763],[127.97886,38.04798],[127.9788,38.04856],[127.97911,38.04855],[127.97951,38.0487],[127.9799,38.04955],[127.97992,38.0498],[127.98027,38.05008],[127.98038,38.05093],[127.98053,38.05134],[127.98054,38.05189],[127.9804,38.05216],[127.98052,38.05244],[127.98052,38.05277],[127.9808,38.05333],[127.98132,38.05332],[127.98161,38.05343],[127.98187,38.05337],[127.98226,38.05346],[127.98222,38.05383],[127.98201,38.05434],[127.98243,38.05449],[127.98289,38.05477],[127.98291,38.05538],[127.98279,38.05555],[127.98275,38.0561],[127.98359,38.0566],[127.98362,38.05736],[127.98369,38.05774],[127.98352,38.05838],[127.98409,38.05865],[127.98396,38.05895],[127.98402,38.05929],[127.98392,38.05947],[127.98406,38.05988],[127.98466,38.06047],[127.98526,38.06089],[127.9855,38.06132],[127.98576,38.06153],[127.98633,38.06163],[127.98718,38.06214],[127.98737,38.06246],[127.98766,38.06264],[127.988,38.06324],[127.98861,38.06481],[127.98914,38.06556],[127.98937,38.06573],[127.9901,38.06607],[127.99033,38.06612],[127.99091,38.06669],[127.99115,38.06741],[127.99121,38.06775],[127.9907,38.06866],[127.99061,38.06904],[127.99048,38.07048],[127.99049,38.07098],[127.99065,38.07194],[127.99092,38.07244],[127.99151,38.07319],[127.99158,38.07336],[127.99113,38.07419],[127.99093,38.07644],[127.99096,38.07799],[127.99101,38.07846],[127.99092,38.07921],[127.99105,38.07977],[127.99139,38.08005],[127.99237,38.08049],[127.99304,38.08089],[127.99332,38.08145],[127.99343,38.08184],[127.99346,38.08251],[127.99314,38.08278],[127.99299,38.08343],[127.9931,38.08399],[127.99267,38.08459],[127.99234,38.08472],[127.99205,38.085],[127.99152,38.08581],[127.99144,38.08676],[127.99116,38.08714],[127.99173,38.08703],[127.99231,38.08652],[127.99323,38.08638],[127.99338,38.08628],[127.99408,38.08627],[127.99482,38.08632],[127.9958,38.08623],[127.99648,38.08635],[127.99674,38.08692],[127.99705,38.08744],[127.99805,38.08724],[127.99814,38.08748],[127.99818,38.08861],[127.99924,38.08847],[127.99971,38.08848],[128.00344,38.08804],[128.00382,38.08805],[128.0052,38.08779],[128.00504,38.08954],[128.00512,38.0901],[128.00557,38.09049],[128.00556,38.0911],[128.00486,38.09246],[128.00468,38.09248],[128.00492,38.09331],[128.00598,38.09357],[128.00637,38.09354],[128.00675,38.09364],[128.00706,38.09388],[128.00779,38.09371],[128.00812,38.09386],[128.00844,38.09383],[128.00871,38.09395],[128.00833,38.095],[128.00827,38.09577],[128.00863,38.09593],[128.00943,38.09616],[128.00988,38.09651],[128.01031,38.0966],[128.01074,38.09694],[128.01055,38.09732],[128.01083,38.09802],[128.01106,38.0983],[128.01056,38.09885],[128.01075,38.09904],[128.01062,38.09953],[128.01031,38.09978],[128.01028,38.10022],[128.00954,38.10084],[128.00941,38.10113],[128.00957,38.10155],[128.00946,38.10221],[128.00924,38.10318],[128.00874,38.10353],[128.00861,38.10382],[128.0087,38.10413],[128.0095,38.10429],[128.00992,38.10402],[128.01057,38.10414],[128.01069,38.10451],[128.01123,38.10452],[128.01146,38.10479],[128.01121,38.10533],[128.01138,38.10548],[128.01139,38.10585],[128.01205,38.1065],[128.0116,38.10768],[128.01174,38.1081],[128.01163,38.10871],[128.01138,38.10908],[128.01116,38.10923],[128.01064,38.10999],[128.01111,38.1103],[128.01171,38.11051],[128.01224,38.11106],[128.01239,38.11112],[128.01283,38.11158],[128.01351,38.11215],[128.01394,38.1127],[128.01411,38.1128],[128.01448,38.11264],[128.01517,38.11309],[128.0165,38.11414],[128.01721,38.11428],[128.01805,38.11488],[128.0186,38.11605],[128.01894,38.11614],[128.01903,38.1166],[128.01906,38.11729],[128.02018,38.11798],[128.0204,38.11828],[128.0209,38.11841],[128.02222,38.11798],[128.02252,38.11807],[128.02319,38.11786],[128.02388,38.11782],[128.02428,38.11851],[128.0243,38.11919],[128.02507,38.11983],[128.02589,38.12046],[128.0258,38.12099],[128.02585,38.1218],[128.02605,38.12237],[128.02628,38.12244],[128.02645,38.12269],[128.02659,38.12324],[128.02607,38.12347],[128.02524,38.12419],[128.02574,38.12418],[128.0262,38.124],[128.02692,38.12423],[128.02749,38.12486],[128.02761,38.12523],[128.02782,38.12542],[128.02825,38.12549],[128.02855,38.12576],[128.02883,38.12633],[128.02916,38.12664],[128.02917,38.12686],[128.02957,38.12745],[128.02971,38.12849],[128.02944,38.12888],[128.02992,38.12936],[128.02982,38.12976],[128.02992,38.13],[128.03023,38.13015],[128.03097,38.13036],[128.03193,38.13078],[128.03206,38.13121],[128.03234,38.13152],[128.03243,38.13178],[128.03317,38.13221],[128.03361,38.13227],[128.03399,38.13259],[128.03448,38.13263],[128.03481,38.13277],[128.03537,38.13252],[128.03611,38.13278],[128.0369,38.13276],[128.03729,38.13261],[128.03747,38.13279],[128.03739,38.13325],[128.03751,38.1337],[128.0382,38.13402],[128.03868,38.13411],[128.03885,38.13424],[128.03875,38.13492],[128.03845,38.1352],[128.03826,38.13559],[128.03823,38.13598],[128.03775,38.13644],[128.03788,38.1372],[128.03762,38.13743],[128.0373,38.13793],[128.03746,38.13826],[128.0373,38.13882],[128.03646,38.13961],[128.03575,38.14],[128.03509,38.14043],[128.03487,38.14069],[128.03473,38.14139],[128.0342,38.14153],[128.03403,38.14222],[128.03352,38.14267],[128.03304,38.14343],[128.03248,38.14356],[128.03233,38.14439],[128.03234,38.14511],[128.0321,38.14559],[128.03201,38.14613],[128.03133,38.14656],[128.03094,38.14669],[128.02997,38.1472],[128.02968,38.14742],[128.02997,38.14809],[128.03029,38.14842],[128.03022,38.14912],[128.02951,38.1502],[128.0294,38.15046],[128.02958,38.15089],[128.02963,38.15127],[128.02935,38.15168],[128.02967,38.15312],[128.02982,38.15345],[128.02969,38.15358],[128.02979,38.15416],[128.02957,38.15451],[128.02976,38.15498],[128.02936,38.15522],[128.02918,38.15647],[128.02901,38.15675]]]},"properties":{"code":"32580110","name":"양구읍"}},{"type":"Feature","geometry":{"type":"Polygon","coordinates":[[[128.11669,38.22505],[128.11359,38.2256],[128.11167,38.22674],[128.1102,38.22783],[128.10854,38.23025],[128.1042,38.23237],[128.10219,38.23417],[128.10095,38.23669],[128.09632,38.23973],[128.09583,38.24129],[128.09675,38.24296],[128.09797,38.24437],[128.09802,38.24457],[128.09817,38.24722],[128.09808,38.24945],[128.09646,38.25133],[128.09435,38.25322],[128.09422,38.25413],[128.09377,38.25484],[128.09115,38.2563],[128.08954,38.25813],[128.08845,38.25975],[128.08748,38.26094],[128.08678,38.26421],[128.08686,38.26659],[128.08534,38.26846],[128.08487,38.27001],[128.08611,38.27344],[128.08627,38.27526],[128.08622,38.27754],[128.08662,38.27904],[128.08723,38.28037],[128.08877,38.28229],[128.08736,38.28398],[128.08692,38.28892],[128.08593,38.29031],[128.08586,38.29287],[128.08493,38.29535],[128.08346,38.29724],[128.08241,38.2996],[128.08348,38.30142],[128.08462,38.3043],[128.0848,38.30726],[128.08604,38.30946],[128.08765,38.31118],[128.0885,38.31237],[128.09031,38.31422],[128.08989,38.31513],[128.08901,38.31578],[128.08812,38.31701],[128.08735,38.31766],[128.08437,38.31573],[128.08015,38.31343],[128.07588,38.31181],[128.06876,38.30996],[128.06381,38.3092],[128.05756,38.30798],[128.04915,38.30704],[128.04617,38.30727],[128.04404,38.30749],[128.04404,38.30762],[128.04437,38.30804],[128.0443,38.30827],[128.0446,38.30834],[128.04506,38.30879],[128.0445,38.30876],[128.04418,38.30882],[128.04404,38.30959],[128.04427,38.30962],[128.04447,38.30987],[128.04421,38.31006],[128.04427,38.31022],[128.0447,38.31052],[128.04396,38.31091],[128.04359,38.31082],[128.04355,38.311],[128.04324,38.31111],[128.043,38.31156],[128.0424,38.31163],[128.04172,38.31145],[128.04143,38.31117],[128.04074,38.31118],[128.0405,38.31105],[128.03986,38.31105],[128.03953,38.3113],[128.03892,38.31145],[128.03846,38.31148],[128.03817,38.31124],[128.03781,38.31067],[128.03752,38.31057],[128.03715,38.31061],[128.03681,38.31084],[128.03629,38.31101],[128.03586,38.31126],[128.03509,38.3116],[128.03506,38.31189],[128.03484,38.31202],[128.03448,38.3119],[128.03434,38.31174],[128.03357,38.31136],[128.03348,38.31108],[128.03282,38.3109],[128.03203,38.3109],[128.03113,38.31121],[128.03085,38.31156],[128.03121,38.31234],[128.03162,38.3128],[128.03178,38.31348],[128.03244,38.31411],[128.03343,38.31491],[128.03345,38.31544],[128.03331,38.31567],[128.03056,38.31514],[128.0305,38.3151],[128.02798,38.31516],[128.02614,38.31478],[128.02278,38.31436],[128.01821,38.31419],[128.01814,38.31222],[128.01783,38.30483],[128.01546,38.3028],[128.01604,38.30135],[128.01582,38.30057],[128.01528,38.3],[128.01514,38.2988],[128.01362,38.29596],[128.01297,38.29417],[128.01596,38.2915],[128.01597,38.28989],[128.01488,38.28801],[128.01338,38.28717],[128.01183,38.28671],[128.01078,38.28608],[128.0106,38.28387],[128.00871,38.2819],[128.00769,38.28035],[128.00741,38.27912],[128.00624,38.2778],[128.00256,38.27551],[128.00203,38.27517],[128.00316,38.27306],[128.0036,38.27207],[128.0055,38.27081],[128.00579,38.27046],[128.00597,38.26913],[128.00734,38.26726],[128.0083,38.2654],[128.00901,38.26349],[128.00886,38.2609],[128.0086,38.25918],[128.00795,38.25787],[128.00835,38.25633],[128.0089,38.25508],[128.01027,38.25424],[128.01076,38.25354],[128.01072,38.25249],[128.01049,38.25137],[128.01046,38.25048],[128.00942,38.24954],[128.00951,38.24891],[128.0102,38.24775],[128.01099,38.24728],[128.01061,38.24592],[128.00989,38.24504],[128.00955,38.24366],[128.00986,38.24263],[128.00966,38.24147],[128.01023,38.24017],[128.01097,38.2393],[128.01328,38.23731],[128.01372,38.23387],[128.01304,38.23312],[128.01225,38.23246],[128.01102,38.23183],[128.01085,38.23121],[128.00971,38.23065],[128.00921,38.22995],[128.00885,38.22917],[128.00935,38.22837],[128.00934,38.22644],[128.00963,38.22514],[128.00873,38.22435],[128.00805,38.22335],[128.00832,38.22301],[128.00855,38.22238],[128.00953,38.22186],[128.01059,38.22161],[128.0121,38.22106],[128.01336,38.21979],[128.01398,38.2195],[128.01467,38.21864],[128.01583,38.21794],[128.01682,38.21704],[128.01666,38.2168],[128.01525,38.21573],[128.01487,38.21448],[128.01464,38.21417],[128.01479,38.21335],[128.01362,38.21155],[128.01399,38.2106],[128.01399,38.21007],[128.01373,38.2095],[128.0129,38.20838],[128.01288,38.20783],[128.0125,38.20752],[128.01314,38.2068],[128.0132,38.20647],[128.013,38.20582],[128.01246,38.20474],[128.01204,38.20461],[128.01172,38.20407],[128.01079,38.20348],[128.01083,38.2033],[128.00976,38.20173],[128.00788,38.19979],[128.00871,38.19876],[128.00856,38.19786],[128.01094,38.19714],[128.01208,38.19665],[128.01263,38.19618],[128.01321,38.19606],[128.01469,38.19491],[128.01502,38.19458],[128.01507,38.19422],[128.01577,38.19381],[128.01601,38.19345],[128.01636,38.19334],[128.01722,38.1933],[128.0172,38.19299],[128.01795,38.19252],[128.01807,38.19227],[128.01783,38.19207],[128.01764,38.19153],[128.0178,38.19115],[128.01804,38.19106],[128.01791,38.19066],[128.01823,38.19035],[128.01854,38.18966],[128.01871,38.18949],[128.01957,38.18908],[128.01963,38.18894],[128.0202,38.18875],[128.0204,38.18854],[128.02078,38.18845],[128.02108,38.18808],[128.02108,38.18747],[128.021,38.18708],[128.02075,38.18677],[128.02049,38.18615],[128.02124,38.18517],[128.02136,38.1849],[128.02179,38.18474],[128.02241,38.18482],[128.02273,38.18462],[128.02238,38.18409],[128.02242,38.18384],[128.02223,38.18348],[128.02226,38.18328],[128.02176,38.18289],[128.02183,38.18203],[128.02237,38.18142],[128.02235,38.18096],[128.02243,38.18011],[128.02236,38.17935],[128.02286,38.17915],[128.02346,38.17903],[128.02349,38.17887],[128.02311,38.17867],[128.02309,38.17803],[128.02321,38.1775],[128.02314,38.17728],[128.02352,38.17696],[128.02388,38.17636],[128.02408,38.17578],[128.02413,38.17525],[128.02376,38.1749],[128.02394,38.17423],[128.02426,38.17393],[128.02453,38.17348],[128.02402,38.17314],[128.02376,38.17309],[128.02353,38.17279],[128.02319,38.17256],[128.02298,38.17259],[128.02229,38.17229],[128.02252,38.17153],[128.02277,38.1711],[128.02276,38.17078],[128.02255,38.17064],[128.02291,38.16979],[128.0232,38.16963],[128.02312,38.16922],[128.02333,38.16886],[128.02341,38.16838],[128.02389,38.16824],[128.02417,38.16751],[128.02457,38.16703],[128.02554,38.16726],[128.02632,38.16735],[128.02653,38.16685],[128.02648,38.16494],[128.02633,38.16435],[128.02659,38.16415],[128.02702,38.16399],[128.02734,38.16359],[128.02764,38.16351],[128.02819,38.16321],[128.02839,38.16257],[128.02834,38.1624],[128.02783,38.16187],[128.02772,38.16124],[128.02883,38.1603],[128.02876,38.15923],[128.02895,38.15893],[128.02871,38.15826],[128.02886,38.15729],[128.02876,38.15719],[128.02901,38.15675],[128.02959,38.15697],[128.03072,38.15728],[128.0312,38.15716],[128.03182,38.15736],[128.03207,38.15771],[128.03199,38.15819],[128.03283,38.15894],[128.03346,38.15934],[128.03348,38.15971],[128.03363,38.16004],[128.03434,38.1607],[128.03432,38.16093],[128.03485,38.16151],[128.03592,38.16167],[128.03618,38.16214],[128.03646,38.16229],[128.03733,38.16195],[128.03774,38.16208],[128.03808,38.16242],[128.03859,38.16272],[128.03888,38.16253],[128.03946,38.16239],[128.03986,38.16245],[128.04028,38.16206],[128.04067,38.16193],[128.04114,38.16196],[128.04199,38.1618],[128.04253,38.16204],[128.04304,38.1618],[128.04348,38.16177],[128.04422,38.16205],[128.04421,38.16233],[128.04468,38.16268],[128.04459,38.16341],[128.04452,38.1636],[128.04552,38.16376],[128.04558,38.16355],[128.04646,38.16391],[128.04657,38.16453],[128.04689,38.16485],[128.04726,38.16476],[128.04742,38.16457],[128.04791,38.16462],[128.04825,38.16475],[128.04836,38.16498],[128.04861,38.1649],[128.04934,38.16489],[128.04976,38.16464],[128.05012,38.16471],[128.05111,38.16452],[128.05159,38.16477],[128.05195,38.16486],[128.05313,38.16461],[128.05366,38.16402],[128.05367,38.16391],[128.05451,38.16356],[128.05476,38.16317],[128.05527,38.16296],[128.05541,38.16312],[128.05584,38.16306],[128.05625,38.1631],[128.05641,38.16299],[128.05687,38.16342],[128.05804,38.16344],[128.05899,38.16388],[128.05958,38.16458],[128.05988,38.16459],[128.06053,38.16483],[128.06121,38.16422],[128.06154,38.16423],[128.06195,38.16398],[128.06267,38.16394],[128.06321,38.16365],[128.06378,38.16347],[128.06476,38.16362],[128.06562,38.1639],[128.06624,38.16422],[128.06694,38.16417],[128.068,38.16433],[128.06864,38.16425],[128.06948,38.16457],[128.07095,38.16494],[128.0713,38.16594],[128.07225,38.16771],[128.07576,38.16896],[128.07729,38.17152],[128.0814,38.1727],[128.08209,38.17474],[128.08522,38.17576],[128.08876,38.17697],[128.09235,38.17966],[128.09333,38.18063],[128.09337,38.18087],[128.09412,38.18235],[128.09544,38.18354],[128.09596,38.18542],[128.09639,38.18629],[128.09816,38.188],[128.09993,38.18908],[128.0992,38.19181],[128.099,38.1923],[128.09985,38.19252],[128.10035,38.19318],[128.10165,38.19373],[128.10188,38.19461],[128.10265,38.19586],[128.10391,38.19602],[128.10476,38.19677],[128.1054,38.19749],[128.1057,38.19811],[128.10606,38.19872],[128.10598,38.19952],[128.10615,38.20008],[128.10684,38.20063],[128.10715,38.20126],[128.10903,38.20157],[128.11005,38.20145],[128.11104,38.20207],[128.11157,38.20268],[128.11194,38.20293],[128.11236,38.20339],[128.11326,38.20344],[128.11487,38.20512],[128.11491,38.20655],[128.11558,38.20671],[128.11607,38.20727],[128.11653,38.20757],[128.11704,38.20837],[128.117,38.20877],[128.11714,38.20888],[128.11792,38.20914],[128.11813,38.20941],[128.11838,38.21025],[128.11863,38.21063],[128.11858,38.21125],[128.11962,38.21191],[128.11988,38.21231],[128.12053,38.21258],[128.12144,38.21343],[128.12144,38.21365],[128.12146,38.2141],[128.12122,38.21488],[128.12095,38.2154],[128.11986,38.21611],[128.1191,38.217],[128.11827,38.21726],[128.11761,38.21792],[128.11724,38.21819],[128.11713,38.21853],[128.1172,38.21934],[128.11685,38.22021],[128.11708,38.22091],[128.11706,38.22165],[128.1167,38.22236],[128.1167,38.22301],[128.11699,38.22341],[128.11669,38.22505]]]},"properties":{"code":"32580320","name":"동면"}},{"type":"Feature","geometry":{"type":"Polygon","coordinates":[[[128.00256,38.27551],[128.00179,38.27661],[128.00109,38.27705],[128.00096,38.27738],[128.00001,38.27803],[127.99947,38.27777],[127.99619,38.27839],[127.99453,38.27843],[127.99246,38.27877],[127.99176,38.27875],[127.98893,38.27732],[127.98969,38.27605],[127.98975,38.27538],[127.98934,38.27539],[127.98906,38.27495],[127.98788,38.27412],[127.98701,38.27383],[127.9858,38.27348],[127.98549,38.27393],[127.98514,38.27456],[127.98434,38.27562],[127.98405,38.27623],[127.98369,38.27673],[127.98337,38.27697],[127.98272,38.27719],[127.98255,38.27746],[127.98258,38.27812],[127.98269,38.27877],[127.98289,38.27935],[127.9827,38.28026],[127.98247,38.28064],[127.98186,38.281],[127.98103,38.28137],[127.98066,38.28176],[127.98044,38.28209],[127.9803,38.2827],[127.9804,38.28297],[127.98019,38.2835],[127.97952,38.28358],[127.9783,38.28392],[127.9779,38.28437],[127.97726,38.28491],[127.97655,38.28617],[127.97639,38.28668],[127.97651,38.28694],[127.97646,38.28737],[127.97626,38.28746],[127.97553,38.28731],[127.97496,38.28737],[127.97429,38.28835],[127.97308,38.28912],[127.97273,38.28951],[127.97224,38.28991],[127.97205,38.28994],[127.97141,38.2897],[127.97093,38.28969],[127.97055,38.29],[127.96991,38.29039],[127.9694,38.29079],[127.96906,38.2908],[127.9687,38.29171],[127.96867,38.29215],[127.96692,38.29308],[127.96506,38.29348],[127.96314,38.29364],[127.96255,38.29455],[127.96181,38.29629],[127.96065,38.29799],[127.95934,38.29901],[127.95822,38.30022],[127.95617,38.30029],[127.9547,38.30123],[127.95159,38.30217],[127.95024,38.303],[127.94874,38.30441],[127.94702,38.30483],[127.94515,38.3051],[127.94398,38.306],[127.94223,38.30638],[127.93967,38.30626],[127.93758,38.30634],[127.93509,38.30591],[127.93398,38.30596],[127.93155,38.30639],[127.9298,38.30699],[127.92834,38.30797],[127.92679,38.30938],[127.9252,38.30936],[127.9222,38.30975],[127.92097,38.30972],[127.91978,38.30932],[127.91869,38.30875],[127.91773,38.30913],[127.91491,38.31075],[127.91412,38.31082],[127.91275,38.31041],[127.91125,38.31047],[127.90913,38.31086],[127.90765,38.31096],[127.90578,38.31006],[127.90398,38.30973],[127.90209,38.3111],[127.90044,38.31161],[127.89712,38.31278],[127.89491,38.31291],[127.89341,38.31181],[127.89193,38.30951],[127.88847,38.30877],[127.88703,38.30582],[127.88506,38.30414],[127.88308,38.30316],[127.88189,38.30192],[127.8806,38.3002],[127.87876,38.29831],[127.8774,38.29645],[127.87644,38.29442],[127.87594,38.29322],[127.87517,38.29212],[127.87306,38.29025],[127.87087,38.28889],[127.86837,38.28837],[127.86699,38.28797],[127.86571,38.28721],[127.8643,38.28589],[127.86327,38.28467],[127.86263,38.28324],[127.86334,38.28256],[127.86319,38.28176],[127.86235,38.28089],[127.8624,38.28021],[127.86315,38.27974],[127.86337,38.27888],[127.8638,38.27797],[127.8638,38.27666],[127.86288,38.27549],[127.86139,38.27449],[127.86039,38.2734],[127.8601,38.2728],[127.86002,38.27183],[127.85971,38.27066],[127.85915,38.26832],[127.85873,38.2674],[127.85908,38.26677],[127.85955,38.26618],[127.8595,38.26518],[127.85854,38.26341],[127.85588,38.26135],[127.85388,38.25901],[127.8534,38.25806],[127.85331,38.25706],[127.8535,38.25652],[127.85394,38.25618],[127.85408,38.25557],[127.8548,38.25491],[127.85529,38.25434],[127.85538,38.254],[127.85515,38.25354],[127.85528,38.25267],[127.85437,38.25205],[127.85412,38.25112],[127.85407,38.2495],[127.85383,38.24874],[127.85395,38.24785],[127.85402,38.24686],[127.85376,38.24629],[127.85384,38.24569],[127.85483,38.24533],[127.85564,38.24499],[127.85611,38.245],[127.85608,38.24457],[127.85646,38.2432],[127.85709,38.24195],[127.85773,38.24053],[127.85797,38.23961],[127.85802,38.23882],[127.85819,38.23812],[127.85819,38.23758],[127.85801,38.237],[127.85799,38.23608],[127.85815,38.23521],[127.85807,38.23412],[127.85698,38.23319],[127.85623,38.23239],[127.85477,38.23133],[127.85393,38.23102],[127.8532,38.23066],[127.85266,38.23006],[127.85252,38.22932],[127.85246,38.22852],[127.85231,38.22776],[127.85207,38.22688],[127.8521,38.22499],[127.85196,38.22401],[127.85189,38.22277],[127.85177,38.22164],[127.85192,38.22044],[127.85211,38.21989],[127.85176,38.21837],[127.85213,38.2176],[127.85218,38.21703],[127.85338,38.21542],[127.85398,38.21477],[127.85434,38.21378],[127.85314,38.21265],[127.8526,38.21201],[127.85222,38.21101],[127.85186,38.20973],[127.85175,38.2089],[127.85253,38.20842],[127.85283,38.20776],[127.85325,38.20715],[127.85325,38.20677],[127.85568,38.20648],[127.85639,38.20629],[127.85674,38.20601],[127.85681,38.2053],[127.85698,38.20482],[127.85787,38.20411],[127.85856,38.20333],[127.8596,38.20322],[127.86055,38.20339],[127.86215,38.20384],[127.86283,38.20414],[127.86338,38.20432],[127.86535,38.20454],[127.86605,38.20472],[127.86649,38.20501],[127.86725,38.20524],[127.86764,38.20519],[127.86826,38.20476],[127.8694,38.20382],[127.87016,38.20331],[127.87131,38.20237],[127.87184,38.20209],[127.87216,38.20143],[127.87324,38.20079],[127.87414,38.20044],[127.87552,38.19984],[127.87775,38.19811],[127.87816,38.19767],[127.87824,38.19694],[127.87817,38.19668],[127.87739,38.19581],[127.87668,38.1948],[127.87648,38.19298],[127.8753,38.19124],[127.87557,38.19007],[127.87574,38.18828],[127.87741,38.1862],[127.87766,38.1848],[127.87758,38.18348],[127.8773,38.18156],[127.87857,38.17963],[127.87943,38.17789],[127.87897,38.17676],[127.87906,38.17418],[127.87947,38.1728],[127.88104,38.17053],[127.88245,38.16931],[127.88444,38.16841],[127.88674,38.16724],[127.88897,38.16769],[127.89076,38.16728],[127.89246,38.16767],[127.89371,38.16857],[127.89524,38.16958],[127.89636,38.17055],[127.89762,38.17173],[127.89843,38.17283],[127.89905,38.17252],[127.89964,38.17241],[127.90053,38.17184],[127.90021,38.17172],[127.8999,38.17182],[127.89982,38.17158],[127.89999,38.17145],[127.89979,38.17124],[127.90012,38.171],[127.89965,38.17014],[127.89915,38.1695],[127.89878,38.16866],[127.89881,38.16793],[127.89897,38.16733],[127.89986,38.16621],[127.90065,38.1665],[127.90148,38.16578],[127.90215,38.16562],[127.90202,38.16591],[127.90229,38.16645],[127.90317,38.16757],[127.90378,38.16784],[127.90418,38.16831],[127.90489,38.16855],[127.90544,38.16881],[127.90624,38.16897],[127.90666,38.16929],[127.90723,38.16955],[127.9077,38.16928],[127.9083,38.16936],[127.90949,38.1699],[127.9098,38.16964],[127.91015,38.16947],[127.91075,38.16959],[127.91104,38.16956],[127.91168,38.16978],[127.91259,38.17028],[127.91377,38.17097],[127.91505,38.17065],[127.91534,38.17025],[127.91585,38.17002],[127.91609,38.17005],[127.91669,38.17042],[127.91675,38.17081],[127.91724,38.17133],[127.9179,38.17171],[127.91912,38.17302],[127.91948,38.17337],[127.92018,38.17377],[127.92039,38.1751],[127.92074,38.17528],[127.92072,38.1758],[127.92104,38.17643],[127.92117,38.17641],[127.92217,38.17596],[127.92371,38.17591],[127.92411,38.17614],[127.92516,38.17622],[127.92648,38.17708],[127.92805,38.17763],[127.92936,38.17724],[127.93087,38.17653],[127.93235,38.17602],[127.93315,38.17538],[127.93404,38.17479],[127.93663,38.17483],[127.93882,38.17484],[127.94032,38.1749],[127.9418,38.17515],[127.9439,38.1753],[127.94472,38.17392],[127.94599,38.1733],[127.94778,38.17279],[127.94877,38.17155],[127.95014,38.17074],[127.95021,38.17067],[127.95149,38.17092],[127.95202,38.17123],[127.95272,38.17117],[127.95347,38.17171],[127.95437,38.17138],[127.95522,38.17133],[127.95586,38.17117],[127.95667,38.17129],[127.95725,38.17113],[127.95774,38.17079],[127.95862,38.17074],[127.95911,38.17059],[127.95949,38.17015],[127.95997,38.17005],[127.96077,38.17003],[127.96142,38.16973],[127.96251,38.17017],[127.96367,38.17025],[127.96429,38.17017],[127.96488,38.17042],[127.96554,38.17059],[127.96582,38.17088],[127.96659,38.17116],[127.96713,38.17147],[127.96718,38.17165],[127.96805,38.17212],[127.96838,38.1724],[127.96882,38.17258],[127.97028,38.17358],[127.97111,38.17425],[127.97232,38.17476],[127.97326,38.17512],[127.97443,38.17531],[127.97608,38.17637],[127.97683,38.17649],[127.97869,38.17717],[127.98048,38.17793],[127.9809,38.17856],[127.98115,38.17872],[127.98248,38.17883],[127.98357,38.17923],[127.98406,38.18002],[127.98356,38.18062],[127.98388,38.18171],[127.98342,38.18196],[127.98335,38.18294],[127.98239,38.18408],[127.9821,38.18516],[127.98195,38.18684],[127.98269,38.18816],[127.98284,38.18945],[127.98375,38.19113],[127.98336,38.19167],[127.98453,38.19237],[127.98624,38.19322],[127.98685,38.19392],[127.98803,38.19361],[127.98951,38.19376],[127.99044,38.19412],[127.99112,38.19482],[127.9919,38.19523],[127.99254,38.19607],[127.99349,38.19632],[127.99507,38.19763],[127.99622,38.19798],[127.99783,38.19731],[127.99966,38.19797],[128.00182,38.19969],[128.00255,38.19946],[128.0037,38.19965],[128.00788,38.19979],[128.00976,38.20173],[128.01083,38.2033],[128.01079,38.20348],[128.01172,38.20407],[128.01204,38.20461],[128.01246,38.20474],[128.013,38.20582],[128.0132,38.20647],[128.01314,38.2068],[128.0125,38.20752],[128.01288,38.20783],[128.0129,38.20838],[128.01373,38.2095],[128.01399,38.21007],[128.01399,38.2106],[128.01362,38.21155],[128.01479,38.21335],[128.01464,38.21417],[128.01487,38.21448],[128.01525,38.21573],[128.01666,38.2168],[128.01682,38.21704],[128.01583,38.21794],[128.01467,38.21864],[128.01398,38.2195],[128.01336,38.21979],[128.0121,38.22106],[128.01059,38.22161],[128.00953,38.22186],[128.00855,38.22238],[128.00832,38.22301],[128.00805,38.22335],[128.00873,38.22435],[128.00963,38.22514],[128.00934,38.22644],[128.00935,38.22837],[128.00885,38.22917],[128.00921,38.22995],[128.00971,38.23065],[128.01085,38.23121],[128.01102,38.23183],[128.01225,38.23246],[128.01304,38.23312],[128.01372,38.23387],[128.01328,38.23731],[128.01097,38.2393],[128.01023,38.24017],[128.00966,38.24147],[128.00986,38.24263],[128.00955,38.24366],[128.00989,38.24504],[128.01061,38.24592],[128.01099,38.24728],[128.0102,38.24775],[128.00951,38.24891],[128.00942,38.24954],[128.01046,38.25048],[128.01049,38.25137],[128.01072,38.25249],[128.01076,38.25354],[128.01027,38.25424],[128.0089,38.25508],[128.00835,38.25633],[128.00795,38.25787],[128.0086,38.25918],[128.00886,38.2609],[128.00901,38.26349],[128.0083,38.2654],[128.00734,38.26726],[128.00597,38.26913],[128.00579,38.27046],[128.0055,38.27081],[128.0036,38.27207],[128.00316,38.27306],[128.00203,38.27517],[128.00256,38.27551]]]},"properties":{"code":"32580330","name":"방산면"}},{"type":"Feature","geometry":{"type":"Polygon","coordinates":[[[128.11669,38.22505],[128.11768,38.22555],[128.11855,38.22575],[128.11863,38.22621],[128.11887,38.22668],[128.11913,38.22698],[128.11925,38.22764],[128.11911,38.22785],[128.11898,38.22884],[128.11902,38.22939],[128.11945,38.23003],[128.1195,38.2303],[128.1198,38.23063],[128.12002,38.23112],[128.12002,38.23155],[128.11991,38.23215],[128.11992,38.23291],[128.12046,38.23327],[128.12067,38.23332],[128.12096,38.23369],[128.12155,38.23406],[128.12246,38.23446],[128.12319,38.23533],[128.12341,38.23616],[128.1247,38.23735],[128.1249,38.23788],[128.12498,38.23846],[128.12479,38.23864],[128.12478,38.23895],[128.12441,38.23945],[128.12425,38.24089],[128.12485,38.24135],[128.12594,38.2416],[128.12696,38.24238],[128.12851,38.2429],[128.12882,38.24336],[128.1296,38.24389],[128.13021,38.24375],[128.13135,38.2439],[128.13236,38.24378],[128.13376,38.24409],[128.13583,38.24436],[128.13608,38.24499],[128.13672,38.24556],[128.13699,38.24663],[128.13743,38.24685],[128.13812,38.24741],[128.1386,38.24738],[128.13938,38.24778],[128.13997,38.2483],[128.14108,38.24853],[128.14136,38.24855],[128.14269,38.24893],[128.14306,38.24921],[128.14464,38.24951],[128.14548,38.25014],[128.1458,38.25081],[128.14566,38.25104],[128.14585,38.25165],[128.14627,38.25234],[128.14668,38.25378],[128.14691,38.25404],[128.14754,38.25416],[128.14831,38.25418],[128.14868,38.25459],[128.14911,38.25477],[128.15021,38.25535],[128.15096,38.25582],[128.15169,38.25612],[128.15229,38.25618],[128.15393,38.25606],[128.15446,38.25637],[128.15531,38.25649],[128.15557,38.25684],[128.15582,38.257],[128.15632,38.2578],[128.15639,38.2584],[128.15658,38.25859],[128.15752,38.25842],[128.15811,38.25867],[128.1588,38.25977],[128.15949,38.26108],[128.1607,38.26157],[128.16103,38.26199],[128.16044,38.2629],[128.1597,38.26341],[128.15978,38.26413],[128.15966,38.26435],[128.15979,38.26535],[128.15923,38.26687],[128.15962,38.26771],[128.15978,38.26779],[128.16006,38.2689],[128.16066,38.26893],[128.16117,38.26921],[128.16154,38.26957],[128.16225,38.27],[128.1626,38.27045],[128.16298,38.27084],[128.16329,38.27105],[128.16323,38.27153],[128.16363,38.27175],[128.16394,38.27257],[128.16436,38.27294],[128.16427,38.27344],[128.16449,38.27399],[128.16446,38.27437],[128.16462,38.27504],[128.16521,38.27518],[128.16561,38.27558],[128.1658,38.27602],[128.16627,38.27621],[128.16693,38.27695],[128.16763,38.2771],[128.16871,38.2784],[128.16873,38.27935],[128.16902,38.28009],[128.16941,38.28029],[128.17008,38.28039],[128.17044,38.28029],[128.1713,38.28044],[128.17157,38.28091],[128.17239,38.28144],[128.17176,38.28237],[128.1711,38.28365],[128.17083,38.2839],[128.17069,38.28438],[128.17076,38.28466],[128.17055,38.28486],[128.17046,38.28514],[128.16981,38.28604],[128.16956,38.28667],[128.16971,38.2872],[128.16962,38.28763],[128.16929,38.28828],[128.16825,38.28892],[128.16842,38.28973],[128.16837,38.29013],[128.16868,38.2911],[128.16854,38.29162],[128.16827,38.29189],[128.16827,38.29235],[128.16864,38.29285],[128.16905,38.29329],[128.16953,38.29367],[128.16974,38.29428],[128.16975,38.29478],[128.16988,38.29519],[128.16966,38.29559],[128.16962,38.2959],[128.17012,38.29648],[128.17019,38.29684],[128.17045,38.29725],[128.17052,38.29752],[128.17094,38.29827],[128.17097,38.29874],[128.17133,38.29971],[128.17124,38.29993],[128.17072,38.30038],[128.17042,38.30052],[128.17034,38.30103],[128.17,38.30136],[128.16933,38.30174],[128.16904,38.30178],[128.16779,38.30236],[128.16783,38.30283],[128.16778,38.30375],[128.16788,38.30497],[128.16812,38.30533],[128.16816,38.30568],[128.16834,38.30606],[128.16901,38.30644],[128.16878,38.30683],[128.16894,38.30726],[128.16864,38.3077],[128.16868,38.30831],[128.16849,38.30869],[128.16854,38.30931],[128.16867,38.30969],[128.16815,38.31],[128.16825,38.31069],[128.16821,38.31119],[128.16839,38.31173],[128.16881,38.31238],[128.16957,38.31253],[128.16976,38.31268],[128.16977,38.31354],[128.17043,38.31446],[128.17068,38.31565],[128.17066,38.31573],[128.16962,38.31639],[128.16951,38.31683],[128.16905,38.31703],[128.16772,38.31746],[128.16673,38.31876],[128.16654,38.31875],[128.16596,38.31977],[128.16543,38.32001],[128.16491,38.32061],[128.1641,38.3209],[128.16323,38.32095],[128.16278,38.32063],[128.16188,38.32079],[128.16015,38.32236],[128.15924,38.323],[128.15893,38.3236],[128.15899,38.32443],[128.15853,38.32586],[128.15803,38.32658],[128.15738,38.32716],[128.1568,38.32828],[128.1558,38.32855],[128.1549,38.32933],[128.15471,38.32919],[128.15315,38.32864],[128.15314,38.32819],[128.15276,38.3278],[128.1516,38.32703],[128.1513,38.32591],[128.15103,38.3257],[128.15008,38.3256],[128.14953,38.32567],[128.1489,38.32591],[128.14788,38.32703],[128.14741,38.32654],[128.14672,38.32613],[128.14625,38.32572],[128.14592,38.32524],[128.14519,38.32485],[128.14466,38.32446],[128.14399,38.3247],[128.14351,38.3252],[128.14253,38.32462],[128.14153,38.32431],[128.14107,38.32432],[128.14057,38.32459],[128.13986,38.3247],[128.13879,38.32518],[128.13787,38.32522],[128.13711,38.32498],[128.13681,38.32501],[128.13619,38.3253],[128.13457,38.32552],[128.13365,38.32621],[128.13299,38.32627],[128.13256,38.32669],[128.13153,38.32715],[128.13126,38.3272],[128.13007,38.32753],[128.1285,38.3283],[128.12785,38.32848],[128.12731,38.3282],[128.12647,38.32793],[128.12532,38.32764],[128.12495,38.32724],[128.12435,38.32693],[128.12347,38.32632],[128.12282,38.32609],[128.12174,38.32607],[128.12044,38.32648],[128.11937,38.32702],[128.11846,38.32661],[128.11788,38.32659],[128.11683,38.32712],[128.11631,38.32698],[128.11587,38.32696],[128.11547,38.32707],[128.11482,38.3275],[128.11364,38.32756],[128.11299,38.3277],[128.11233,38.32732],[128.11202,38.32688],[128.11129,38.32677],[128.1108,38.32616],[128.11037,38.32591],[128.1094,38.32564],[128.10862,38.32532],[128.10745,38.32408],[128.1066,38.32389],[128.10584,38.3235],[128.10541,38.32304],[128.10485,38.32267],[128.10447,38.3223],[128.10346,38.32193],[128.10312,38.32148],[128.10174,38.32049],[128.09996,38.32035],[128.09902,38.31965],[128.09812,38.31933],[128.09708,38.31842],[128.09632,38.31796],[128.09579,38.31782],[128.09481,38.31719],[128.09265,38.31496],[128.09218,38.31485],[128.09185,38.31457],[128.09063,38.31439],[128.09031,38.31422],[128.0885,38.31237],[128.08765,38.31118],[128.08604,38.30946],[128.0848,38.30726],[128.08462,38.3043],[128.08348,38.30142],[128.08241,38.2996],[128.08346,38.29724],[128.08493,38.29535],[128.08586,38.29287],[128.08593,38.29031],[128.08692,38.28892],[128.08736,38.28398],[128.08877,38.28229],[128.08723,38.28037],[128.08662,38.27904],[128.08622,38.27754],[128.08627,38.27526],[128.08611,38.27344],[128.08487,38.27001],[128.08534,38.26846],[128.08686,38.26659],[128.08678,38.26421],[128.08748,38.26094],[128.08845,38.25975],[128.08954,38.25813],[128.09115,38.2563],[128.09377,38.25484],[128.09422,38.25413],[128.09435,38.25322],[128.09646,38.25133],[128.09808,38.24945],[128.09817,38.24722],[128.09802,38.24457],[128.09797,38.24437],[128.09675,38.24296],[128.09583,38.24129],[128.09632,38.23973],[128.10095,38.23669],[128.10219,38.23417],[128.1042,38.23237],[128.10854,38.23025],[128.1102,38.22783],[128.11167,38.22674],[128.11359,38.2256],[128.11669,38.22505]]]},"properties":{"code":"32580340","name":"해안면"}},{"type":"Feature","geometry":{"type":"Polygon","coordinates":[[[128.10131,38.10289],[128.10105,38.10581],[128.1029,38.10743],[128.10495,38.10863],[128.10479,38.11159],[128.10406,38.11247],[128.10418,38.11412],[128.10411,38.11502],[128.10323,38.11602],[128.10151,38.11942],[128.10017,38.12005],[128.10018,38.12157],[128.09917,38.12329],[128.09814,38.12418],[128.09833,38.12503],[128.09822,38.12543],[128.09828,38.12662],[128.09878,38.12784],[128.09908,38.12889],[128.10004,38.12981],[128.09857,38.12997],[128.09689,38.13036],[128.09533,38.13035],[128.09351,38.13089],[128.09318,38.13224],[128.09249,38.13362],[128.09237,38.13527],[128.09179,38.13605],[128.09113,38.13632],[128.09038,38.13673],[128.08916,38.13746],[128.08831,38.13831],[128.08778,38.13846],[128.08793,38.13883],[128.08869,38.14013],[128.08921,38.14088],[128.09016,38.14179],[128.09019,38.143],[128.08957,38.14451],[128.08987,38.1466],[128.08976,38.14753],[128.08915,38.14921],[128.08825,38.15026],[128.08664,38.15086],[128.08641,38.15148],[128.08647,38.15184],[128.08635,38.15222],[128.08694,38.153],[128.08774,38.15335],[128.08848,38.15399],[128.08909,38.15474],[128.08986,38.15552],[128.09026,38.15653],[128.09082,38.15755],[128.09174,38.1582],[128.09315,38.15981],[128.09357,38.16015],[128.09443,38.16058],[128.0956,38.16074],[128.09629,38.16173],[128.09697,38.16262],[128.09711,38.16378],[128.0971,38.16469],[128.09675,38.16668],[128.09732,38.16765],[128.09738,38.16809],[128.09727,38.16866],[128.09705,38.16926],[128.09664,38.16968],[128.09681,38.17248],[128.09736,38.1746],[128.09762,38.17504],[128.09957,38.1761],[128.101,38.17635],[128.1021,38.17689],[128.10351,38.17719],[128.10387,38.17758],[128.1041,38.17826],[128.10405,38.17994],[128.1037,38.18122],[128.10374,38.1829],[128.10517,38.18441],[128.10548,38.18488],[128.10518,38.18539],[128.10412,38.18618],[128.10267,38.18696],[128.10157,38.18785],[128.09993,38.18908],[128.09816,38.188],[128.09639,38.18629],[128.09596,38.18542],[128.09544,38.18354],[128.09412,38.18235],[128.09337,38.18087],[128.09333,38.18063],[128.09235,38.17966],[128.08876,38.17697],[128.08522,38.17576],[128.08209,38.17474],[128.0814,38.1727],[128.07729,38.17152],[128.07576,38.16896],[128.07225,38.16771],[128.0713,38.16594],[128.07095,38.16494],[128.06948,38.16457],[128.06864,38.16425],[128.068,38.16433],[128.06694,38.16417],[128.06624,38.16422],[128.06562,38.1639],[128.06476,38.16362],[128.06378,38.16347],[128.06321,38.16365],[128.06267,38.16394],[128.06195,38.16398],[128.06154,38.16423],[128.06121,38.16422],[128.06053,38.16483],[128.05988,38.16459],[128.05958,38.16458],[128.05899,38.16388],[128.05804,38.16344],[128.05687,38.16342],[128.05641,38.16299],[128.05625,38.1631],[128.05584,38.16306],[128.05541,38.16312],[128.05527,38.16296],[128.05476,38.16317],[128.05451,38.16356],[128.05367,38.16391],[128.05366,38.16402],[128.05313,38.16461],[128.05195,38.16486],[128.05159,38.16477],[128.05111,38.16452],[128.05012,38.16471],[128.04976,38.16464],[128.04934,38.16489],[128.04861,38.1649],[128.04836,38.16498],[128.04825,38.16475],[128.04791,38.16462],[128.04742,38.16457],[128.04726,38.16476],[128.04689,38.16485],[128.04657,38.16453],[128.04646,38.16391],[128.04558,38.16355],[128.04552,38.16376],[128.04452,38.1636],[128.04459,38.16341],[128.04468,38.16268],[128.04421,38.16233],[128.04422,38.16205],[128.04348,38.16177],[128.04304,38.1618],[128.04253,38.16204],[128.04199,38.1618],[128.04114,38.16196],[128.04067,38.16193],[128.04028,38.16206],[128.03986,38.16245],[128.03946,38.16239],[128.03888,38.16253],[128.03859,38.16272],[128.03808,38.16242],[128.03774,38.16208],[128.03733,38.16195],[128.03646,38.16229],[128.03618,38.16214],[128.03592,38.16167],[128.03485,38.16151],[128.03432,38.16093],[128.03434,38.1607],[128.03363,38.16004],[128.03348,38.15971],[128.03346,38.15934],[128.03283,38.15894],[128.03199,38.15819],[128.03207,38.15771],[128.03182,38.15736],[128.0312,38.15716],[128.03072,38.15728],[128.02959,38.15697],[128.02901,38.15675],[128.02918,38.15647],[128.02936,38.15522],[128.02976,38.15498],[128.02957,38.15451],[128.02979,38.15416],[128.02969,38.15358],[128.02982,38.15345],[128.02967,38.15312],[128.02935,38.15168],[128.02963,38.15127],[128.02958,38.15089],[128.0294,38.15046],[128.02951,38.1502],[128.03022,38.14912],[128.03029,38.14842],[128.02997,38.14809],[128.02968,38.14742],[128.02997,38.1472],[128.03094,38.14669],[128.03133,38.14656],[128.03201,38.14613],[128.0321,38.14559],[128.03234,38.14511],[128.03233,38.14439],[128.03248,38.14356],[128.03304,38.14343],[128.03352,38.14267],[128.03403,38.14222],[128.0342,38.14153],[128.03473,38.14139],[128.03487,38.14069],[128.03509,38.14043],[128.03575,38.14],[128.03646,38.13961],[128.0373,38.13882],[128.03746,38.13826],[128.0373,38.13793],[128.03762,38.13743],[128.03788,38.1372],[128.03775,38.13644],[128.03823,38.13598],[128.03826,38.13559],[128.03845,38.1352],[128.03875,38.13492],[128.03885,38.13424],[128.03868,38.13411],[128.0382,38.13402],[128.03751,38.1337],[128.03739,38.13325],[128.03747,38.13279],[128.03729,38.13261],[128.0369,38.13276],[128.03611,38.13278],[128.03537,38.13252],[128.03481,38.13277],[128.03448,38.13263],[128.03399,38.13259],[128.03361,38.13227],[128.03317,38.13221],[128.03243,38.13178],[128.03234,38.13152],[128.03206,38.13121],[128.03193,38.13078],[128.03097,38.13036],[128.03023,38.13015],[128.02992,38.13],[128.02982,38.12976],[128.02992,38.12936],[128.02944,38.12888],[128.02971,38.12849],[128.02957,38.12745],[128.02917,38.12686],[128.02916,38.12664],[128.02883,38.12633],[128.02855,38.12576],[128.02825,38.12549],[128.02782,38.12542],[128.02761,38.12523],[128.02749,38.12486],[128.02692,38.12423],[128.0262,38.124],[128.02574,38.12418],[128.02524,38.12419],[128.02607,38.12347],[128.02659,38.12324],[128.02645,38.12269],[128.02628,38.12244],[128.02605,38.12237],[128.02585,38.1218],[128.0258,38.12099],[128.02589,38.12046],[128.02507,38.11983],[128.0243,38.11919],[128.02428,38.11851],[128.02388,38.11782],[128.02319,38.11786],[128.02252,38.11807],[128.02222,38.11798],[128.0209,38.11841],[128.0204,38.11828],[128.02018,38.11798],[128.01906,38.11729],[128.01903,38.1166],[128.01894,38.11614],[128.0186,38.11605],[128.01805,38.11488],[128.01721,38.11428],[128.0165,38.11414],[128.01517,38.11309],[128.01448,38.11264],[128.01411,38.1128],[128.01394,38.1127],[128.01351,38.11215],[128.01283,38.11158],[128.01239,38.11112],[128.01224,38.11106],[128.01171,38.11051],[128.01111,38.1103],[128.01064,38.10999],[128.01116,38.10923],[128.01138,38.10908],[128.01163,38.10871],[128.01174,38.1081],[128.0116,38.10768],[128.01205,38.1065],[128.01139,38.10585],[128.01138,38.10548],[128.01121,38.10533],[128.01146,38.10479],[128.01123,38.10452],[128.01069,38.10451],[128.01057,38.10414],[128.00992,38.10402],[128.0095,38.10429],[128.0087,38.10413],[128.00861,38.10382],[128.00874,38.10353],[128.00924,38.10318],[128.00946,38.10221],[128.00957,38.10155],[128.00941,38.10113],[128.00954,38.10084],[128.01028,38.10022],[128.01031,38.09978],[128.01062,38.09953],[128.01075,38.09904],[128.01056,38.09885],[128.01106,38.0983],[128.01083,38.09802],[128.01055,38.09732],[128.01074,38.09694],[128.01031,38.0966],[128.00988,38.09651],[128.00943,38.09616],[128.00863,38.09593],[128.00827,38.09577],[128.00833,38.095],[128.00871,38.09395],[128.00844,38.09383],[128.00812,38.09386],[128.00779,38.09371],[128.00706,38.09388],[128.00675,38.09364],[128.00637,38.09354],[128.00598,38.09357],[128.00492,38.09331],[128.00468,38.09248],[128.00486,38.09246],[128.00556,38.0911],[128.00557,38.09049],[128.00512,38.0901],[128.00504,38.08954],[128.0052,38.08779],[128.00382,38.08805],[128.00344,38.08804],[127.99971,38.08848],[127.99924,38.08847],[127.99818,38.08861],[127.99814,38.08748],[127.99805,38.08724],[127.99705,38.08744],[127.99674,38.08692],[127.99648,38.08635],[127.9958,38.08623],[127.99482,38.08632],[127.99408,38.08627],[127.99338,38.08628],[127.99323,38.08638],[127.99231,38.08652],[127.99173,38.08703],[127.99116,38.08714],[127.99144,38.08676],[127.99152,38.08581],[127.99205,38.085],[127.99234,38.08472],[127.99267,38.08459],[127.9931,38.08399],[127.99299,38.08343],[127.99314,38.08278],[127.99346,38.08251],[127.99343,38.08184],[127.99332,38.08145],[127.99304,38.08089],[127.99237,38.08049],[127.99139,38.08005],[127.99105,38.07977],[127.99092,38.07921],[127.99101,38.07846],[127.99096,38.07799],[127.99093,38.07644],[127.99113,38.07419],[127.99158,38.07336],[127.99151,38.07319],[127.99092,38.07244],[127.99065,38.07194],[127.99049,38.07098],[127.99048,38.07048],[127.99061,38.06904],[127.9907,38.06866],[127.99121,38.06775],[127.99115,38.06741],[127.99091,38.06669],[127.99033,38.06612],[127.9901,38.06607],[127.98937,38.06573],[127.98914,38.06556],[127.98861,38.06481],[127.988,38.06324],[127.98766,38.06264],[127.98737,38.06246],[127.98718,38.06214],[127.98633,38.06163],[127.98576,38.06153],[127.9855,38.06132],[127.98526,38.06089],[127.98466,38.06047],[127.98406,38.05988],[127.98392,38.05947],[127.98402,38.05929],[127.98396,38.05895],[127.98409,38.05865],[127.98352,38.05838],[127.98369,38.05774],[127.98362,38.05736],[127.98359,38.0566],[127.98275,38.0561],[127.98279,38.05555],[127.98291,38.05538],[127.98289,38.05477],[127.98243,38.05449],[127.98201,38.05434],[127.98222,38.05383],[127.98226,38.05346],[127.98187,38.05337],[127.98161,38.05343],[127.98132,38.05332],[127.9808,38.05333],[127.98052,38.05277],[127.98052,38.05244],[127.9804,38.05216],[127.98054,38.05189],[127.98053,38.05134],[127.98038,38.05093],[127.98027,38.05008],[127.97992,38.0498],[127.9799,38.04955],[127.97951,38.0487],[127.97911,38.04855],[127.9788,38.04856],[127.97886,38.04798],[127.97904,38.04763],[127.97942,38.04714],[127.97945,38.04684],[127.97974,38.04668],[127.97995,38.04636],[127.9796,38.04627],[127.9794,38.04589],[127.97967,38.04567],[127.97944,38.04411],[127.97926,38.04363],[127.97968,38.04257],[127.97986,38.04229],[127.97984,38.04153],[127.97993,38.04089],[127.98023,38.04019],[127.98031,38.0395],[127.98058,38.03911],[127.98053,38.03878],[127.98024,38.03822],[127.97928,38.03832],[127.9783,38.03798],[127.97747,38.03785],[127.97708,38.03715],[127.97752,38.03684],[127.97802,38.03674],[127.97863,38.03583],[127.97935,38.03489],[127.98113,38.02979],[127.98161,38.02862],[127.9815,38.02836],[127.98298,38.02788],[127.98543,38.02686],[127.98686,38.02551],[127.98755,38.02404],[127.98757,38.02264],[127.98713,38.0201],[127.98583,38.01774],[127.98397,38.01452],[127.98366,38.01224],[127.98382,38.0103],[127.98478,38.00826],[127.98569,38.0072],[127.98817,38.00502],[127.98938,38.0038],[127.9911,38.00265],[127.99333,38.00162],[127.99579,38.00174],[127.99797,38.00273],[128.00065,38.00528],[128.00329,38.00914],[128.00494,38.01188],[128.00591,38.01374],[128.00774,38.01574],[128.00951,38.01694],[128.01296,38.01901],[128.01432,38.01932],[128.01663,38.01952],[128.01954,38.01952],[128.02143,38.01975],[128.02333,38.01979],[128.02494,38.01953],[128.02667,38.0178],[128.02826,38.01609],[128.02878,38.01536],[128.02961,38.01465],[128.03027,38.01416],[128.03083,38.01398],[128.03242,38.01419],[128.03314,38.01435],[128.03475,38.01498],[128.03598,38.01561],[128.03761,38.01666],[128.03982,38.01817],[128.04064,38.01867],[128.04184,38.01928],[128.04325,38.02006],[128.04406,38.02024],[128.04512,38.02032],[128.04714,38.01998],[128.04838,38.01877],[128.04964,38.01939],[128.05036,38.01917],[128.05154,38.01859],[128.05181,38.01842],[128.05287,38.01825],[128.05418,38.01724],[128.05421,38.0171],[128.05457,38.0168],[128.05458,38.01644],[128.05484,38.0162],[128.05546,38.01533],[128.05617,38.01533],[128.0579,38.01496],[128.05972,38.01512],[128.06046,38.01483],[128.0604,38.01509],[128.06123,38.01638],[128.06133,38.01671],[128.0615,38.01683],[128.06149,38.01716],[128.06136,38.01742],[128.06155,38.01777],[128.06157,38.01818],[128.06184,38.01865],[128.0619,38.01894],[128.06159,38.01926],[128.06151,38.02004],[128.06117,38.02035],[128.0606,38.0211],[128.06032,38.02156],[128.06009,38.02215],[128.06034,38.0229],[128.06023,38.02344],[128.06026,38.02384],[128.06046,38.02421],[128.06035,38.02441],[128.05985,38.02495],[128.05958,38.02537],[128.05928,38.02621],[128.05952,38.02687],[128.05924,38.02732],[128.05912,38.02792],[128.05741,38.02946],[128.057,38.02964],[128.05687,38.02989],[128.05649,38.03029],[128.05656,38.03057],[128.05638,38.03109],[128.05675,38.03163],[128.0566,38.03234],[128.0571,38.03297],[128.05751,38.03325],[128.05759,38.03371],[128.05782,38.03386],[128.05855,38.03469],[128.05874,38.03507],[128.05898,38.03533],[128.05892,38.03651],[128.05832,38.03709],[128.05827,38.0375],[128.05815,38.03767],[128.05818,38.03835],[128.05788,38.03942],[128.05792,38.03973],[128.05842,38.03994],[128.05898,38.04006],[128.05923,38.04072],[128.05956,38.04082],[128.06002,38.04127],[128.05997,38.04251],[128.06018,38.04262],[128.06104,38.04434],[128.06095,38.04471],[128.06064,38.04506],[128.06032,38.04589],[128.06094,38.04727],[128.06155,38.04719],[128.06216,38.0473],[128.06251,38.04706],[128.06386,38.04675],[128.06519,38.04698],[128.06649,38.04696],[128.067,38.04684],[128.06776,38.04675],[128.06846,38.04695],[128.0691,38.04677],[128.06912,38.04622],[128.06881,38.04572],[128.06991,38.04429],[128.07007,38.04365],[128.07093,38.04309],[128.0712,38.04272],[128.07218,38.04231],[128.07246,38.04192],[128.07296,38.04161],[128.07364,38.04107],[128.07387,38.04066],[128.07422,38.04035],[128.0748,38.04015],[128.07538,38.03986],[128.0756,38.03966],[128.07666,38.03966],[128.07762,38.03934],[128.07816,38.03872],[128.07858,38.03837],[128.07904,38.03809],[128.07947,38.03754],[128.07953,38.03731],[128.0801,38.03667],[128.08027,38.03555],[128.0804,38.03539],[128.08041,38.0342],[128.08129,38.03389],[128.08155,38.03397],[128.08191,38.03358],[128.08232,38.0333],[128.08287,38.03326],[128.08344,38.03292],[128.08462,38.03272],[128.08484,38.0325],[128.08573,38.03236],[128.08617,38.03247],[128.08663,38.03243],[128.08777,38.0332],[128.08825,38.03326],[128.08864,38.03314],[128.08951,38.03267],[128.09024,38.03213],[128.09031,38.03171],[128.09137,38.03082],[128.09183,38.03011],[128.09183,38.02975],[128.09313,38.02942],[128.09414,38.02889],[128.09422,38.02859],[128.09451,38.02837],[128.09637,38.02837],[128.0966,38.0287],[128.09687,38.0289],[128.09816,38.02908],[128.09876,38.02939],[128.10033,38.02938],[128.1032,38.02933],[128.10442,38.02994],[128.10474,38.03026],[128.10515,38.03035],[128.1057,38.03085],[128.10646,38.03142],[128.10736,38.03285],[128.10951,38.03371],[128.11051,38.03466],[128.11093,38.03486],[128.11119,38.03512],[128.11185,38.03518],[128.11235,38.03542],[128.11282,38.0363],[128.11373,38.03702],[128.11334,38.03917],[128.11275,38.03999],[128.11304,38.04128],[128.11276,38.04145],[128.11273,38.04207],[128.11297,38.04252],[128.11361,38.04278],[128.11485,38.04363],[128.11518,38.04403],[128.1157,38.04446],[128.11588,38.04509],[128.11659,38.04636],[128.11771,38.04731],[128.11811,38.04756],[128.11796,38.04836],[128.11658,38.05007],[128.11618,38.05129],[128.11594,38.05142],[128.11584,38.05174],[128.11499,38.05239],[128.11462,38.05293],[128.11444,38.05354],[128.11487,38.05412],[128.11388,38.05586],[128.11415,38.05728],[128.11395,38.0582],[128.11417,38.05852],[128.11399,38.05926],[128.11442,38.0599],[128.11479,38.06227],[128.11543,38.0628],[128.11486,38.06333],[128.11468,38.06389],[128.11492,38.06446],[128.11421,38.0665],[128.11438,38.06721],[128.11353,38.06856],[128.11289,38.06916],[128.11314,38.07029],[128.11297,38.07116],[128.11235,38.07188],[128.11236,38.07209],[128.11155,38.07276],[128.11097,38.07301],[128.11059,38.07296],[128.1091,38.07359],[128.10792,38.07385],[128.10711,38.07454],[128.10604,38.07455],[128.10576,38.07494],[128.10449,38.07527],[128.10399,38.07553],[128.10253,38.07603],[128.10193,38.07655],[128.10148,38.07715],[128.10135,38.07774],[128.10027,38.07843],[128.09986,38.07848],[128.09882,38.07963],[128.09864,38.0802],[128.09715,38.08186],[128.09654,38.08328],[128.09652,38.08373],[128.09507,38.0851],[128.09564,38.08544],[128.09535,38.08582],[128.09526,38.08617],[128.09459,38.08734],[128.09386,38.08821],[128.09313,38.08855],[128.09214,38.08992],[128.09201,38.09043],[128.0921,38.09065],[128.09185,38.09124],[128.09109,38.09152],[128.0905,38.09151],[128.0901,38.09175],[128.08959,38.09255],[128.08901,38.09265],[128.08885,38.09291],[128.08895,38.0938],[128.08804,38.09581],[128.08878,38.09686],[128.08953,38.09877],[128.08965,38.09991],[128.08948,38.10013],[128.08975,38.10032],[128.09014,38.10116],[128.09053,38.10126],[128.09129,38.10097],[128.09257,38.10127],[128.09369,38.10135],[128.09531,38.10136],[128.09735,38.10104],[128.09779,38.10127],[128.09826,38.10169],[128.09892,38.10194],[128.09999,38.10245],[128.10131,38.10289]]]},"properties":{"code":"32580350","name":"국토정중앙면"}}],"profileId":"gangwon","schemaVersion":2,"dataVersion":"gangwon-2022-563a6bb6162048a7"}
