{"type":"FeatureCollection","features":[{"type":"Feature","geometry":{"type":"Polygon","coordinates":[[[128.4768,38.40206],[128.47576,38.40205],[128.47473,38.40179],[128.47324,38.40126],[128.47223,38.40018],[128.47055,38.39922],[128.46939,38.39882],[128.46829,38.39862],[128.46773,38.39845],[128.46569,38.39747],[128.46478,38.39673],[128.46435,38.39534],[128.46357,38.39364],[128.46326,38.39303],[128.46291,38.39126],[128.4633,38.39016],[128.46344,38.38912],[128.46318,38.38825],[128.46101,38.38666],[128.45862,38.38596],[128.45742,38.38539],[128.45695,38.38499],[128.45657,38.38487],[128.456,38.38508],[128.45558,38.38512],[128.45426,38.38484],[128.45278,38.38471],[128.45255,38.38515],[128.45253,38.38567],[128.45288,38.38698],[128.45195,38.38707],[128.45182,38.38745],[128.45152,38.38761],[128.45097,38.38823],[128.45021,38.38856],[128.44905,38.3892],[128.44895,38.39049],[128.44717,38.3899],[128.4459,38.38942],[128.44388,38.38875],[128.44348,38.38885],[128.44239,38.38892],[128.44192,38.38888],[128.44159,38.38893],[128.44083,38.38922],[128.44017,38.38914],[128.43984,38.3893],[128.43891,38.38993],[128.4383,38.39012],[128.438,38.39013],[128.43737,38.39033],[128.43588,38.38948],[128.43557,38.38924],[128.43443,38.38917],[128.43424,38.38935],[128.43359,38.38941],[128.43313,38.38986],[128.43268,38.38992],[128.43116,38.38918],[128.43063,38.38945],[128.43016,38.3898],[128.42918,38.38956],[128.42824,38.39034],[128.42812,38.39074],[128.42915,38.39089],[128.42973,38.39083],[128.43013,38.39106],[128.43044,38.39143],[128.43075,38.39135],[128.4308,38.39197],[128.43019,38.39209],[128.43011,38.39263],[128.42981,38.39362],[128.42924,38.39401],[128.42873,38.39427],[128.42862,38.39448],[128.42778,38.39432],[128.42701,38.39436],[128.42655,38.39408],[128.42634,38.3936],[128.42593,38.39353],[128.42536,38.39373],[128.42472,38.39361],[128.42501,38.39464],[128.42473,38.39471],[128.42484,38.39514],[128.42415,38.39531],[128.42296,38.39552],[128.42198,38.39584],[128.42124,38.39614],[128.42177,38.39747],[128.42136,38.39769],[128.42118,38.39815],[128.42093,38.39831],[128.42098,38.39871],[128.42045,38.3993],[128.42035,38.39992],[128.42073,38.40013],[128.42101,38.40045],[128.42009,38.40099],[128.41887,38.40205],[128.41639,38.40226],[128.41629,38.40204],[128.41564,38.40189],[128.41502,38.40215],[128.41426,38.40199],[128.41396,38.40151],[128.41235,38.40232],[128.41142,38.40237],[128.4107,38.40275],[128.41039,38.40322],[128.40936,38.40432],[128.40842,38.40519],[128.40821,38.40521],[128.40737,38.40586],[128.40755,38.40632],[128.40743,38.40667],[128.40681,38.40728],[128.4063,38.40753],[128.4055,38.40851],[128.40461,38.40893],[128.40418,38.40909],[128.40379,38.40952],[128.40337,38.40963],[128.40298,38.41002],[128.40229,38.41136],[128.40208,38.41213],[128.40138,38.41273],[128.40103,38.41354],[128.4004,38.41414],[128.39956,38.41212],[128.39585,38.41099],[128.39646,38.40974],[128.39465,38.40906],[128.39358,38.40761],[128.3935,38.40674],[128.39296,38.4063],[128.39263,38.40586],[128.39287,38.40545],[128.39239,38.40463],[128.39235,38.40428],[128.39272,38.40405],[128.39339,38.40332],[128.39332,38.40297],[128.39353,38.40238],[128.39296,38.40196],[128.39232,38.40178],[128.39151,38.40144],[128.39115,38.40111],[128.3906,38.40072],[128.39015,38.4005],[128.38996,38.40027],[128.39001,38.39995],[128.38977,38.39956],[128.38985,38.3992],[128.38897,38.39883],[128.38862,38.39882],[128.38816,38.39893],[128.3877,38.39892],[128.38675,38.39861],[128.38601,38.39829],[128.3856,38.39753],[128.3852,38.39713],[128.38371,38.39745],[128.38285,38.39713],[128.38245,38.39752],[128.38182,38.39828],[128.38142,38.39832],[128.38069,38.39819],[128.38026,38.39802],[128.37962,38.39793],[128.37916,38.3976],[128.37879,38.3972],[128.37791,38.39728],[128.37649,38.39699],[128.37609,38.39703],[128.37562,38.39691],[128.37467,38.39641],[128.37347,38.39672],[128.37285,38.39727],[128.37138,38.39732],[128.37034,38.39693],[128.36904,38.39763],[128.36835,38.3974],[128.36791,38.39748],[128.36621,38.39767],[128.36491,38.39726],[128.36418,38.39735],[128.36335,38.39777],[128.36274,38.39792],[128.36139,38.39761],[128.36028,38.39768],[128.3594,38.39857],[128.35831,38.39879],[128.35707,38.39886],[128.35417,38.39953],[128.35347,38.40006],[128.35245,38.4],[128.35117,38.40009],[128.35069,38.40026],[128.34998,38.40034],[128.34964,38.4005],[128.34888,38.40017],[128.34836,38.40001],[128.34855,38.39987],[128.34836,38.39942],[128.34774,38.39829],[128.34737,38.39773],[128.34675,38.3959],[128.34657,38.39508],[128.34681,38.39399],[128.34606,38.39222],[128.34548,38.39129],[128.34477,38.39096],[128.34368,38.3908],[128.34289,38.39017],[128.34243,38.39002],[128.3413,38.38909],[128.34065,38.38891],[128.33984,38.38854],[128.33893,38.38767],[128.33859,38.38678],[128.33763,38.38495],[128.33707,38.38412],[128.33661,38.38336],[128.33574,38.38231],[128.33537,38.38215],[128.33491,38.38175],[128.33371,38.38142],[128.33333,38.38106],[128.33337,38.3805],[128.33311,38.38002],[128.33328,38.37959],[128.33295,38.37824],[128.33251,38.37754],[128.33219,38.37635],[128.33223,38.37569],[128.33187,38.37481],[128.33136,38.37393],[128.33212,38.37282],[128.33241,38.37221],[128.33333,38.3715],[128.33365,38.37089],[128.3337,38.37058],[128.335,38.36933],[128.33532,38.36878],[128.33564,38.36846],[128.33593,38.36764],[128.3356,38.36647],[128.33534,38.36615],[128.33538,38.36518],[128.3357,38.36464],[128.3355,38.36387],[128.33522,38.36349],[128.33515,38.36313],[128.33524,38.36245],[128.33479,38.36198],[128.33367,38.36107],[128.33282,38.36083],[128.33236,38.36055],[128.33202,38.35987],[128.33203,38.35889],[128.33222,38.35845],[128.33225,38.35806],[128.33289,38.35757],[128.33206,38.35645],[128.33107,38.35573],[128.33082,38.35561],[128.33082,38.35515],[128.3304,38.35443],[128.32976,38.354],[128.32927,38.35334],[128.32865,38.35285],[128.32841,38.35255],[128.32787,38.35241],[128.32744,38.35221],[128.32699,38.35217],[128.32657,38.35185],[128.32465,38.35175],[128.3245,38.35163],[128.32405,38.35094],[128.32294,38.35],[128.32243,38.3493],[128.32179,38.3489],[128.32132,38.34868],[128.32091,38.34822],[128.32049,38.34801],[128.31989,38.34747],[128.31876,38.3469],[128.31821,38.34677],[128.31741,38.34608],[128.3174,38.34559],[128.31808,38.34446],[128.31848,38.34298],[128.31885,38.34247],[128.31917,38.34179],[128.318,38.3407],[128.31739,38.33982],[128.31752,38.33902],[128.31752,38.33816],[128.31706,38.33729],[128.31706,38.33672],[128.3173,38.3355],[128.31718,38.33514],[128.31798,38.33421],[128.31844,38.33382],[128.31733,38.33295],[128.31665,38.33206],[128.31491,38.33128],[128.31346,38.33071],[128.3121,38.33059],[128.31175,38.33041],[128.31101,38.32965],[128.31093,38.32905],[128.31112,38.32845],[128.31089,38.32689],[128.31047,38.32643],[128.30992,38.32506],[128.3097,38.3236],[128.30887,38.32217],[128.30861,38.32155],[128.30861,38.32106],[128.30967,38.32032],[128.31003,38.31984],[128.31007,38.31915],[128.31036,38.31787],[128.31097,38.31732],[128.31118,38.31687],[128.31143,38.31597],[128.31172,38.31548],[128.31179,38.31478],[128.31162,38.31425],[128.31166,38.31377],[128.31262,38.31249],[128.31281,38.31186],[128.31401,38.31044],[128.31445,38.31002],[128.3144,38.30826],[128.31387,38.30742],[128.31416,38.3072],[128.31421,38.30598],[128.3145,38.30494],[128.31498,38.30437],[128.31488,38.3028],[128.31512,38.30226],[128.31579,38.30183],[128.31655,38.30162],[128.31739,38.30158],[128.31828,38.30125],[128.31946,38.30099],[128.32045,38.30025],[128.3205,38.3],[128.32047,38.29929],[128.32033,38.29847],[128.32059,38.29795],[128.32109,38.29736],[128.32115,38.29641],[128.32134,38.29581],[128.32146,38.29518],[128.3215,38.29388],[128.32137,38.29282],[128.32138,38.29197],[128.32122,38.2915],[128.32146,38.29092],[128.32093,38.28989],[128.32059,38.28949],[128.31993,38.28922],[128.31926,38.28857],[128.31881,38.28773],[128.31879,38.28587],[128.31929,38.28413],[128.31914,38.28373],[128.31952,38.28295],[128.31947,38.28138],[128.31992,38.28011],[128.31936,38.27789],[128.31829,38.27506],[128.31808,38.27424],[128.31794,38.27315],[128.31803,38.27223],[128.31824,38.27176],[128.31777,38.27027],[128.31855,38.2675],[128.31923,38.26607],[128.31993,38.26603],[128.32125,38.26647],[128.32222,38.26651],[128.32332,38.26645],[128.32433,38.26629],[128.32491,38.26642],[128.32621,38.26645],[128.3275,38.2662],[128.32925,38.26547],[128.33143,38.26542],[128.33237,38.26513],[128.33287,38.26412],[128.33348,38.26371],[128.33421,38.26385],[128.33588,38.26333],[128.33708,38.26312],[128.3377,38.26339],[128.33836,38.26382],[128.33902,38.26402],[128.34026,38.26475],[128.34085,38.26551],[128.34232,38.26501],[128.34323,38.26514],[128.34492,38.26505],[128.34591,38.26521],[128.34643,38.26545],[128.34773,38.2659],[128.34876,38.26607],[128.35054,38.2659],[128.35345,38.26609],[128.35436,38.26647],[128.35579,38.26658],[128.35736,38.26557],[128.35929,38.26569],[128.3593,38.26541],[128.35907,38.26538],[128.35916,38.26467],[128.35895,38.26433],[128.35865,38.26428],[128.35881,38.26388],[128.35871,38.26359],[128.35932,38.2625],[128.35965,38.26104],[128.35976,38.26085],[128.36007,38.2589],[128.36113,38.25789],[128.36183,38.25713],[128.36258,38.25572],[128.36327,38.25533],[128.36341,38.25502],[128.36332,38.25461],[128.36343,38.25397],[128.36313,38.25379],[128.36307,38.25328],[128.3633,38.25246],[128.36373,38.25189],[128.36395,38.25084],[128.36436,38.2501],[128.36526,38.24823],[128.36568,38.24703],[128.36576,38.2444],[128.36554,38.24338],[128.36482,38.24237],[128.36465,38.24203],[128.36499,38.24203],[128.36582,38.2418],[128.3668,38.24085],[128.36685,38.23999],[128.36719,38.23905],[128.36723,38.2384],[128.36789,38.23748],[128.36806,38.23686],[128.3681,38.23624],[128.36846,38.23585],[128.36894,38.2358],[128.36947,38.23594],[128.36973,38.2363],[128.37077,38.23709],[128.3711,38.23749],[128.37135,38.23815],[128.37069,38.23844],[128.37039,38.23917],[128.37033,38.24037],[128.37068,38.2413],[128.37166,38.24232],[128.37206,38.24265],[128.3736,38.24324],[128.37458,38.24323],[128.37533,38.24272],[128.37561,38.24265],[128.37647,38.243],[128.37647,38.24353],[128.37733,38.24392],[128.37786,38.24476],[128.37832,38.24523],[128.37877,38.24539],[128.37916,38.24529],[128.37976,38.24394],[128.38018,38.24379],[128.38102,38.24432],[128.38114,38.24471],[128.38184,38.24577],[128.38477,38.24585],[128.38488,38.2461],[128.38474,38.24711],[128.38502,38.24718],[128.3857,38.24683],[128.38656,38.24705],[128.38778,38.24794],[128.38836,38.24804],[128.3884,38.24705],[128.38873,38.24664],[128.38946,38.24628],[128.39061,38.24629],[128.39091,38.24619],[128.3914,38.24499],[128.3923,38.24452],[128.39281,38.24389],[128.39308,38.24289],[128.39352,38.24203],[128.39356,38.24111],[128.39417,38.23959],[128.39469,38.23927],[128.39671,38.23935],[128.39731,38.23956],[128.39807,38.24005],[128.39886,38.24039],[128.39947,38.24099],[128.39974,38.24102],[128.40007,38.24133],[128.40158,38.24187],[128.402,38.24208],[128.40305,38.24228],[128.40343,38.24251],[128.40388,38.24257],[128.40432,38.24302],[128.40502,38.24405],[128.40558,38.24436],[128.40581,38.24462],[128.40642,38.24469],[128.40681,38.24458],[128.40718,38.24477],[128.40687,38.24519],[128.40621,38.24541],[128.40612,38.24561],[128.40634,38.24605],[128.40659,38.24624],[128.40755,38.24598],[128.40814,38.24622],[128.40816,38.24696],[128.40861,38.24764],[128.40883,38.24778],[128.40954,38.24786],[128.41045,38.24823],[128.41049,38.2486],[128.41164,38.24893],[128.41241,38.25043],[128.41345,38.25144],[128.41384,38.25194],[128.41426,38.25219],[128.41459,38.2525],[128.41495,38.25259],[128.41523,38.25316],[128.41648,38.2537],[128.41744,38.25454],[128.41742,38.25462],[128.41664,38.25523],[128.41634,38.25527],[128.41607,38.25584],[128.41479,38.25651],[128.41376,38.25859],[128.41394,38.25922],[128.41402,38.26065],[128.41299,38.26176],[128.41232,38.26229],[128.41159,38.26265],[128.40975,38.26391],[128.40871,38.26361],[128.40815,38.26312],[128.40774,38.26289],[128.40733,38.263],[128.40686,38.26301],[128.40645,38.26282],[128.40537,38.263],[128.40516,38.26312],[128.40455,38.26309],[128.40377,38.2626],[128.40319,38.26244],[128.40276,38.26204],[128.40249,38.2616],[128.40199,38.26113],[128.40182,38.26072],[128.40123,38.26056],[128.40092,38.26064],[128.40062,38.26128],[128.40027,38.2616],[128.40021,38.26189],[128.39998,38.2621],[128.39956,38.26298],[128.39902,38.26356],[128.39922,38.26403],[128.39902,38.26434],[128.39884,38.26516],[128.39864,38.26699],[128.3988,38.26761],[128.39948,38.26795],[128.4005,38.26887],[128.40103,38.26896],[128.40196,38.26961],[128.4027,38.27116],[128.40267,38.2716],[128.40302,38.27306],[128.40331,38.2735],[128.40338,38.27398],[128.40364,38.2743],[128.40391,38.27533],[128.40429,38.27599],[128.40439,38.27651],[128.40421,38.27686],[128.40486,38.27799],[128.40477,38.27856],[128.40514,38.27908],[128.4058,38.27959],[128.40659,38.28073],[128.40702,38.28053],[128.40753,38.28044],[128.40815,38.28064],[128.40919,38.28144],[128.40966,38.28167],[128.41016,38.28178],[128.41087,38.28204],[128.41183,38.28253],[128.41316,38.28332],[128.41361,38.28348],[128.41434,38.28424],[128.415,38.28457],[128.41547,38.28472],[128.41593,38.28518],[128.41679,38.28547],[128.41833,38.28649],[128.41934,38.28682],[128.4197,38.28731],[128.42011,38.28758],[128.42069,38.28769],[128.4218,38.2882],[128.42331,38.28808],[128.42387,38.28812],[128.42496,38.28826],[128.42602,38.28878],[128.42689,38.28905],[128.42751,38.28911],[128.42825,38.28904],[128.42929,38.28926],[128.43052,38.28922],[128.43088,38.2893],[128.43118,38.2899],[128.43121,38.29029],[128.43165,38.29101],[128.4321,38.29198],[128.43286,38.29303],[128.43312,38.29369],[128.43359,38.29399],[128.43417,38.2946],[128.43398,38.29535],[128.434,38.29589],[128.43372,38.29715],[128.43377,38.29746],[128.43418,38.29761],[128.43421,38.29804],[128.4345,38.29861],[128.43424,38.2991],[128.43472,38.29998],[128.4343,38.30074],[128.43442,38.30173],[128.43464,38.30254],[128.43464,38.30295],[128.43432,38.30337],[128.4339,38.30421],[128.43376,38.30593],[128.43411,38.30655],[128.43471,38.30695],[128.43429,38.30822],[128.43528,38.3089],[128.43584,38.30997],[128.43641,38.31038],[128.43693,38.31034],[128.43727,38.31068],[128.4369,38.31179],[128.43694,38.31239],[128.43716,38.31263],[128.43745,38.31362],[128.43794,38.3145],[128.43821,38.3146],[128.43827,38.31524],[128.43823,38.31586],[128.43876,38.3166],[128.43885,38.31701],[128.44091,38.31676],[128.44179,38.31701],[128.44341,38.31683],[128.44779,38.31585],[128.447,38.31704],[128.44744,38.31849],[128.44787,38.31901],[128.44791,38.32036],[128.44738,38.32315],[128.44854,38.32383],[128.44902,38.32464],[128.45,38.32571],[128.45008,38.3264],[128.45002,38.32665],[128.45039,38.32761],[128.45102,38.32797],[128.45149,38.32836],[128.45232,38.32924],[128.45299,38.33011],[128.45358,38.33052],[128.45446,38.33123],[128.45529,38.33179],[128.45533,38.33283],[128.45599,38.33306],[128.45735,38.33278],[128.45772,38.33217],[128.45861,38.33154],[128.45947,38.33134],[128.46033,38.33107],[128.46055,38.33133],[128.46025,38.33185],[128.4606,38.33241],[128.46093,38.3326],[128.46128,38.33305],[128.46227,38.33283],[128.4625,38.33303],[128.46334,38.33331],[128.46382,38.33374],[128.46504,38.33349],[128.46601,38.33365],[128.46653,38.33385],[128.46851,38.33389],[128.46911,38.33361],[128.46968,38.33368],[128.47081,38.33352],[128.47152,38.33305],[128.47188,38.3327],[128.47256,38.33221],[128.47304,38.33202],[128.47442,38.33187],[128.47596,38.33207],[128.477,38.33183],[128.47971,38.33167],[128.47915,38.33227],[128.47905,38.3329],[128.47933,38.33327],[128.47989,38.33335],[128.4803,38.33393],[128.48016,38.33431],[128.48027,38.33487],[128.48056,38.33529],[128.48033,38.33567],[128.4807,38.3365],[128.48052,38.33716],[128.48085,38.33731],[128.48227,38.33697],[128.48284,38.33735],[128.48303,38.33795],[128.48298,38.33834],[128.48371,38.33875],[128.48428,38.33937],[128.48463,38.3404],[128.4851,38.34082],[128.48565,38.34185],[128.4863,38.34296],[128.48669,38.34329],[128.48666,38.34391],[128.48673,38.34487],[128.48681,38.34524],[128.4871,38.34602],[128.48703,38.34653],[128.48709,38.34699],[128.48643,38.34738],[128.48663,38.34789],[128.48652,38.34804],[128.48655,38.34876],[128.486,38.34931],[128.48507,38.34976],[128.48434,38.35054],[128.48419,38.35107],[128.48371,38.35117],[128.48298,38.35141],[128.48294,38.35188],[128.4831,38.35232],[128.48307,38.35296],[128.48254,38.35316],[128.48211,38.35379],[128.48232,38.35402],[128.48333,38.35419],[128.48447,38.35529],[128.48393,38.35598],[128.48506,38.3566],[128.48549,38.35694],[128.48645,38.35791],[128.4869,38.35807],[128.48696,38.35825],[128.48727,38.35856],[128.48748,38.35844],[128.48869,38.35848],[128.48915,38.35887],[128.48917,38.35906],[128.48838,38.3604],[128.48797,38.3607],[128.48751,38.3617],[128.4881,38.36272],[128.48762,38.36346],[128.48728,38.36382],[128.486,38.36358],[128.48534,38.36292],[128.48512,38.36277],[128.48428,38.36295],[128.48403,38.36317],[128.48356,38.36318],[128.48305,38.36297],[128.48208,38.36291],[128.4807,38.36309],[128.48008,38.36246],[128.47951,38.36197],[128.47845,38.36208],[128.47721,38.36241],[128.47709,38.36314],[128.47689,38.3632],[128.4766,38.36373],[128.47623,38.36384],[128.47565,38.36373],[128.47511,38.36406],[128.47463,38.36453],[128.47445,38.36511],[128.47351,38.36534],[128.47459,38.36542],[128.47462,38.3661],[128.47478,38.3668],[128.47506,38.36734],[128.47566,38.36808],[128.47645,38.36869],[128.47727,38.36872],[128.48028,38.36872],[128.48157,38.36906],[128.48207,38.36937],[128.48257,38.36979],[128.48275,38.37019],[128.48256,38.37077],[128.48201,38.37149],[128.4814,38.37216],[128.48105,38.37248],[128.48055,38.37277],[128.48031,38.37359],[128.48034,38.37431],[128.48018,38.37494],[128.47982,38.37569],[128.48023,38.37637],[128.48042,38.37707],[128.48082,38.37785],[128.48158,38.37857],[128.48196,38.37931],[128.4839,38.38051],[128.48392,38.38068],[128.48362,38.38086],[128.48519,38.38104],[128.48559,38.38113],[128.48609,38.3815],[128.487,38.38225],[128.48794,38.38319],[128.48845,38.38362],[128.48899,38.38389],[128.49051,38.38428],[128.49129,38.38401],[128.49158,38.38396],[128.49393,38.38419],[128.49502,38.38445],[128.49471,38.38495],[128.49555,38.38528],[128.49524,38.38557],[128.49532,38.38572],[128.49454,38.38652],[128.49382,38.38748],[128.49286,38.38819],[128.49209,38.38888],[128.49169,38.38933],[128.49134,38.38984],[128.49055,38.39063],[128.48964,38.39162],[128.4881,38.39306],[128.48749,38.39372],[128.48686,38.39447],[128.48614,38.39508],[128.48554,38.39569],[128.48494,38.39649],[128.4843,38.3971],[128.48373,38.39773],[128.48319,38.39814],[128.48254,38.39878],[128.48194,38.39974],[128.48171,38.4],[128.4812,38.39985],[128.48062,38.40047],[128.48011,38.40081],[128.4788,38.40152],[128.47794,38.4011],[128.47732,38.40075],[128.4768,38.40206]]]},"properties":{"code":"32600110","name":"간성읍"}},{"type":"Feature","geometry":{"type":"MultiPolygon","coordinates":[[[[128.46812,38.44951],[128.46835,38.44964],[128.46857,38.45002],[128.46864,38.45034],[128.46858,38.45089],[128.46842,38.45094],[128.46807,38.45058],[128.46806,38.44971],[128.46812,38.44951]]],[[[128.4768,38.40206],[128.47681,38.4031],[128.47638,38.4042],[128.47597,38.40461],[128.47635,38.40472],[128.47619,38.40515],[128.47562,38.40574],[128.47535,38.40617],[128.47411,38.40757],[128.47329,38.40843],[128.47301,38.40862],[128.47213,38.40958],[128.47133,38.41031],[128.47107,38.41071],[128.47083,38.41125],[128.46869,38.41401],[128.46808,38.41488],[128.46636,38.41697],[128.46564,38.41804],[128.46463,38.41931],[128.46411,38.42005],[128.46414,38.42019],[128.4634,38.42142],[128.46281,38.42262],[128.46305,38.4233],[128.46278,38.42372],[128.46194,38.42475],[128.46318,38.42525],[128.46455,38.42401],[128.4646,38.42404],[128.46324,38.42529],[128.46306,38.42532],[128.46124,38.4246],[128.46015,38.42617],[128.45995,38.42692],[128.46005,38.42712],[128.45971,38.42719],[128.45907,38.42784],[128.4585,38.42856],[128.45812,38.42916],[128.45749,38.43025],[128.45669,38.43157],[128.45609,38.43288],[128.45579,38.43327],[128.45542,38.43457],[128.45546,38.43504],[128.45502,38.43601],[128.45458,38.43714],[128.45377,38.43829],[128.45394,38.43835],[128.45408,38.43797],[128.45473,38.43798],[128.45466,38.43835],[128.45538,38.43842],[128.45491,38.43895],[128.45489,38.43941],[128.45506,38.43967],[128.45532,38.43961],[128.45528,38.44007],[128.45505,38.43994],[128.45469,38.44016],[128.45462,38.44081],[128.45507,38.44092],[128.45496,38.44122],[128.45468,38.44134],[128.45491,38.44216],[128.45517,38.44222],[128.45545,38.44204],[128.45547,38.44241],[128.45524,38.44257],[128.45525,38.44285],[128.45541,38.44309],[128.456,38.44369],[128.45606,38.44385],[128.45832,38.44383],[128.45832,38.44397],[128.45751,38.44398],[128.45536,38.44396],[128.45514,38.44405],[128.45504,38.44439],[128.45516,38.44483],[128.45532,38.44492],[128.45543,38.44527],[128.45626,38.44626],[128.457,38.44676],[128.45897,38.44798],[128.45939,38.44757],[128.4595,38.44763],[128.45907,38.44806],[128.45993,38.4486],[128.4615,38.44878],[128.4633,38.44698],[128.46086,38.44539],[128.46108,38.44518],[128.46017,38.44458],[128.45917,38.44329],[128.45927,38.44301],[128.46039,38.44451],[128.46164,38.44533],[128.4638,38.44669],[128.46389,38.44661],[128.46442,38.44695],[128.46464,38.4479],[128.46489,38.44801],[128.46553,38.44808],[128.46656,38.44901],[128.46697,38.44998],[128.46689,38.45018],[128.4664,38.45046],[128.46547,38.45133],[128.46533,38.45166],[128.46534,38.45276],[128.46447,38.4534],[128.4637,38.45372],[128.4632,38.45413],[128.46269,38.45437],[128.46237,38.4544],[128.46211,38.45455],[128.46144,38.45463],[128.46098,38.45492],[128.46082,38.45539],[128.46028,38.45594],[128.46043,38.4569],[128.46039,38.45737],[128.45989,38.45744],[128.45942,38.45785],[128.45858,38.45844],[128.45774,38.45929],[128.45706,38.45983],[128.45642,38.46028],[128.45562,38.46068],[128.45568,38.46086],[128.4553,38.46153],[128.45554,38.46184],[128.45542,38.46241],[128.45397,38.46298],[128.45264,38.46378],[128.45243,38.46455],[128.4515,38.46567],[128.45064,38.46607],[128.45005,38.4665],[128.44999,38.46671],[128.44921,38.46793],[128.44944,38.46852],[128.45015,38.46862],[128.45046,38.46929],[128.45003,38.46952],[128.44949,38.47052],[128.4497,38.47061],[128.44974,38.47103],[128.44962,38.47128],[128.44935,38.47131],[128.44861,38.47196],[128.44735,38.47221],[128.44708,38.47252],[128.44608,38.47298],[128.44558,38.47326],[128.44488,38.47351],[128.44399,38.47438],[128.44318,38.47432],[128.44244,38.47434],[128.44199,38.47442],[128.44103,38.47519],[128.44033,38.47567],[128.43921,38.47682],[128.43802,38.47967],[128.43477,38.47888],[128.43588,38.47715],[128.43616,38.47435],[128.43665,38.47325],[128.43884,38.47227],[128.43946,38.47051],[128.43701,38.46839],[128.43463,38.46693],[128.43287,38.46387],[128.42906,38.46373],[128.42844,38.46336],[128.42713,38.46233],[128.42671,38.4619],[128.42616,38.46163],[128.42525,38.46105],[128.4246,38.4608],[128.42418,38.4608],[128.42356,38.46053],[128.4229,38.46055],[128.42252,38.46064],[128.42183,38.46018],[128.42151,38.46009],[128.42067,38.45961],[128.42041,38.45927],[128.42027,38.45875],[128.41976,38.45806],[128.41956,38.45763],[128.41923,38.45736],[128.41873,38.45731],[128.41835,38.45715],[128.41738,38.4566],[128.41698,38.45688],[128.41645,38.45741],[128.41626,38.45741],[128.4157,38.45769],[128.41507,38.45789],[128.41498,38.45849],[128.4142,38.45865],[128.41359,38.45899],[128.41337,38.45919],[128.41271,38.45932],[128.41248,38.45964],[128.41208,38.4595],[128.41145,38.45966],[128.41115,38.45991],[128.41055,38.46067],[128.41055,38.4609],[128.41012,38.4611],[128.40958,38.46156],[128.40924,38.46158],[128.40766,38.46215],[128.40736,38.46236],[128.40692,38.46252],[128.40636,38.4631],[128.40626,38.46328],[128.40642,38.464],[128.40637,38.4642],[128.40608,38.4645],[128.40592,38.46496],[128.40572,38.46516],[128.40534,38.4658],[128.4049,38.46613],[128.40459,38.46596],[128.40127,38.46606],[128.40053,38.46642],[128.3995,38.46708],[128.39584,38.46833],[128.3956,38.46894],[128.39505,38.46892],[128.39398,38.46935],[128.39296,38.47087],[128.39287,38.47186],[128.39257,38.47197],[128.39206,38.47258],[128.39124,38.4731],[128.39021,38.47297],[128.38954,38.4731],[128.38912,38.47305],[128.38855,38.47288],[128.38675,38.47387],[128.38665,38.47389],[128.38138,38.47396],[128.38062,38.47395],[128.37994,38.47409],[128.37841,38.47402],[128.37708,38.47403],[128.37545,38.47462],[128.3743,38.4746],[128.37344,38.47433],[128.3724,38.47339],[128.37175,38.47168],[128.37131,38.47107],[128.37085,38.47086],[128.36919,38.46938],[128.36796,38.46872],[128.36645,38.46733],[128.3651,38.46701],[128.3638,38.46652],[128.36183,38.46575],[128.36131,38.46522],[128.36094,38.46504],[128.36019,38.46519],[128.35936,38.46527],[128.35861,38.46513],[128.35725,38.46478],[128.35601,38.46439],[128.35507,38.46387],[128.35377,38.46312],[128.35337,38.46239],[128.35341,38.46085],[128.35279,38.46036],[128.35274,38.46013],[128.35231,38.45969],[128.35171,38.45886],[128.35164,38.45759],[128.35169,38.45709],[128.3514,38.45625],[128.35188,38.45589],[128.35189,38.45484],[128.35208,38.45409],[128.35237,38.45367],[128.35267,38.45345],[128.3531,38.45284],[128.35273,38.45227],[128.35286,38.45141],[128.35347,38.45106],[128.35411,38.45022],[128.35373,38.44964],[128.35446,38.44917],[128.35437,38.44801],[128.35479,38.44776],[128.35539,38.4469],[128.35586,38.44635],[128.35563,38.446],[128.35562,38.44417],[128.35623,38.44356],[128.35656,38.44268],[128.35627,38.44245],[128.35643,38.44134],[128.35627,38.44073],[128.35673,38.44022],[128.35696,38.43928],[128.35661,38.43834],[128.35602,38.43793],[128.35437,38.43706],[128.35413,38.43602],[128.35356,38.43557],[128.35343,38.43462],[128.353,38.43349],[128.35201,38.43316],[128.35098,38.43207],[128.34942,38.43224],[128.34853,38.43239],[128.34778,38.43187],[128.34636,38.4302],[128.34588,38.42978],[128.34471,38.42945],[128.34338,38.42878],[128.34258,38.4283],[128.34324,38.42676],[128.34471,38.42579],[128.34477,38.4252],[128.34529,38.42422],[128.34594,38.42355],[128.34662,38.42302],[128.34674,38.42237],[128.34667,38.4219],[128.34626,38.4214],[128.34598,38.42078],[128.34577,38.41975],[128.3458,38.41927],[128.34615,38.41869],[128.34649,38.4178],[128.34614,38.41721],[128.3458,38.4158],[128.34583,38.41534],[128.34571,38.41454],[128.34588,38.41421],[128.34627,38.41391],[128.34613,38.41362],[128.34605,38.41317],[128.34691,38.41259],[128.34781,38.41188],[128.34782,38.411],[128.34788,38.41002],[128.34872,38.40833],[128.34906,38.40744],[128.3491,38.40652],[128.34925,38.40558],[128.34981,38.40489],[128.34985,38.40399],[128.34768,38.40181],[128.3466,38.40147],[128.34788,38.40035],[128.34836,38.40001],[128.34888,38.40017],[128.34964,38.4005],[128.34998,38.40034],[128.35069,38.40026],[128.35117,38.40009],[128.35245,38.4],[128.35347,38.40006],[128.35417,38.39953],[128.35707,38.39886],[128.35831,38.39879],[128.3594,38.39857],[128.36028,38.39768],[128.36139,38.39761],[128.36274,38.39792],[128.36335,38.39777],[128.36418,38.39735],[128.36491,38.39726],[128.36621,38.39767],[128.36791,38.39748],[128.36835,38.3974],[128.36904,38.39763],[128.37034,38.39693],[128.37138,38.39732],[128.37285,38.39727],[128.37347,38.39672],[128.37467,38.39641],[128.37562,38.39691],[128.37609,38.39703],[128.37649,38.39699],[128.37791,38.39728],[128.37879,38.3972],[128.37916,38.3976],[128.37962,38.39793],[128.38026,38.39802],[128.38069,38.39819],[128.38142,38.39832],[128.38182,38.39828],[128.38245,38.39752],[128.38285,38.39713],[128.38371,38.39745],[128.3852,38.39713],[128.3856,38.39753],[128.38601,38.39829],[128.38675,38.39861],[128.3877,38.39892],[128.38816,38.39893],[128.38862,38.39882],[128.38897,38.39883],[128.38985,38.3992],[128.38977,38.39956],[128.39001,38.39995],[128.38996,38.40027],[128.39015,38.4005],[128.3906,38.40072],[128.39115,38.40111],[128.39151,38.40144],[128.39232,38.40178],[128.39296,38.40196],[128.39353,38.40238],[128.39332,38.40297],[128.39339,38.40332],[128.39272,38.40405],[128.39235,38.40428],[128.39239,38.40463],[128.39287,38.40545],[128.39263,38.40586],[128.39296,38.4063],[128.3935,38.40674],[128.39358,38.40761],[128.39465,38.40906],[128.39646,38.40974],[128.39585,38.41099],[128.39956,38.41212],[128.4004,38.41414],[128.40103,38.41354],[128.40138,38.41273],[128.40208,38.41213],[128.40229,38.41136],[128.40298,38.41002],[128.40337,38.40963],[128.40379,38.40952],[128.40418,38.40909],[128.40461,38.40893],[128.4055,38.40851],[128.4063,38.40753],[128.40681,38.40728],[128.40743,38.40667],[128.40755,38.40632],[128.40737,38.40586],[128.40821,38.40521],[128.40842,38.40519],[128.40936,38.40432],[128.41039,38.40322],[128.4107,38.40275],[128.41142,38.40237],[128.41235,38.40232],[128.41396,38.40151],[128.41426,38.40199],[128.41502,38.40215],[128.41564,38.40189],[128.41629,38.40204],[128.41639,38.40226],[128.41887,38.40205],[128.42009,38.40099],[128.42101,38.40045],[128.42073,38.40013],[128.42035,38.39992],[128.42045,38.3993],[128.42098,38.39871],[128.42093,38.39831],[128.42118,38.39815],[128.42136,38.39769],[128.42177,38.39747],[128.42124,38.39614],[128.42198,38.39584],[128.42296,38.39552],[128.42415,38.39531],[128.42484,38.39514],[128.42473,38.39471],[128.42501,38.39464],[128.42472,38.39361],[128.42536,38.39373],[128.42593,38.39353],[128.42634,38.3936],[128.42655,38.39408],[128.42701,38.39436],[128.42778,38.39432],[128.42862,38.39448],[128.42873,38.39427],[128.42924,38.39401],[128.42981,38.39362],[128.43011,38.39263],[128.43019,38.39209],[128.4308,38.39197],[128.43075,38.39135],[128.43044,38.39143],[128.43013,38.39106],[128.42973,38.39083],[128.42915,38.39089],[128.42812,38.39074],[128.42824,38.39034],[128.42918,38.38956],[128.43016,38.3898],[128.43063,38.38945],[128.43116,38.38918],[128.43268,38.38992],[128.43313,38.38986],[128.43359,38.38941],[128.43424,38.38935],[128.43443,38.38917],[128.43557,38.38924],[128.43588,38.38948],[128.43737,38.39033],[128.438,38.39013],[128.4383,38.39012],[128.43891,38.38993],[128.43984,38.3893],[128.44017,38.38914],[128.44083,38.38922],[128.44159,38.38893],[128.44192,38.38888],[128.44239,38.38892],[128.44348,38.38885],[128.44388,38.38875],[128.4459,38.38942],[128.44717,38.3899],[128.44895,38.39049],[128.44905,38.3892],[128.45021,38.38856],[128.45097,38.38823],[128.45152,38.38761],[128.45182,38.38745],[128.45195,38.38707],[128.45288,38.38698],[128.45253,38.38567],[128.45255,38.38515],[128.45278,38.38471],[128.45426,38.38484],[128.45558,38.38512],[128.456,38.38508],[128.45657,38.38487],[128.45695,38.38499],[128.45742,38.38539],[128.45862,38.38596],[128.46101,38.38666],[128.46318,38.38825],[128.46344,38.38912],[128.4633,38.39016],[128.46291,38.39126],[128.46326,38.39303],[128.46357,38.39364],[128.46435,38.39534],[128.46478,38.39673],[128.46569,38.39747],[128.46773,38.39845],[128.46829,38.39862],[128.46939,38.39882],[128.47055,38.39922],[128.47223,38.40018],[128.47324,38.40126],[128.47473,38.40179],[128.47576,38.40205],[128.4768,38.40206]]]]},"properties":{"code":"32600120","name":"거진읍"}},{"type":"Feature","geometry":{"type":"Polygon","coordinates":[[[128.35601,38.46439],[128.35575,38.46505],[128.355,38.46626],[128.35516,38.46678],[128.35545,38.46697],[128.35445,38.46853],[128.35377,38.46933],[128.3539,38.46991],[128.35338,38.47026],[128.35322,38.47116],[128.35263,38.47153],[128.35171,38.47256],[128.35083,38.47304],[128.35017,38.47379],[128.34943,38.47383],[128.34903,38.47406],[128.34811,38.47441],[128.34717,38.47461],[128.34682,38.47486],[128.34626,38.47503],[128.34572,38.47535],[128.34527,38.47584],[128.34528,38.47615],[128.34387,38.47673],[128.34292,38.47666],[128.34163,38.47708],[128.34107,38.47706],[128.33996,38.47735],[128.33929,38.47713],[128.33786,38.47801],[128.33921,38.4789],[128.3395,38.48039],[128.33949,38.48094],[128.33968,38.48125],[128.33965,38.48243],[128.3395,38.48297],[128.33965,38.48352],[128.33999,38.48387],[128.34026,38.48437],[128.34012,38.48517],[128.34038,38.48558],[128.34023,38.48608],[128.34034,38.48671],[128.34076,38.48735],[128.34064,38.48758],[128.34003,38.48781],[128.3398,38.48843],[128.33968,38.4893],[128.33979,38.48969],[128.33932,38.49032],[128.33933,38.49076],[128.33966,38.49117],[128.33959,38.49171],[128.34053,38.49243],[128.34075,38.4928],[128.34141,38.49307],[128.34161,38.49339],[128.3423,38.4937],[128.34304,38.4939],[128.34358,38.49414],[128.34386,38.49448],[128.34385,38.49482],[128.3436,38.49504],[128.34356,38.49526],[128.34378,38.49587],[128.34363,38.49637],[128.34381,38.49692],[128.34448,38.49758],[128.3447,38.49791],[128.34461,38.49831],[128.34474,38.49882],[128.34468,38.49938],[128.34516,38.49986],[128.34532,38.50032],[128.3456,38.50062],[128.34554,38.50107],[128.34438,38.50188],[128.34359,38.50191],[128.3426,38.50211],[128.34284,38.50255],[128.34218,38.50444],[128.34139,38.50484],[128.34088,38.50501],[128.34068,38.50553],[128.34078,38.50673],[128.34105,38.50726],[128.34081,38.50759],[128.34089,38.50861],[128.34052,38.50904],[128.34062,38.5101],[128.34087,38.51064],[128.34068,38.51164],[128.34,38.51221],[128.34026,38.51257],[128.34021,38.51315],[128.33979,38.51341],[128.33952,38.51431],[128.33861,38.51518],[128.33878,38.51598],[128.33822,38.51653],[128.33795,38.51733],[128.33789,38.51806],[128.3373,38.51904],[128.33739,38.51928],[128.33669,38.52038],[128.33576,38.52078],[128.33548,38.52148],[128.33505,38.5221],[128.33485,38.52253],[128.33541,38.52369],[128.33483,38.52466],[128.33464,38.52571],[128.3347,38.52597],[128.33559,38.52634],[128.33634,38.52733],[128.33775,38.52764],[128.33816,38.52791],[128.33827,38.52858],[128.33896,38.52873],[128.33919,38.52894],[128.33977,38.52918],[128.3398,38.52958],[128.34068,38.5301],[128.34126,38.53032],[128.34136,38.53115],[128.34155,38.53204],[128.34151,38.53271],[128.3417,38.53326],[128.34182,38.53335],[128.34177,38.53406],[128.34187,38.53584],[128.34245,38.53581],[128.34285,38.53588],[128.34318,38.53609],[128.34333,38.53643],[128.34461,38.53626],[128.34547,38.53663],[128.34652,38.53659],[128.34667,38.53732],[128.34745,38.53855],[128.3483,38.53856],[128.34836,38.53898],[128.34829,38.53952],[128.34767,38.54085],[128.34693,38.54146],[128.34633,38.54381],[128.34609,38.54527],[128.34703,38.54645],[128.34704,38.54718],[128.34681,38.54816],[128.34628,38.549],[128.34584,38.55014],[128.34578,38.55196],[128.34581,38.55331],[128.3468,38.55365],[128.34746,38.55443],[128.34766,38.55514],[128.34738,38.55558],[128.34831,38.55652],[128.34841,38.5571],[128.34865,38.5577],[128.34856,38.5583],[128.34804,38.55875],[128.34717,38.56065],[128.34533,38.56282],[128.34388,38.56336],[128.34365,38.5637],[128.3435,38.56631],[128.3415,38.56978],[128.3409,38.57092],[128.34217,38.57182],[128.34283,38.57255],[128.34253,38.57361],[128.34219,38.57409],[128.34241,38.57491],[128.34467,38.57623],[128.34517,38.57676],[128.34431,38.57824],[128.34224,38.57964],[128.34129,38.58098],[128.34125,38.58521],[128.34278,38.58807],[128.34076,38.58735],[128.33744,38.58822],[128.33585,38.59011],[128.33429,38.591],[128.33505,38.59465],[128.33431,38.59588],[128.3344,38.59688],[128.3334,38.59886],[128.3329,38.59928],[128.33248,38.59923],[128.33271,38.59994],[128.33236,38.60107],[128.33238,38.6012],[128.33198,38.60138],[128.32923,38.60023],[128.32838,38.59942],[128.32775,38.59894],[128.32519,38.59848],[128.3226,38.59749],[128.32125,38.59723],[128.31931,38.59607],[128.31809,38.59518],[128.318,38.59494],[128.31634,38.59379],[128.31605,38.59379],[128.31536,38.59358],[128.31393,38.59374],[128.31321,38.59369],[128.31238,38.59407],[128.31189,38.5942],[128.3119,38.59358],[128.31118,38.59395],[128.31084,38.59403],[128.31043,38.59425],[128.31003,38.5942],[128.30972,38.59395],[128.3095,38.59356],[128.30936,38.59283],[128.30954,38.59276],[128.30974,38.592],[128.30967,38.59175],[128.30994,38.59143],[128.30977,38.59111],[128.30983,38.59073],[128.31043,38.59013],[128.3105,38.58982],[128.3103,38.58968],[128.30995,38.58905],[128.31025,38.58884],[128.31071,38.58831],[128.31076,38.5878],[128.31074,38.58732],[128.3111,38.58735],[128.31137,38.58786],[128.31187,38.58756],[128.31247,38.58741],[128.31356,38.58656],[128.31384,38.5858],[128.31368,38.58543],[128.31388,38.58539],[128.31443,38.58476],[128.31402,38.58426],[128.31376,38.5841],[128.31342,38.58375],[128.31316,38.58368],[128.31293,38.58312],[128.31274,38.5829],[128.3126,38.58244],[128.3128,38.58205],[128.31245,38.58153],[128.31229,38.5809],[128.31274,38.58085],[128.3131,38.5807],[128.31328,38.5804],[128.31359,38.58027],[128.3135,38.57974],[128.31458,38.5765],[128.31492,38.57477],[128.3148,38.57418],[128.31462,38.57416],[128.31476,38.57376],[128.31473,38.57338],[128.31454,38.57322],[128.31458,38.57282],[128.3145,38.57214],[128.31414,38.57213],[128.31365,38.57097],[128.31338,38.57076],[128.31329,38.57051],[128.31294,38.5703],[128.31321,38.57009],[128.31212,38.57009],[128.31214,38.5682],[128.31236,38.56804],[128.312,38.56763],[128.31226,38.56718],[128.31242,38.56648],[128.31201,38.56648],[128.31216,38.56603],[128.31219,38.56294],[128.31254,38.56279],[128.31233,38.56225],[128.31232,38.56174],[128.31221,38.56149],[128.31184,38.56135],[128.31222,38.56078],[128.31217,38.55979],[128.31238,38.55974],[128.31243,38.55948],[128.31223,38.55899],[128.31223,38.55871],[128.31243,38.55823],[128.31224,38.55788],[128.31225,38.55684],[128.31206,38.55676],[128.3121,38.55592],[128.31226,38.55592],[128.31226,38.55552],[128.31254,38.55554],[128.31256,38.55517],[128.31208,38.55522],[128.31214,38.555],[128.31246,38.55496],[128.31264,38.55468],[128.31244,38.55409],[128.31213,38.55398],[128.31214,38.55332],[128.31226,38.553],[128.31226,38.55191],[128.31222,38.55185],[128.31203,38.54623],[128.31178,38.54371],[128.31083,38.53904],[128.31069,38.53714],[128.31131,38.53541],[128.31165,38.53324],[128.3117,38.53137],[128.31197,38.52953],[128.31282,38.52616],[128.31237,38.52601],[128.31236,38.52578],[128.31292,38.52577],[128.31299,38.52551],[128.31302,38.52479],[128.31271,38.52454],[128.31311,38.52438],[128.31374,38.52312],[128.31383,38.52247],[128.31374,38.52138],[128.31318,38.51951],[128.31301,38.51867],[128.31303,38.51739],[128.31347,38.51401],[128.3132,38.51236],[128.31124,38.50956],[128.30997,38.50779],[128.30857,38.50644],[128.3074,38.50571],[128.30553,38.50433],[128.30516,38.50381],[128.30522,38.50357],[128.30546,38.50331],[128.30523,38.50316],[128.30536,38.50299],[128.30474,38.50265],[128.30439,38.50261],[128.30575,38.49852],[128.3053,38.49823],[128.30499,38.4976],[128.30502,38.49723],[128.3048,38.49667],[128.30448,38.49652],[128.30369,38.4948],[128.30284,38.49365],[128.30267,38.49349],[128.30246,38.49296],[128.30225,38.49296],[128.30193,38.49253],[128.30158,38.49187],[128.30137,38.49124],[128.30125,38.49068],[128.30151,38.49059],[128.30162,38.49086],[128.30218,38.49075],[128.30202,38.49048],[128.30146,38.48985],[128.30117,38.48929],[128.3016,38.48883],[128.30171,38.48857],[128.30101,38.48795],[128.30114,38.48771],[128.30164,38.48757],[128.30149,38.48724],[128.30166,38.48713],[128.30163,38.48684],[128.30235,38.48664],[128.30177,38.48623],[128.3014,38.4862],[128.3064,38.47967],[128.3069,38.47922],[128.30649,38.4792],[128.30672,38.47858],[128.30614,38.4785],[128.30592,38.47826],[128.30539,38.47793],[128.30499,38.47781],[128.30477,38.47762],[128.30375,38.47708],[128.30323,38.47685],[128.30254,38.47631],[128.30189,38.47586],[128.30144,38.4751],[128.30101,38.47398],[128.30069,38.47332],[128.3004,38.47288],[128.29975,38.47233],[128.29944,38.47191],[128.29909,38.47159],[128.29886,38.47107],[128.29573,38.46105],[128.2956,38.46082],[128.29556,38.46015],[128.2953,38.45975],[128.2947,38.45831],[128.29427,38.45814],[128.29406,38.45772],[128.29351,38.45751],[128.29342,38.45713],[128.29306,38.45701],[128.29212,38.45643],[128.29197,38.45607],[128.29105,38.45479],[128.29199,38.45407],[128.2922,38.45431],[128.29245,38.45405],[128.29202,38.45366],[128.29139,38.45325],[128.29062,38.45268],[128.29035,38.45257],[128.28997,38.45201],[128.28971,38.45244],[128.28929,38.45217],[128.28921,38.45198],[128.28917,38.4512],[128.289,38.45054],[128.28907,38.44985],[128.28742,38.44959],[128.28725,38.44919],[128.28714,38.44832],[128.28701,38.44828],[128.28674,38.44769],[128.28671,38.44727],[128.28625,38.44621],[128.28582,38.44554],[128.28583,38.44518],[128.28563,38.445],[128.28593,38.4446],[128.2857,38.44385],[128.28571,38.44301],[128.28607,38.44234],[128.28493,38.43946],[128.28442,38.43915],[128.28427,38.43873],[128.284,38.43857],[128.28351,38.43845],[128.28343,38.43817],[128.28304,38.43768],[128.28305,38.43745],[128.28355,38.43724],[128.28343,38.43693],[128.28376,38.43668],[128.28344,38.43616],[128.28182,38.43584],[128.28149,38.43559],[128.28071,38.43548],[128.28029,38.43512],[128.28012,38.43513],[128.27887,38.4346],[128.2788,38.43386],[128.2784,38.43335],[128.27775,38.43314],[128.2768,38.43292],[128.27633,38.43257],[128.27609,38.43257],[128.27556,38.43238],[128.27481,38.43234],[128.27448,38.43247],[128.27444,38.43278],[128.27385,38.43246],[128.2738,38.43231],[128.27332,38.43214],[128.27154,38.43115],[128.27012,38.4301],[128.26634,38.42584],[128.26588,38.42537],[128.26576,38.42502],[128.26537,38.42467],[128.26524,38.42491],[128.26487,38.42458],[128.26489,38.42436],[128.26466,38.42417],[128.26422,38.42437],[128.26411,38.4242],[128.26422,38.42397],[128.26357,38.42353],[128.26377,38.42347],[128.2635,38.42317],[128.26244,38.42244],[128.26067,38.42165],[128.26025,38.4219],[128.25938,38.42193],[128.2588,38.4218],[128.2586,38.4215],[128.25757,38.42152],[128.25735,38.42163],[128.25678,38.42139],[128.25672,38.42093],[128.25641,38.42083],[128.2557,38.4203],[128.25588,38.42003],[128.25573,38.41973],[128.25473,38.41924],[128.25475,38.41915],[128.25264,38.41815],[128.25213,38.41801],[128.25173,38.41764],[128.2504,38.41687],[128.24999,38.41652],[128.24847,38.41564],[128.24754,38.4152],[128.24655,38.41523],[128.2458,38.41498],[128.24579,38.41453],[128.2454,38.41398],[128.24518,38.41355],[128.24443,38.41276],[128.24456,38.41251],[128.24438,38.41228],[128.24394,38.41199],[128.24385,38.41171],[128.24396,38.41156],[128.24357,38.41106],[128.24325,38.41088],[128.24385,38.41034],[128.24388,38.41004],[128.24418,38.40941],[128.24591,38.40675],[128.2461,38.40614],[128.24575,38.4056],[128.2443,38.40464],[128.24404,38.40434],[128.2439,38.40366],[128.24338,38.40268],[128.24232,38.40217],[128.2408,38.402],[128.23597,38.40188],[128.23473,38.40171],[128.23276,38.40052],[128.23062,38.39864],[128.22922,38.39684],[128.22813,38.39382],[128.22762,38.39208],[128.22685,38.39054],[128.22615,38.38964],[128.2262,38.38908],[128.22684,38.38859],[128.22687,38.38809],[128.22733,38.38785],[128.22784,38.38794],[128.22886,38.38776],[128.2295,38.38771],[128.23014,38.38777],[128.23049,38.38798],[128.23161,38.388],[128.23204,38.38811],[128.23282,38.38764],[128.23322,38.38756],[128.23361,38.38733],[128.23351,38.38638],[128.23372,38.38623],[128.23351,38.38544],[128.23389,38.38485],[128.23342,38.38429],[128.23297,38.3835],[128.23117,38.38334],[128.23055,38.38292],[128.23004,38.3822],[128.22964,38.38203],[128.22984,38.38127],[128.23007,38.38102],[128.22959,38.37968],[128.22931,38.37948],[128.22917,38.37897],[128.22946,38.37833],[128.22938,38.37798],[128.22962,38.37784],[128.22966,38.37745],[128.23012,38.37653],[128.23045,38.37639],[128.23072,38.37597],[128.23134,38.37544],[128.23141,38.37515],[128.23247,38.37418],[128.2328,38.37343],[128.23368,38.37238],[128.23511,38.37294],[128.23634,38.37414],[128.23658,38.37463],[128.23715,38.37547],[128.23795,38.37595],[128.23825,38.37622],[128.23867,38.37629],[128.23921,38.37572],[128.23992,38.37525],[128.24028,38.37532],[128.24133,38.3751],[128.24222,38.37486],[128.24281,38.37436],[128.24335,38.37418],[128.24353,38.37403],[128.24453,38.37384],[128.24671,38.37247],[128.24715,38.37236],[128.24755,38.3714],[128.24852,38.37078],[128.24891,38.37082],[128.25009,38.37131],[128.2508,38.3713],[128.2512,38.37138],[128.2513,38.37155],[128.25214,38.37205],[128.25367,38.37244],[128.25421,38.37244],[128.25467,38.37259],[128.25507,38.37246],[128.2569,38.37305],[128.25766,38.37275],[128.25869,38.37365],[128.26005,38.37481],[128.26041,38.3755],[128.26095,38.3757],[128.26201,38.37647],[128.26322,38.37626],[128.26518,38.37559],[128.26742,38.37681],[128.26808,38.37651],[128.26857,38.37662],[128.26957,38.37615],[128.27026,38.37513],[128.27077,38.37456],[128.27097,38.37403],[128.27096,38.37334],[128.27183,38.37276],[128.27224,38.37182],[128.27194,38.3714],[128.27213,38.37057],[128.27165,38.37002],[128.27146,38.36925],[128.27177,38.36895],[128.27223,38.36872],[128.27254,38.36817],[128.27207,38.36715],[128.27254,38.36569],[128.2721,38.36488],[128.27135,38.3644],[128.27117,38.36401],[128.27156,38.36216],[128.27116,38.36125],[128.27041,38.36108],[128.27035,38.36077],[128.27006,38.36038],[128.27005,38.35949],[128.26943,38.35837],[128.26903,38.35703],[128.26896,38.35637],[128.26856,38.35631],[128.26825,38.35578],[128.26834,38.35541],[128.26792,38.35505],[128.26701,38.35478],[128.26677,38.35429],[128.2668,38.35398],[128.26661,38.35345],[128.26609,38.35289],[128.26588,38.35233],[128.26522,38.35187],[128.26452,38.35161],[128.26456,38.35097],[128.26504,38.34952],[128.26613,38.34856],[128.2676,38.34778],[128.26762,38.34711],[128.26779,38.34667],[128.26818,38.34633],[128.26795,38.34569],[128.26743,38.34504],[128.26753,38.34448],[128.26809,38.34296],[128.26832,38.34265],[128.26819,38.3423],[128.26794,38.34015],[128.27017,38.33778],[128.27048,38.33698],[128.27087,38.33696],[128.27243,38.33651],[128.27375,38.33546],[128.27432,38.33551],[128.27559,38.33641],[128.2767,38.33773],[128.27777,38.33779],[128.27826,38.33772],[128.27873,38.33793],[128.27974,38.33801],[128.28174,38.33953],[128.28211,38.34],[128.28275,38.33983],[128.28493,38.33973],[128.28635,38.33982],[128.28746,38.34009],[128.28783,38.33971],[128.28838,38.33946],[128.28871,38.33915],[128.28962,38.33882],[128.2901,38.33806],[128.29118,38.33753],[128.29135,38.33726],[128.29193,38.33744],[128.29349,38.337],[128.29439,38.33703],[128.29504,38.33646],[128.29557,38.33625],[128.29605,38.33649],[128.297,38.33569],[128.29751,38.33558],[128.29789,38.33497],[128.2986,38.33435],[128.29955,38.33384],[128.30087,38.3336],[128.30238,38.3337],[128.30293,38.33354],[128.30431,38.33366],[128.30502,38.3336],[128.30542,38.3334],[128.30773,38.33325],[128.30904,38.33328],[128.31086,38.33211],[128.3121,38.33059],[128.31346,38.33071],[128.31491,38.33128],[128.31665,38.33206],[128.31733,38.33295],[128.31844,38.33382],[128.31798,38.33421],[128.31718,38.33514],[128.3173,38.3355],[128.31706,38.33672],[128.31706,38.33729],[128.31752,38.33816],[128.31752,38.33902],[128.31739,38.33982],[128.318,38.3407],[128.31917,38.34179],[128.31885,38.34247],[128.31848,38.34298],[128.31808,38.34446],[128.3174,38.34559],[128.31741,38.34608],[128.31821,38.34677],[128.31876,38.3469],[128.31989,38.34747],[128.32049,38.34801],[128.32091,38.34822],[128.32132,38.34868],[128.32179,38.3489],[128.32243,38.3493],[128.32294,38.35],[128.32405,38.35094],[128.3245,38.35163],[128.32465,38.35175],[128.32657,38.35185],[128.32699,38.35217],[128.32744,38.35221],[128.32787,38.35241],[128.32841,38.35255],[128.32865,38.35285],[128.32927,38.35334],[128.32976,38.354],[128.3304,38.35443],[128.33082,38.35515],[128.33082,38.35561],[128.33107,38.35573],[128.33206,38.35645],[128.33289,38.35757],[128.33225,38.35806],[128.33222,38.35845],[128.33203,38.35889],[128.33202,38.35987],[128.33236,38.36055],[128.33282,38.36083],[128.33367,38.36107],[128.33479,38.36198],[128.33524,38.36245],[128.33515,38.36313],[128.33522,38.36349],[128.3355,38.36387],[128.3357,38.36464],[128.33538,38.36518],[128.33534,38.36615],[128.3356,38.36647],[128.33593,38.36764],[128.33564,38.36846],[128.33532,38.36878],[128.335,38.36933],[128.3337,38.37058],[128.33365,38.37089],[128.33333,38.3715],[128.33241,38.37221],[128.33212,38.37282],[128.33136,38.37393],[128.33187,38.37481],[128.33223,38.37569],[128.33219,38.37635],[128.33251,38.37754],[128.33295,38.37824],[128.33328,38.37959],[128.33311,38.38002],[128.33337,38.3805],[128.33333,38.38106],[128.33371,38.38142],[128.33491,38.38175],[128.33537,38.38215],[128.33574,38.38231],[128.33661,38.38336],[128.33707,38.38412],[128.33763,38.38495],[128.33859,38.38678],[128.33893,38.38767],[128.33984,38.38854],[128.34065,38.38891],[128.3413,38.38909],[128.34243,38.39002],[128.34289,38.39017],[128.34368,38.3908],[128.34477,38.39096],[128.34548,38.39129],[128.34606,38.39222],[128.34681,38.39399],[128.34657,38.39508],[128.34675,38.3959],[128.34737,38.39773],[128.34774,38.39829],[128.34836,38.39942],[128.34855,38.39987],[128.34836,38.40001],[128.34788,38.40035],[128.3466,38.40147],[128.34768,38.40181],[128.34985,38.40399],[128.34981,38.40489],[128.34925,38.40558],[128.3491,38.40652],[128.34906,38.40744],[128.34872,38.40833],[128.34788,38.41002],[128.34782,38.411],[128.34781,38.41188],[128.34691,38.41259],[128.34605,38.41317],[128.34613,38.41362],[128.34627,38.41391],[128.34588,38.41421],[128.34571,38.41454],[128.34583,38.41534],[128.3458,38.4158],[128.34614,38.41721],[128.34649,38.4178],[128.34615,38.41869],[128.3458,38.41927],[128.34577,38.41975],[128.34598,38.42078],[128.34626,38.4214],[128.34667,38.4219],[128.34674,38.42237],[128.34662,38.42302],[128.34594,38.42355],[128.34529,38.42422],[128.34477,38.4252],[128.34471,38.42579],[128.34324,38.42676],[128.34258,38.4283],[128.34338,38.42878],[128.34471,38.42945],[128.34588,38.42978],[128.34636,38.4302],[128.34778,38.43187],[128.34853,38.43239],[128.34942,38.43224],[128.35098,38.43207],[128.35201,38.43316],[128.353,38.43349],[128.35343,38.43462],[128.35356,38.43557],[128.35413,38.43602],[128.35437,38.43706],[128.35602,38.43793],[128.35661,38.43834],[128.35696,38.43928],[128.35673,38.44022],[128.35627,38.44073],[128.35643,38.44134],[128.35627,38.44245],[128.35656,38.44268],[128.35623,38.44356],[128.35562,38.44417],[128.35563,38.446],[128.35586,38.44635],[128.35539,38.4469],[128.35479,38.44776],[128.35437,38.44801],[128.35446,38.44917],[128.35373,38.44964],[128.35411,38.45022],[128.35347,38.45106],[128.35286,38.45141],[128.35273,38.45227],[128.3531,38.45284],[128.35267,38.45345],[128.35237,38.45367],[128.35208,38.45409],[128.35189,38.45484],[128.35188,38.45589],[128.3514,38.45625],[128.35169,38.45709],[128.35164,38.45759],[128.35171,38.45886],[128.35231,38.45969],[128.35274,38.46013],[128.35279,38.46036],[128.35341,38.46085],[128.35337,38.46239],[128.35377,38.46312],[128.35507,38.46387],[128.35601,38.46439]]]},"properties":{"code":"32600260","name":"수동면"}},{"type":"Feature","geometry":{"type":"MultiPolygon","coordinates":[[[[128.44475,38.48734],[128.44441,38.48756],[128.44439,38.48724],[128.44399,38.48725],[128.44337,38.48669],[128.44314,38.4866],[128.44314,38.48622],[128.44301,38.48571],[128.44316,38.48531],[128.4437,38.48529],[128.44489,38.48543],[128.44495,38.48577],[128.44444,38.48602],[128.44435,38.48626],[128.44476,38.48705],[128.44511,38.48702],[128.44508,38.48724],[128.44475,38.48734]]],[[[128.42279,38.51187],[128.42228,38.51169],[128.42152,38.51094],[128.42214,38.51075],[128.42274,38.51101],[128.42311,38.51126],[128.42325,38.51147],[128.42279,38.51187]]],[[[128.40991,38.5604],[128.41016,38.56086],[128.40972,38.56177],[128.40968,38.56232],[128.40947,38.56241],[128.40904,38.56191],[128.40898,38.56146],[128.4085,38.56063],[128.40858,38.56031],[128.40913,38.5603],[128.40991,38.5604]]],[[[128.36901,38.59505],[128.36896,38.59563],[128.36831,38.59635],[128.36805,38.59635],[128.36894,38.59494],[128.36901,38.59505]]],[[[128.35966,38.61071],[128.35935,38.611],[128.35906,38.61105],[128.35915,38.61062],[128.35947,38.61014],[128.35978,38.61006],[128.35998,38.61019],[128.35992,38.61044],[128.35966,38.61071]]],[[[128.35897,38.61142],[128.35874,38.61174],[128.35854,38.61168],[128.35882,38.61132],[128.35897,38.61142]]],[[[128.43802,38.47967],[128.43741,38.48095],[128.43747,38.48159],[128.43826,38.48239],[128.43812,38.48288],[128.43811,38.4833],[128.43867,38.48379],[128.43888,38.48414],[128.4391,38.48432],[128.43912,38.48454],[128.43896,38.48475],[128.4391,38.48498],[128.4383,38.48628],[128.43877,38.48645],[128.43928,38.48582],[128.4394,38.48588],[128.43883,38.4866],[128.4385,38.4873],[128.43806,38.48749],[128.43737,38.48748],[128.43673,38.4872],[128.4363,38.48714],[128.43576,38.48681],[128.43544,38.4868],[128.43488,38.48693],[128.43411,38.48731],[128.43317,38.48796],[128.4331,38.48792],[128.43249,38.48845],[128.43091,38.49],[128.43013,38.49068],[128.4296,38.49146],[128.42927,38.49208],[128.42901,38.49274],[128.42881,38.49345],[128.42908,38.49426],[128.42957,38.4948],[128.42954,38.49542],[128.42975,38.49591],[128.4297,38.49634],[128.42942,38.4965],[128.42755,38.49741],[128.42686,38.4979],[128.42652,38.49835],[128.42634,38.49885],[128.42661,38.49903],[128.42673,38.49945],[128.42636,38.49925],[128.4252,38.49942],[128.42453,38.50017],[128.42494,38.50133],[128.42669,38.5014],[128.42703,38.50225],[128.42896,38.50238],[128.42911,38.50064],[128.42908,38.50045],[128.4295,38.49976],[128.42972,38.49971],[128.42925,38.50051],[128.42908,38.50228],[128.42902,38.50317],[128.42943,38.50351],[128.42999,38.50373],[128.42994,38.50405],[128.42972,38.50403],[128.42868,38.50416],[128.42839,38.50414],[128.42799,38.50395],[128.42791,38.5038],[128.4275,38.50385],[128.42715,38.50376],[128.42663,38.50374],[128.42518,38.50394],[128.42431,38.50411],[128.42411,38.50436],[128.42364,38.5045],[128.423,38.50493],[128.4223,38.50517],[128.42238,38.50533],[128.42195,38.50587],[128.42153,38.50592],[128.42139,38.50633],[128.42099,38.50645],[128.42075,38.50722],[128.42048,38.50761],[128.42057,38.50777],[128.42029,38.50821],[128.42024,38.50888],[128.42061,38.50945],[128.4211,38.50993],[128.42122,38.51018],[128.42106,38.51039],[128.41956,38.51077],[128.4189,38.51131],[128.41854,38.5118],[128.4184,38.51244],[128.41846,38.51298],[128.41865,38.51341],[128.41888,38.51352],[128.41968,38.51358],[128.4208,38.51407],[128.42046,38.51457],[128.42009,38.5147],[128.41933,38.51531],[128.4191,38.5164],[128.41915,38.51663],[128.41898,38.51703],[128.41915,38.51741],[128.41919,38.5178],[128.41934,38.51807],[128.41879,38.51846],[128.41815,38.51867],[128.41797,38.51863],[128.41768,38.51885],[128.41736,38.51936],[128.41747,38.51962],[128.41778,38.51981],[128.4184,38.52048],[128.41938,38.52083],[128.41992,38.52087],[128.42022,38.52072],[128.42032,38.52051],[128.42106,38.52022],[128.42148,38.52026],[128.42175,38.52037],[128.42244,38.52031],[128.42292,38.52036],[128.42322,38.52098],[128.42304,38.52117],[128.42306,38.52142],[128.42295,38.52228],[128.42342,38.52254],[128.42352,38.52269],[128.424,38.52284],[128.42369,38.52325],[128.42294,38.5236],[128.42208,38.5233],[128.4211,38.52313],[128.42046,38.52341],[128.41907,38.52356],[128.41877,38.52348],[128.41851,38.52374],[128.41789,38.52418],[128.41762,38.52452],[128.41738,38.52573],[128.41691,38.52618],[128.41677,38.52708],[128.41697,38.52872],[128.41706,38.52912],[128.41697,38.52937],[128.41661,38.5295],[128.41571,38.52916],[128.41498,38.52919],[128.41423,38.52955],[128.41414,38.52992],[128.41364,38.53039],[128.41326,38.53052],[128.41279,38.53045],[128.41187,38.53116],[128.41205,38.53149],[128.41211,38.53184],[128.41199,38.53192],[128.41172,38.53307],[128.41171,38.5335],[128.41197,38.53389],[128.41244,38.53423],[128.41248,38.53454],[128.41234,38.53498],[128.41158,38.53555],[128.41149,38.53597],[128.41072,38.53713],[128.41029,38.53793],[128.40935,38.53872],[128.40806,38.53938],[128.4078,38.53974],[128.40719,38.54013],[128.40698,38.54095],[128.40601,38.54191],[128.40573,38.54383],[128.4055,38.54436],[128.40494,38.54453],[128.40456,38.54452],[128.40512,38.54512],[128.4057,38.5452],[128.4064,38.54561],[128.40704,38.54569],[128.40769,38.54572],[128.40829,38.5462],[128.40853,38.54678],[128.40859,38.54729],[128.40921,38.54739],[128.41014,38.54699],[128.41051,38.54716],[128.4106,38.54735],[128.4101,38.54771],[128.40984,38.5477],[128.40953,38.54829],[128.4092,38.54845],[128.40788,38.54926],[128.4077,38.54948],[128.40767,38.54999],[128.40746,38.5506],[128.40776,38.55098],[128.40834,38.55102],[128.40879,38.55088],[128.40901,38.5505],[128.40928,38.55034],[128.4096,38.5504],[128.40988,38.5507],[128.41001,38.55101],[128.41041,38.55094],[128.41034,38.5512],[128.41106,38.55187],[128.41038,38.55238],[128.40992,38.55259],[128.40983,38.55308],[128.41008,38.55374],[128.41047,38.55426],[128.41097,38.55484],[128.41105,38.55526],[128.41084,38.55588],[128.41049,38.55615],[128.40993,38.55625],[128.40884,38.55603],[128.40848,38.55531],[128.4079,38.5549],[128.40688,38.55484],[128.40606,38.55502],[128.40525,38.55512],[128.40478,38.55536],[128.40457,38.55612],[128.4046,38.55644],[128.4044,38.55707],[128.40422,38.55723],[128.40433,38.55779],[128.40486,38.55842],[128.40533,38.55856],[128.40557,38.55839],[128.40589,38.55868],[128.40644,38.55898],[128.40645,38.5593],[128.40662,38.55966],[128.40635,38.55972],[128.4062,38.55931],[128.40597,38.55913],[128.40532,38.55905],[128.40456,38.55925],[128.40408,38.55951],[128.40378,38.55987],[128.40352,38.5605],[128.40341,38.56119],[128.40349,38.56188],[128.40329,38.56365],[128.40317,38.56397],[128.40311,38.56445],[128.40324,38.56499],[128.40308,38.56555],[128.40251,38.56625],[128.40213,38.56624],[128.4019,38.56587],[128.40211,38.56499],[128.40195,38.56473],[128.40156,38.56518],[128.40107,38.56493],[128.40067,38.56511],[128.4004,38.5654],[128.40013,38.56518],[128.39944,38.56527],[128.39849,38.5655],[128.39819,38.5655],[128.39806,38.56577],[128.39768,38.56593],[128.39705,38.5663],[128.39644,38.5669],[128.39624,38.56736],[128.39573,38.56788],[128.39527,38.56794],[128.39451,38.56848],[128.39375,38.56885],[128.39413,38.56919],[128.39454,38.56934],[128.39452,38.57037],[128.39427,38.57079],[128.39428,38.57114],[128.39394,38.57168],[128.39395,38.57204],[128.3943,38.57228],[128.39451,38.5726],[128.39447,38.57286],[128.39401,38.5733],[128.39354,38.57293],[128.39316,38.57247],[128.3924,38.57239],[128.39121,38.57274],[128.38964,38.57378],[128.38891,38.57462],[128.38847,38.57517],[128.38791,38.57568],[128.38731,38.57576],[128.38689,38.57596],[128.38647,38.57635],[128.38639,38.5767],[128.3861,38.57702],[128.38548,38.57739],[128.38524,38.57785],[128.38375,38.57926],[128.38296,38.58006],[128.38288,38.58038],[128.38184,38.58145],[128.381,38.58171],[128.37967,38.58318],[128.37878,38.58472],[128.37796,38.58646],[128.37768,38.58671],[128.37752,38.58702],[128.37719,38.58708],[128.37659,38.58754],[128.37528,38.58828],[128.37411,38.5887],[128.37429,38.58881],[128.37376,38.58926],[128.37275,38.59019],[128.37267,38.5905],[128.37205,38.59063],[128.37123,38.5916],[128.37031,38.59289],[128.37012,38.59303],[128.36996,38.59339],[128.36926,38.59347],[128.36834,38.59424],[128.36835,38.59444],[128.36888,38.59481],[128.36763,38.59678],[128.36776,38.59683],[128.36812,38.59643],[128.36811,38.59694],[128.36727,38.59755],[128.36673,38.59815],[128.36678,38.59857],[128.36666,38.59895],[128.36588,38.59998],[128.36549,38.60086],[128.36572,38.60113],[128.36586,38.60154],[128.36574,38.60199],[128.36587,38.60214],[128.36572,38.60243],[128.36519,38.60278],[128.3643,38.60277],[128.36393,38.60266],[128.36363,38.60304],[128.36379,38.60335],[128.36363,38.60364],[128.36291,38.60319],[128.3627,38.60347],[128.36237,38.60339],[128.36217,38.60371],[128.36091,38.60409],[128.3601,38.60489],[128.36018,38.60515],[128.36088,38.60589],[128.36075,38.60635],[128.36044,38.60664],[128.35949,38.60805],[128.36018,38.60835],[128.35985,38.60892],[128.35951,38.60925],[128.35969,38.60952],[128.35944,38.60964],[128.35931,38.61019],[128.35905,38.61032],[128.35893,38.61114],[128.35853,38.61148],[128.3582,38.61191],[128.35811,38.61236],[128.35775,38.61263],[128.35749,38.61319],[128.35727,38.61349],[128.35678,38.61371],[128.35631,38.61369],[128.35597,38.6135],[128.35575,38.61351],[128.35457,38.61304],[128.35423,38.61271],[128.35381,38.61272],[128.35308,38.61245],[128.35327,38.61206],[128.35349,38.61195],[128.35206,38.61173],[128.34958,38.61177],[128.3478,38.61168],[128.34781,38.6118],[128.34736,38.61218],[128.3474,38.61181],[128.34753,38.61166],[128.34647,38.61161],[128.34473,38.61127],[128.34243,38.61016],[128.34148,38.60901],[128.33951,38.60618],[128.33835,38.60408],[128.3382,38.60274],[128.33764,38.60286],[128.33731,38.60325],[128.33741,38.60361],[128.33711,38.60381],[128.3374,38.60449],[128.33722,38.60453],[128.33692,38.60402],[128.33701,38.60366],[128.33676,38.60279],[128.33655,38.60251],[128.33686,38.60231],[128.33709,38.60169],[128.33553,38.60192],[128.33421,38.60191],[128.33215,38.60145],[128.33198,38.60138],[128.33238,38.6012],[128.33236,38.60107],[128.33271,38.59994],[128.33248,38.59923],[128.3329,38.59928],[128.3334,38.59886],[128.3344,38.59688],[128.33431,38.59588],[128.33505,38.59465],[128.33429,38.591],[128.33585,38.59011],[128.33744,38.58822],[128.34076,38.58735],[128.34278,38.58807],[128.34125,38.58521],[128.34129,38.58098],[128.34224,38.57964],[128.34431,38.57824],[128.34517,38.57676],[128.34467,38.57623],[128.34241,38.57491],[128.34219,38.57409],[128.34253,38.57361],[128.34283,38.57255],[128.34217,38.57182],[128.3409,38.57092],[128.3415,38.56978],[128.3435,38.56631],[128.34365,38.5637],[128.34388,38.56336],[128.34533,38.56282],[128.34717,38.56065],[128.34804,38.55875],[128.34856,38.5583],[128.34865,38.5577],[128.34841,38.5571],[128.34831,38.55652],[128.34738,38.55558],[128.34766,38.55514],[128.34746,38.55443],[128.3468,38.55365],[128.34581,38.55331],[128.34578,38.55196],[128.34584,38.55014],[128.34628,38.549],[128.34681,38.54816],[128.34704,38.54718],[128.34703,38.54645],[128.34609,38.54527],[128.34633,38.54381],[128.34693,38.54146],[128.34767,38.54085],[128.34829,38.53952],[128.34836,38.53898],[128.3483,38.53856],[128.34745,38.53855],[128.34667,38.53732],[128.34652,38.53659],[128.34547,38.53663],[128.34461,38.53626],[128.34333,38.53643],[128.34318,38.53609],[128.34285,38.53588],[128.34245,38.53581],[128.34187,38.53584],[128.34177,38.53406],[128.34182,38.53335],[128.3417,38.53326],[128.34151,38.53271],[128.34155,38.53204],[128.34136,38.53115],[128.34126,38.53032],[128.34068,38.5301],[128.3398,38.52958],[128.33977,38.52918],[128.33919,38.52894],[128.33896,38.52873],[128.33827,38.52858],[128.33816,38.52791],[128.33775,38.52764],[128.33634,38.52733],[128.33559,38.52634],[128.3347,38.52597],[128.33464,38.52571],[128.33483,38.52466],[128.33541,38.52369],[128.33485,38.52253],[128.33505,38.5221],[128.33548,38.52148],[128.33576,38.52078],[128.33669,38.52038],[128.33739,38.51928],[128.3373,38.51904],[128.33789,38.51806],[128.33795,38.51733],[128.33822,38.51653],[128.33878,38.51598],[128.33861,38.51518],[128.33952,38.51431],[128.33979,38.51341],[128.34021,38.51315],[128.34026,38.51257],[128.34,38.51221],[128.34068,38.51164],[128.34087,38.51064],[128.34062,38.5101],[128.34052,38.50904],[128.34089,38.50861],[128.34081,38.50759],[128.34105,38.50726],[128.34078,38.50673],[128.34068,38.50553],[128.34088,38.50501],[128.34139,38.50484],[128.34218,38.50444],[128.34284,38.50255],[128.3426,38.50211],[128.34359,38.50191],[128.34438,38.50188],[128.34554,38.50107],[128.3456,38.50062],[128.34532,38.50032],[128.34516,38.49986],[128.34468,38.49938],[128.34474,38.49882],[128.34461,38.49831],[128.3447,38.49791],[128.34448,38.49758],[128.34381,38.49692],[128.34363,38.49637],[128.34378,38.49587],[128.34356,38.49526],[128.3436,38.49504],[128.34385,38.49482],[128.34386,38.49448],[128.34358,38.49414],[128.34304,38.4939],[128.3423,38.4937],[128.34161,38.49339],[128.34141,38.49307],[128.34075,38.4928],[128.34053,38.49243],[128.33959,38.49171],[128.33966,38.49117],[128.33933,38.49076],[128.33932,38.49032],[128.33979,38.48969],[128.33968,38.4893],[128.3398,38.48843],[128.34003,38.48781],[128.34064,38.48758],[128.34076,38.48735],[128.34034,38.48671],[128.34023,38.48608],[128.34038,38.48558],[128.34012,38.48517],[128.34026,38.48437],[128.33999,38.48387],[128.33965,38.48352],[128.3395,38.48297],[128.33965,38.48243],[128.33968,38.48125],[128.33949,38.48094],[128.3395,38.48039],[128.33921,38.4789],[128.33786,38.47801],[128.33929,38.47713],[128.33996,38.47735],[128.34107,38.47706],[128.34163,38.47708],[128.34292,38.47666],[128.34387,38.47673],[128.34528,38.47615],[128.34527,38.47584],[128.34572,38.47535],[128.34626,38.47503],[128.34682,38.47486],[128.34717,38.47461],[128.34811,38.47441],[128.34903,38.47406],[128.34943,38.47383],[128.35017,38.47379],[128.35083,38.47304],[128.35171,38.47256],[128.35263,38.47153],[128.35322,38.47116],[128.35338,38.47026],[128.3539,38.46991],[128.35377,38.46933],[128.35445,38.46853],[128.35545,38.46697],[128.35516,38.46678],[128.355,38.46626],[128.35575,38.46505],[128.35601,38.46439],[128.35725,38.46478],[128.35861,38.46513],[128.35936,38.46527],[128.36019,38.46519],[128.36094,38.46504],[128.36131,38.46522],[128.36183,38.46575],[128.3638,38.46652],[128.3651,38.46701],[128.36645,38.46733],[128.36796,38.46872],[128.36919,38.46938],[128.37085,38.47086],[128.37131,38.47107],[128.37175,38.47168],[128.3724,38.47339],[128.37344,38.47433],[128.3743,38.4746],[128.37545,38.47462],[128.37708,38.47403],[128.37841,38.47402],[128.37994,38.47409],[128.38062,38.47395],[128.38138,38.47396],[128.38665,38.47389],[128.38675,38.47387],[128.38855,38.47288],[128.38912,38.47305],[128.38954,38.4731],[128.39021,38.47297],[128.39124,38.4731],[128.39206,38.47258],[128.39257,38.47197],[128.39287,38.47186],[128.39296,38.47087],[128.39398,38.46935],[128.39505,38.46892],[128.3956,38.46894],[128.39584,38.46833],[128.3995,38.46708],[128.40053,38.46642],[128.40127,38.46606],[128.40459,38.46596],[128.4049,38.46613],[128.40534,38.4658],[128.40572,38.46516],[128.40592,38.46496],[128.40608,38.4645],[128.40637,38.4642],[128.40642,38.464],[128.40626,38.46328],[128.40636,38.4631],[128.40692,38.46252],[128.40736,38.46236],[128.40766,38.46215],[128.40924,38.46158],[128.40958,38.46156],[128.41012,38.4611],[128.41055,38.4609],[128.41055,38.46067],[128.41115,38.45991],[128.41145,38.45966],[128.41208,38.4595],[128.41248,38.45964],[128.41271,38.45932],[128.41337,38.45919],[128.41359,38.45899],[128.4142,38.45865],[128.41498,38.45849],[128.41507,38.45789],[128.4157,38.45769],[128.41626,38.45741],[128.41645,38.45741],[128.41698,38.45688],[128.41738,38.4566],[128.41835,38.45715],[128.41873,38.45731],[128.41923,38.45736],[128.41956,38.45763],[128.41976,38.45806],[128.42027,38.45875],[128.42041,38.45927],[128.42067,38.45961],[128.42151,38.46009],[128.42183,38.46018],[128.42252,38.46064],[128.4229,38.46055],[128.42356,38.46053],[128.42418,38.4608],[128.4246,38.4608],[128.42525,38.46105],[128.42616,38.46163],[128.42671,38.4619],[128.42713,38.46233],[128.42844,38.46336],[128.42906,38.46373],[128.43287,38.46387],[128.43463,38.46693],[128.43701,38.46839],[128.43946,38.47051],[128.43884,38.47227],[128.43665,38.47325],[128.43616,38.47435],[128.43588,38.47715],[128.43477,38.47888],[128.43802,38.47967]]]]},"properties":{"code":"32600310","name":"현내면"}},{"type":"Feature","geometry":{"type":"MultiPolygon","coordinates":[[[[128.55208,38.29406],[128.55193,38.29375],[128.55242,38.29351],[128.55307,38.29368],[128.5527,38.29395],[128.55208,38.29406]]],[[[128.55038,38.29497],[128.5499,38.29481],[128.55063,38.2945],[128.55119,38.29442],[128.55138,38.29447],[128.55133,38.29481],[128.55085,38.29464],[128.55057,38.29474],[128.55038,38.29497]]],[[[128.54994,38.31362],[128.54995,38.31322],[128.55013,38.31291],[128.55041,38.31306],[128.55039,38.31331],[128.54994,38.31362]]],[[[128.54561,38.31319],[128.54564,38.31344],[128.5452,38.31377],[128.54489,38.31332],[128.54527,38.31307],[128.54527,38.31284],[128.54555,38.31269],[128.5457,38.31295],[128.54561,38.31319]]],[[[128.54957,38.31379],[128.5492,38.31382],[128.54911,38.31327],[128.54954,38.31308],[128.54979,38.31348],[128.54957,38.31379]]],[[[128.54476,38.31811],[128.54483,38.31828],[128.54466,38.31863],[128.54442,38.31886],[128.54413,38.31865],[128.54423,38.31809],[128.54476,38.31811]]],[[[128.53414,38.32023],[128.53386,38.32026],[128.53381,38.31996],[128.53468,38.31962],[128.53491,38.31986],[128.53467,38.3201],[128.53414,38.32023]]],[[[128.53121,38.32115],[128.53105,38.32107],[128.5311,38.32075],[128.53151,38.32069],[128.53146,38.32112],[128.53121,38.32115]]],[[[128.53351,38.33685],[128.5332,38.33716],[128.53248,38.33683],[128.53198,38.33639],[128.53185,38.33601],[128.5319,38.3357],[128.5327,38.33512],[128.53348,38.33477],[128.5339,38.33452],[128.53423,38.33444],[128.53456,38.33421],[128.53531,38.33443],[128.53548,38.33419],[128.53595,38.33409],[128.53633,38.33418],[128.53643,38.3345],[128.53626,38.33455],[128.53641,38.3349],[128.53605,38.33521],[128.53528,38.33548],[128.53496,38.3358],[128.53418,38.33602],[128.53384,38.33635],[128.53386,38.33662],[128.53351,38.33685]]],[[[128.54736,38.29286],[128.54774,38.29377],[128.54807,38.29431],[128.54848,38.29469],[128.54935,38.29509],[128.54928,38.29525],[128.55029,38.29611],[128.55106,38.29557],[128.55098,38.29515],[128.55119,38.29513],[128.55126,38.29567],[128.55146,38.29557],[128.55223,38.29557],[128.55143,38.29622],[128.55038,38.29666],[128.54991,38.29663],[128.54974,38.29699],[128.54929,38.29696],[128.54898,38.29673],[128.54861,38.29671],[128.54795,38.29703],[128.54742,38.2975],[128.54698,38.29852],[128.54691,38.29893],[128.54695,38.29967],[128.54705,38.30008],[128.54738,38.30071],[128.54799,38.30133],[128.54858,38.30175],[128.54882,38.30176],[128.54916,38.30153],[128.54964,38.30141],[128.54971,38.30159],[128.54923,38.30168],[128.54901,38.30195],[128.54957,38.30208],[128.54919,38.30237],[128.54885,38.30236],[128.54838,38.30265],[128.5488,38.30307],[128.54942,38.3028],[128.55024,38.30274],[128.55029,38.30188],[128.55024,38.30095],[128.55063,38.30097],[128.55054,38.30137],[128.55057,38.30239],[128.55046,38.30295],[128.55063,38.30296],[128.55104,38.3033],[128.55113,38.30365],[128.55036,38.30382],[128.55009,38.30398],[128.54952,38.30413],[128.54905,38.304],[128.54872,38.30412],[128.54845,38.30437],[128.54844,38.30466],[128.54797,38.30491],[128.54809,38.30546],[128.54788,38.30588],[128.54756,38.30602],[128.54735,38.3059],[128.54691,38.30596],[128.54679,38.30609],[128.54596,38.30629],[128.54458,38.30668],[128.54429,38.30686],[128.54357,38.30679],[128.54338,38.30712],[128.54311,38.30805],[128.54308,38.30864],[128.54315,38.30907],[128.54332,38.30941],[128.54365,38.30979],[128.54412,38.31006],[128.54396,38.31029],[128.54425,38.31056],[128.54433,38.31095],[128.54394,38.31122],[128.5435,38.31121],[128.54321,38.31129],[128.54318,38.31149],[128.54273,38.31158],[128.54251,38.31139],[128.54214,38.31129],[128.54162,38.31143],[128.54091,38.31172],[128.5405,38.31197],[128.53868,38.3129],[128.53807,38.31328],[128.53719,38.31392],[128.53622,38.31468],[128.53534,38.31552],[128.53495,38.31584],[128.53384,38.3169],[128.53358,38.31727],[128.53298,38.31787],[128.53279,38.3182],[128.53272,38.31873],[128.53175,38.31924],[128.53116,38.31946],[128.53071,38.3198],[128.53058,38.32021],[128.53,38.32036],[128.52903,38.32087],[128.52858,38.32129],[128.52817,38.32194],[128.52793,38.3228],[128.52784,38.32378],[128.52808,38.32452],[128.52851,38.32509],[128.52904,38.32542],[128.5286,38.32594],[128.52838,38.32605],[128.52838,38.32633],[128.52894,38.32574],[128.52919,38.32515],[128.5299,38.32486],[128.52994,38.32503],[128.52946,38.3252],[128.52928,38.32536],[128.52914,38.32579],[128.52858,38.32657],[128.5285,38.32678],[128.5296,38.32697],[128.52966,38.32679],[128.52994,38.32669],[128.52987,38.32606],[128.5305,38.3253],[128.53069,38.32474],[128.53099,38.32491],[128.53075,38.32546],[128.53022,38.32614],[128.5304,38.32697],[128.53076,38.32704],[128.53088,38.32757],[128.53029,38.32813],[128.52955,38.3284],[128.52905,38.32822],[128.5287,38.3282],[128.52828,38.32877],[128.52811,38.32946],[128.52819,38.33037],[128.5283,38.33048],[128.52838,38.33153],[128.52868,38.33216],[128.52871,38.33249],[128.52893,38.33284],[128.52891,38.33317],[128.52848,38.33353],[128.52806,38.33372],[128.52693,38.33402],[128.5264,38.33429],[128.52529,38.33472],[128.52505,38.33496],[128.5245,38.33536],[128.52378,38.33577],[128.52264,38.33671],[128.522,38.33705],[128.52175,38.33742],[128.52083,38.33814],[128.52053,38.3383],[128.5201,38.33887],[128.51972,38.3392],[128.51938,38.33964],[128.51905,38.33986],[128.5185,38.34051],[128.51789,38.34107],[128.51736,38.34174],[128.51686,38.34217],[128.51631,38.34274],[128.51575,38.34349],[128.51483,38.34442],[128.51433,38.34519],[128.51397,38.34556],[128.51351,38.34613],[128.51332,38.34661],[128.51275,38.34725],[128.51247,38.34805],[128.51235,38.34871],[128.51251,38.34921],[128.51274,38.34953],[128.51344,38.34983],[128.51373,38.34981],[128.51374,38.34951],[128.51387,38.3493],[128.51387,38.35069],[128.51373,38.3505],[128.51364,38.35005],[128.51255,38.35004],[128.51221,38.35045],[128.51233,38.35105],[128.51269,38.35171],[128.51318,38.35226],[128.51394,38.35283],[128.51356,38.35291],[128.51274,38.35325],[128.51136,38.35324],[128.51137,38.35395],[128.5131,38.35512],[128.51495,38.3535],[128.515,38.35223],[128.5149,38.35185],[128.51524,38.35176],[128.51533,38.35196],[128.51524,38.35359],[128.51337,38.35519],[128.51267,38.35606],[128.51291,38.35616],[128.51343,38.35601],[128.51356,38.35631],[128.5132,38.35658],[128.51291,38.35646],[128.51263,38.35619],[128.51186,38.35591],[128.51147,38.35595],[128.51065,38.35622],[128.51009,38.35657],[128.50961,38.35717],[128.50918,38.35811],[128.50841,38.35916],[128.50751,38.36082],[128.50744,38.36147],[128.50718,38.36213],[128.50706,38.36283],[128.50709,38.36325],[128.50701,38.36353],[128.50717,38.36376],[128.50733,38.36454],[128.50765,38.36485],[128.50804,38.36557],[128.50849,38.366],[128.50908,38.3664],[128.50969,38.36668],[128.51021,38.36677],[128.51007,38.36647],[128.51041,38.36617],[128.51105,38.36588],[128.51095,38.36615],[128.51041,38.36642],[128.51068,38.36715],[128.51136,38.36769],[128.51169,38.36807],[128.51243,38.368],[128.51272,38.3679],[128.51244,38.36722],[128.51252,38.36716],[128.51208,38.36609],[128.51195,38.36532],[128.51234,38.36539],[128.51239,38.36607],[128.51248,38.36639],[128.51301,38.36775],[128.51344,38.36772],[128.51358,38.36761],[128.51388,38.36799],[128.51392,38.36821],[128.51377,38.36849],[128.51348,38.36867],[128.51284,38.36862],[128.51273,38.36879],[128.51216,38.3691],[128.51223,38.36929],[128.51173,38.36974],[128.51127,38.36967],[128.5109,38.36988],[128.51114,38.37042],[128.51147,38.3709],[128.51227,38.37147],[128.51213,38.37168],[128.51222,38.37192],[128.51197,38.37245],[128.51115,38.37305],[128.51079,38.37321],[128.5107,38.37306],[128.50986,38.37284],[128.50953,38.37292],[128.50908,38.37329],[128.5086,38.37413],[128.50856,38.37451],[128.50902,38.37509],[128.50881,38.37545],[128.50825,38.37528],[128.50809,38.37547],[128.50753,38.37544],[128.50666,38.3756],[128.50638,38.37545],[128.50571,38.37573],[128.50488,38.37624],[128.50427,38.37673],[128.50371,38.37729],[128.50296,38.37822],[128.50146,38.3796],[128.50083,38.38036],[128.50044,38.38076],[128.49942,38.38174],[128.49811,38.3829],[128.49706,38.38416],[128.49573,38.38542],[128.49555,38.38528],[128.49471,38.38495],[128.49502,38.38445],[128.49393,38.38419],[128.49158,38.38396],[128.49129,38.38401],[128.49051,38.38428],[128.48899,38.38389],[128.48845,38.38362],[128.48794,38.38319],[128.487,38.38225],[128.48609,38.3815],[128.48559,38.38113],[128.48519,38.38104],[128.48362,38.38086],[128.48392,38.38068],[128.4839,38.38051],[128.48196,38.37931],[128.48158,38.37857],[128.48082,38.37785],[128.48042,38.37707],[128.48023,38.37637],[128.47982,38.37569],[128.48018,38.37494],[128.48034,38.37431],[128.48031,38.37359],[128.48055,38.37277],[128.48105,38.37248],[128.4814,38.37216],[128.48201,38.37149],[128.48256,38.37077],[128.48275,38.37019],[128.48257,38.36979],[128.48207,38.36937],[128.48157,38.36906],[128.48028,38.36872],[128.47727,38.36872],[128.47645,38.36869],[128.47566,38.36808],[128.47506,38.36734],[128.47478,38.3668],[128.47462,38.3661],[128.47459,38.36542],[128.47351,38.36534],[128.47445,38.36511],[128.47463,38.36453],[128.47511,38.36406],[128.47565,38.36373],[128.47623,38.36384],[128.4766,38.36373],[128.47689,38.3632],[128.47709,38.36314],[128.47721,38.36241],[128.47845,38.36208],[128.47951,38.36197],[128.48008,38.36246],[128.4807,38.36309],[128.48208,38.36291],[128.48305,38.36297],[128.48356,38.36318],[128.48403,38.36317],[128.48428,38.36295],[128.48512,38.36277],[128.48534,38.36292],[128.486,38.36358],[128.48728,38.36382],[128.48762,38.36346],[128.4881,38.36272],[128.48751,38.3617],[128.48797,38.3607],[128.48838,38.3604],[128.48917,38.35906],[128.48915,38.35887],[128.48869,38.35848],[128.48748,38.35844],[128.48727,38.35856],[128.48696,38.35825],[128.4869,38.35807],[128.48645,38.35791],[128.48549,38.35694],[128.48506,38.3566],[128.48393,38.35598],[128.48447,38.35529],[128.48333,38.35419],[128.48232,38.35402],[128.48211,38.35379],[128.48254,38.35316],[128.48307,38.35296],[128.4831,38.35232],[128.48294,38.35188],[128.48298,38.35141],[128.48371,38.35117],[128.48419,38.35107],[128.48434,38.35054],[128.48507,38.34976],[128.486,38.34931],[128.48655,38.34876],[128.48652,38.34804],[128.48663,38.34789],[128.48643,38.34738],[128.48709,38.34699],[128.48703,38.34653],[128.4871,38.34602],[128.48681,38.34524],[128.48673,38.34487],[128.48666,38.34391],[128.48669,38.34329],[128.4863,38.34296],[128.48565,38.34185],[128.4851,38.34082],[128.48463,38.3404],[128.48428,38.33937],[128.48371,38.33875],[128.48298,38.33834],[128.48303,38.33795],[128.48284,38.33735],[128.48227,38.33697],[128.48085,38.33731],[128.48052,38.33716],[128.4807,38.3365],[128.48033,38.33567],[128.48056,38.33529],[128.48027,38.33487],[128.48016,38.33431],[128.4803,38.33393],[128.47989,38.33335],[128.47933,38.33327],[128.47905,38.3329],[128.47915,38.33227],[128.47971,38.33167],[128.477,38.33183],[128.47596,38.33207],[128.47442,38.33187],[128.47304,38.33202],[128.47256,38.33221],[128.47188,38.3327],[128.47152,38.33305],[128.47081,38.33352],[128.46968,38.33368],[128.46911,38.33361],[128.46851,38.33389],[128.46653,38.33385],[128.46601,38.33365],[128.46504,38.33349],[128.46382,38.33374],[128.46334,38.33331],[128.4625,38.33303],[128.46227,38.33283],[128.46128,38.33305],[128.46093,38.3326],[128.4606,38.33241],[128.46025,38.33185],[128.46055,38.33133],[128.46033,38.33107],[128.45947,38.33134],[128.45861,38.33154],[128.45772,38.33217],[128.45735,38.33278],[128.45599,38.33306],[128.45533,38.33283],[128.45529,38.33179],[128.45446,38.33123],[128.45358,38.33052],[128.45299,38.33011],[128.45232,38.32924],[128.45149,38.32836],[128.45102,38.32797],[128.45039,38.32761],[128.45002,38.32665],[128.45008,38.3264],[128.45,38.32571],[128.44902,38.32464],[128.44854,38.32383],[128.44738,38.32315],[128.44791,38.32036],[128.44787,38.31901],[128.44744,38.31849],[128.447,38.31704],[128.44779,38.31585],[128.44341,38.31683],[128.44179,38.31701],[128.44091,38.31676],[128.43885,38.31701],[128.43876,38.3166],[128.43823,38.31586],[128.43827,38.31524],[128.43821,38.3146],[128.43794,38.3145],[128.43745,38.31362],[128.43716,38.31263],[128.43694,38.31239],[128.4369,38.31179],[128.43727,38.31068],[128.43693,38.31034],[128.43641,38.31038],[128.43584,38.30997],[128.43528,38.3089],[128.43429,38.30822],[128.43471,38.30695],[128.43411,38.30655],[128.43376,38.30593],[128.4339,38.30421],[128.43432,38.30337],[128.43464,38.30295],[128.43464,38.30254],[128.43442,38.30173],[128.4343,38.30074],[128.43472,38.29998],[128.43424,38.2991],[128.4345,38.29861],[128.43421,38.29804],[128.43418,38.29761],[128.43377,38.29746],[128.43372,38.29715],[128.434,38.29589],[128.43398,38.29535],[128.43417,38.2946],[128.43359,38.29399],[128.43312,38.29369],[128.43286,38.29303],[128.4321,38.29198],[128.43165,38.29101],[128.43121,38.29029],[128.43118,38.2899],[128.43088,38.2893],[128.43098,38.28932],[128.43214,38.28902],[128.4331,38.28818],[128.43399,38.28779],[128.43405,38.28755],[128.43497,38.28684],[128.4362,38.28653],[128.43693,38.28609],[128.43821,38.28606],[128.43896,38.28544],[128.43918,38.28554],[128.43975,38.28546],[128.44007,38.28554],[128.44063,38.28545],[128.44091,38.28553],[128.44205,38.28569],[128.44252,38.28543],[128.44308,38.28546],[128.44393,38.28518],[128.44411,38.28527],[128.44505,38.28519],[128.44538,38.28538],[128.44594,38.28553],[128.44649,38.28529],[128.44689,38.2853],[128.44736,38.28518],[128.44815,38.28528],[128.44879,38.28482],[128.44959,38.28459],[128.45003,38.28413],[128.4504,38.28391],[128.45146,38.28455],[128.45282,38.28591],[128.45372,38.28636],[128.45389,38.28668],[128.45488,38.28714],[128.45575,38.28788],[128.45691,38.28838],[128.45751,38.2889],[128.45788,38.28976],[128.45793,38.29051],[128.458,38.29071],[128.45867,38.29167],[128.45935,38.29205],[128.4608,38.29262],[128.46175,38.29315],[128.46234,38.29372],[128.46308,38.29341],[128.46462,38.29243],[128.46468,38.29207],[128.46527,38.29224],[128.467,38.29209],[128.46754,38.29232],[128.46865,38.29248],[128.46876,38.29308],[128.46977,38.29311],[128.47026,38.29291],[128.47171,38.29292],[128.47222,38.29331],[128.47348,38.29334],[128.4738,38.29369],[128.47434,38.29388],[128.47527,38.29413],[128.47543,38.29401],[128.47626,38.29387],[128.47685,38.2936],[128.47742,38.2935],[128.47874,38.29307],[128.47998,38.29283],[128.48101,38.29349],[128.48257,38.29347],[128.48309,38.2936],[128.48368,38.29387],[128.48515,38.29447],[128.48572,38.29491],[128.48628,38.29545],[128.4864,38.29573],[128.48682,38.29635],[128.48773,38.29679],[128.48832,38.29727],[128.48893,38.29763],[128.48972,38.2978],[128.49116,38.29914],[128.49158,38.29879],[128.49181,38.29837],[128.49227,38.29816],[128.49268,38.29818],[128.4936,38.29789],[128.49473,38.29825],[128.49574,38.29828],[128.49638,38.29862],[128.49719,38.29871],[128.4976,38.29849],[128.49802,38.29857],[128.49848,38.29847],[128.4999,38.29892],[128.50015,38.29909],[128.50149,38.29951],[128.50192,38.2991],[128.50223,38.29903],[128.50236,38.29851],[128.50303,38.29821],[128.50358,38.29834],[128.50385,38.29824],[128.50466,38.29835],[128.50551,38.29923],[128.50666,38.29939],[128.50722,38.29968],[128.50747,38.3003],[128.50723,38.30053],[128.50712,38.30081],[128.50641,38.30163],[128.50713,38.30202],[128.508,38.30241],[128.50901,38.30244],[128.51046,38.30213],[128.51072,38.30215],[128.51154,38.30248],[128.51246,38.30272],[128.51292,38.30294],[128.5136,38.30296],[128.51545,38.3027],[128.5163,38.30218],[128.51687,38.30198],[128.51682,38.30177],[128.51764,38.30146],[128.519,38.30117],[128.51857,38.30102],[128.51819,38.3006],[128.51762,38.30036],[128.51765,38.30018],[128.51696,38.30011],[128.51725,38.29985],[128.5176,38.29975],[128.51812,38.29991],[128.52017,38.30003],[128.52034,38.29812],[128.5197,38.29803],[128.51981,38.29716],[128.52029,38.29739],[128.52036,38.29764],[128.52085,38.29803],[128.52091,38.2976],[128.52128,38.29747],[128.5223,38.29758],[128.52269,38.29774],[128.52307,38.29779],[128.52416,38.29783],[128.52416,38.2973],[128.52443,38.29747],[128.5257,38.29477],[128.52659,38.29464],[128.52703,38.29471],[128.52856,38.29443],[128.52834,38.29343],[128.52889,38.29329],[128.53053,38.29382],[128.5307,38.29372],[128.53124,38.2939],[128.53193,38.29398],[128.53428,38.29444],[128.5354,38.29469],[128.53649,38.29501],[128.53959,38.29605],[128.54064,38.29628],[128.5429,38.29659],[128.54311,38.29606],[128.54352,38.29555],[128.5441,38.295],[128.54585,38.29386],[128.5464,38.29345],[128.54736,38.29286]]]]},"properties":{"code":"32600320","name":"죽왕면"}},{"type":"Feature","geometry":{"type":"MultiPolygon","coordinates":[[[[128.57764,38.25506],[128.57698,38.25492],[128.5771,38.25458],[128.57752,38.25425],[128.57797,38.25434],[128.5779,38.25482],[128.57764,38.25506]]],[[[128.58021,38.25532],[128.57964,38.25534],[128.57952,38.25495],[128.57926,38.25494],[128.5791,38.25475],[128.57878,38.25468],[128.57866,38.2543],[128.57888,38.25413],[128.57873,38.25397],[128.57893,38.25361],[128.57975,38.25359],[128.58038,38.25411],[128.58064,38.25419],[128.58057,38.25449],[128.58077,38.25475],[128.5802,38.25503],[128.58021,38.25532]]],[[[128.56038,38.26511],[128.56036,38.26489],[128.56067,38.26471],[128.56107,38.26476],[128.56038,38.26511]]],[[[128.55371,38.27913],[128.55332,38.27894],[128.55357,38.27869],[128.55333,38.27841],[128.55366,38.27824],[128.55403,38.27824],[128.55415,38.27844],[128.55379,38.27875],[128.55407,38.27881],[128.55406,38.27908],[128.55371,38.27913]]],[[[128.55759,38.28714],[128.55697,38.28673],[128.5572,38.28643],[128.55783,38.28621],[128.5584,38.28609],[128.55868,38.28637],[128.55821,38.2866],[128.55822,38.28695],[128.55802,38.28715],[128.55759,38.28714]]],[[[128.54959,38.28764],[128.54955,38.28779],[128.54904,38.28769],[128.54913,38.28744],[128.54959,38.28764]]],[[[128.54736,38.29286],[128.5464,38.29345],[128.54585,38.29386],[128.5441,38.295],[128.54352,38.29555],[128.54311,38.29606],[128.5429,38.29659],[128.54064,38.29628],[128.53959,38.29605],[128.53649,38.29501],[128.5354,38.29469],[128.53428,38.29444],[128.53193,38.29398],[128.53124,38.2939],[128.5307,38.29372],[128.53053,38.29382],[128.52889,38.29329],[128.52834,38.29343],[128.52856,38.29443],[128.52703,38.29471],[128.52659,38.29464],[128.5257,38.29477],[128.52443,38.29747],[128.52416,38.2973],[128.52416,38.29783],[128.52307,38.29779],[128.52269,38.29774],[128.5223,38.29758],[128.52128,38.29747],[128.52091,38.2976],[128.52085,38.29803],[128.52036,38.29764],[128.52029,38.29739],[128.51981,38.29716],[128.5197,38.29803],[128.52034,38.29812],[128.52017,38.30003],[128.51812,38.29991],[128.5176,38.29975],[128.51725,38.29985],[128.51696,38.30011],[128.51765,38.30018],[128.51762,38.30036],[128.51819,38.3006],[128.51857,38.30102],[128.519,38.30117],[128.51764,38.30146],[128.51682,38.30177],[128.51687,38.30198],[128.5163,38.30218],[128.51545,38.3027],[128.5136,38.30296],[128.51292,38.30294],[128.51246,38.30272],[128.51154,38.30248],[128.51072,38.30215],[128.51046,38.30213],[128.50901,38.30244],[128.508,38.30241],[128.50713,38.30202],[128.50641,38.30163],[128.50712,38.30081],[128.50723,38.30053],[128.50747,38.3003],[128.50722,38.29968],[128.50666,38.29939],[128.50551,38.29923],[128.50466,38.29835],[128.50385,38.29824],[128.50358,38.29834],[128.50303,38.29821],[128.50236,38.29851],[128.50223,38.29903],[128.50192,38.2991],[128.50149,38.29951],[128.50015,38.29909],[128.4999,38.29892],[128.49848,38.29847],[128.49802,38.29857],[128.4976,38.29849],[128.49719,38.29871],[128.49638,38.29862],[128.49574,38.29828],[128.49473,38.29825],[128.4936,38.29789],[128.49268,38.29818],[128.49227,38.29816],[128.49181,38.29837],[128.49158,38.29879],[128.49116,38.29914],[128.48972,38.2978],[128.48893,38.29763],[128.48832,38.29727],[128.48773,38.29679],[128.48682,38.29635],[128.4864,38.29573],[128.48628,38.29545],[128.48572,38.29491],[128.48515,38.29447],[128.48368,38.29387],[128.48309,38.2936],[128.48257,38.29347],[128.48101,38.29349],[128.47998,38.29283],[128.47874,38.29307],[128.47742,38.2935],[128.47685,38.2936],[128.47626,38.29387],[128.47543,38.29401],[128.47527,38.29413],[128.47434,38.29388],[128.4738,38.29369],[128.47348,38.29334],[128.47222,38.29331],[128.47171,38.29292],[128.47026,38.29291],[128.46977,38.29311],[128.46876,38.29308],[128.46865,38.29248],[128.46754,38.29232],[128.467,38.29209],[128.46527,38.29224],[128.46468,38.29207],[128.46462,38.29243],[128.46308,38.29341],[128.46234,38.29372],[128.46175,38.29315],[128.4608,38.29262],[128.45935,38.29205],[128.45867,38.29167],[128.458,38.29071],[128.45793,38.29051],[128.45788,38.28976],[128.45751,38.2889],[128.45691,38.28838],[128.45575,38.28788],[128.45488,38.28714],[128.45389,38.28668],[128.45372,38.28636],[128.45282,38.28591],[128.45146,38.28455],[128.4504,38.28391],[128.45003,38.28413],[128.44959,38.28459],[128.44879,38.28482],[128.44815,38.28528],[128.44736,38.28518],[128.44689,38.2853],[128.44649,38.28529],[128.44594,38.28553],[128.44538,38.28538],[128.44505,38.28519],[128.44411,38.28527],[128.44393,38.28518],[128.44308,38.28546],[128.44252,38.28543],[128.44205,38.28569],[128.44091,38.28553],[128.44063,38.28545],[128.44007,38.28554],[128.43975,38.28546],[128.43918,38.28554],[128.43896,38.28544],[128.43821,38.28606],[128.43693,38.28609],[128.4362,38.28653],[128.43497,38.28684],[128.43405,38.28755],[128.43399,38.28779],[128.4331,38.28818],[128.43214,38.28902],[128.43098,38.28932],[128.43088,38.2893],[128.43052,38.28922],[128.42929,38.28926],[128.42825,38.28904],[128.42751,38.28911],[128.42689,38.28905],[128.42602,38.28878],[128.42496,38.28826],[128.42387,38.28812],[128.42331,38.28808],[128.4218,38.2882],[128.42069,38.28769],[128.42011,38.28758],[128.4197,38.28731],[128.41934,38.28682],[128.41833,38.28649],[128.41679,38.28547],[128.41593,38.28518],[128.41547,38.28472],[128.415,38.28457],[128.41434,38.28424],[128.41361,38.28348],[128.41316,38.28332],[128.41183,38.28253],[128.41087,38.28204],[128.41016,38.28178],[128.40966,38.28167],[128.40919,38.28144],[128.40815,38.28064],[128.40753,38.28044],[128.40702,38.28053],[128.40659,38.28073],[128.4058,38.27959],[128.40514,38.27908],[128.40477,38.27856],[128.40486,38.27799],[128.40421,38.27686],[128.40439,38.27651],[128.40429,38.27599],[128.40391,38.27533],[128.40364,38.2743],[128.40338,38.27398],[128.40331,38.2735],[128.40302,38.27306],[128.40267,38.2716],[128.4027,38.27116],[128.40196,38.26961],[128.40103,38.26896],[128.4005,38.26887],[128.39948,38.26795],[128.3988,38.26761],[128.39864,38.26699],[128.39884,38.26516],[128.39902,38.26434],[128.39922,38.26403],[128.39902,38.26356],[128.39956,38.26298],[128.39998,38.2621],[128.40021,38.26189],[128.40027,38.2616],[128.40062,38.26128],[128.40092,38.26064],[128.40123,38.26056],[128.40182,38.26072],[128.40199,38.26113],[128.40249,38.2616],[128.40276,38.26204],[128.40319,38.26244],[128.40377,38.2626],[128.40455,38.26309],[128.40516,38.26312],[128.40537,38.263],[128.40645,38.26282],[128.40686,38.26301],[128.40733,38.263],[128.40774,38.26289],[128.40815,38.26312],[128.40871,38.26361],[128.40975,38.26391],[128.41159,38.26265],[128.41232,38.26229],[128.41299,38.26176],[128.41402,38.26065],[128.41394,38.25922],[128.41376,38.25859],[128.41479,38.25651],[128.41607,38.25584],[128.41634,38.25527],[128.41664,38.25523],[128.41742,38.25462],[128.41744,38.25454],[128.41759,38.25428],[128.41862,38.25415],[128.41892,38.25426],[128.41935,38.25427],[128.41999,38.25419],[128.42114,38.25362],[128.42209,38.25372],[128.42312,38.25365],[128.42482,38.25316],[128.4254,38.2521],[128.42577,38.25176],[128.4259,38.2513],[128.42622,38.25084],[128.42755,38.25019],[128.42806,38.24914],[128.42794,38.24886],[128.42957,38.24758],[128.4307,38.24609],[128.43088,38.24553],[128.43219,38.24378],[128.43247,38.24296],[128.43272,38.24283],[128.43294,38.24242],[128.43392,38.24234],[128.43521,38.2416],[128.43626,38.24131],[128.43771,38.24111],[128.43972,38.24127],[128.43888,38.23985],[128.43857,38.23916],[128.43816,38.23765],[128.43815,38.23523],[128.43841,38.23442],[128.43764,38.23248],[128.43724,38.23029],[128.43771,38.22989],[128.43843,38.2296],[128.43899,38.22908],[128.4398,38.22808],[128.44023,38.2275],[128.4405,38.2264],[128.44036,38.22556],[128.4406,38.22512],[128.4404,38.2236],[128.44074,38.22293],[128.4404,38.22241],[128.4405,38.22198],[128.44004,38.2209],[128.43986,38.22079],[128.43909,38.21954],[128.43885,38.21851],[128.43871,38.21747],[128.43838,38.21669],[128.43837,38.2162],[128.43817,38.21541],[128.43781,38.21465],[128.43774,38.21408],[128.43815,38.21314],[128.43835,38.21224],[128.43876,38.2113],[128.43879,38.21069],[128.43929,38.20979],[128.43914,38.20917],[128.43983,38.20841],[128.43994,38.20813],[128.43997,38.20716],[128.44044,38.20693],[128.44078,38.20643],[128.44065,38.20592],[128.44109,38.20477],[128.44231,38.20372],[128.44236,38.20375],[128.44426,38.20358],[128.44594,38.2032],[128.44745,38.20183],[128.44895,38.20056],[128.45056,38.1997],[128.45199,38.19901],[128.45416,38.19854],[128.45446,38.19812],[128.45513,38.19801],[128.4558,38.19821],[128.45684,38.19797],[128.45769,38.19754],[128.45991,38.19779],[128.46139,38.19717],[128.46206,38.19724],[128.46261,38.19694],[128.46354,38.19711],[128.4645,38.19764],[128.46515,38.19743],[128.46663,38.19862],[128.46797,38.19765],[128.47006,38.19636],[128.47125,38.19582],[128.47358,38.19472],[128.47474,38.19371],[128.47632,38.19324],[128.47711,38.1928],[128.47628,38.19093],[128.4772,38.18889],[128.47804,38.18826],[128.47933,38.18791],[128.47982,38.18744],[128.48078,38.18745],[128.48112,38.18733],[128.48161,38.18781],[128.48223,38.18777],[128.48269,38.18804],[128.48318,38.18786],[128.48384,38.18807],[128.48455,38.18797],[128.48535,38.18835],[128.48594,38.18852],[128.48655,38.18902],[128.4866,38.1895],[128.48786,38.19013],[128.4885,38.19075],[128.48895,38.19175],[128.48933,38.1919],[128.48932,38.19232],[128.48973,38.19303],[128.49038,38.19349],[128.4903,38.19399],[128.49084,38.19423],[128.49087,38.1946],[128.49129,38.19471],[128.49177,38.19513],[128.4921,38.1957],[128.49258,38.19585],[128.49328,38.19626],[128.49427,38.19614],[128.4948,38.19579],[128.49529,38.19598],[128.49552,38.19641],[128.4967,38.19754],[128.49776,38.19793],[128.4979,38.19867],[128.49838,38.19912],[128.49831,38.20022],[128.49873,38.20078],[128.4987,38.20125],[128.49911,38.20161],[128.49924,38.20221],[128.5007,38.20264],[128.50142,38.20326],[128.50407,38.20353],[128.50561,38.20378],[128.50685,38.2039],[128.50872,38.20468],[128.51003,38.20562],[128.51067,38.20584],[128.5114,38.20648],[128.51152,38.20666],[128.51213,38.20728],[128.51245,38.20746],[128.51347,38.2075],[128.51399,38.20774],[128.51503,38.20686],[128.5164,38.2069],[128.51755,38.20729],[128.51909,38.20764],[128.51977,38.20753],[128.52031,38.20737],[128.52221,38.20762],[128.52376,38.20861],[128.52468,38.2089],[128.52538,38.20938],[128.52618,38.20986],[128.52639,38.21009],[128.52769,38.21051],[128.52863,38.2111],[128.52921,38.21126],[128.52983,38.21182],[128.53053,38.21254],[128.53047,38.21268],[128.53068,38.21302],[128.53058,38.21362],[128.53214,38.21439],[128.5324,38.21487],[128.53316,38.21534],[128.5337,38.21581],[128.53508,38.21593],[128.53621,38.21637],[128.5376,38.21737],[128.53807,38.21737],[128.53849,38.21713],[128.54011,38.21753],[128.54109,38.21753],[128.54161,38.21732],[128.54253,38.21712],[128.54302,38.21719],[128.54345,38.21713],[128.54405,38.21657],[128.54488,38.2166],[128.54526,38.21646],[128.5456,38.21674],[128.54595,38.21672],[128.54636,38.21685],[128.54676,38.21718],[128.54783,38.21758],[128.54819,38.21734],[128.54916,38.21764],[128.54933,38.21781],[128.54997,38.21801],[128.55045,38.21782],[128.55086,38.21794],[128.55099,38.21765],[128.55178,38.21753],[128.5525,38.21747],[128.55309,38.21782],[128.55384,38.21812],[128.55389,38.21799],[128.55448,38.21774],[128.55553,38.21802],[128.5556,38.21818],[128.55642,38.21878],[128.55646,38.21917],[128.55678,38.21963],[128.55718,38.21974],[128.5581,38.21951],[128.55846,38.21954],[128.55883,38.21982],[128.55927,38.21992],[128.55954,38.21984],[128.55979,38.22027],[128.56053,38.22071],[128.56123,38.22095],[128.56263,38.22076],[128.56334,38.22054],[128.56431,38.22069],[128.56507,38.2204],[128.56637,38.22044],[128.56733,38.22007],[128.56819,38.22014],[128.56871,38.22046],[128.56886,38.22087],[128.57023,38.22133],[128.57078,38.22142],[128.57134,38.22144],[128.57152,38.2216],[128.57186,38.22164],[128.57213,38.2214],[128.57243,38.22131],[128.57356,38.22154],[128.57382,38.22175],[128.57432,38.22179],[128.57507,38.22241],[128.57564,38.22259],[128.57601,38.22321],[128.57747,38.22393],[128.5779,38.22425],[128.57836,38.22431],[128.57904,38.22477],[128.57942,38.22537],[128.57925,38.22573],[128.57924,38.22621],[128.58,38.22666],[128.58032,38.22753],[128.58065,38.22763],[128.58093,38.22786],[128.58223,38.22803],[128.58257,38.22908],[128.58335,38.22918],[128.58405,38.22878],[128.58444,38.22871],[128.58466,38.2289],[128.58488,38.22931],[128.58493,38.23077],[128.58491,38.23095],[128.58378,38.23196],[128.58316,38.23271],[128.58257,38.23322],[128.5818,38.23393],[128.58061,38.23518],[128.57968,38.2361],[128.57897,38.2369],[128.57808,38.23782],[128.57756,38.23861],[128.57744,38.23888],[128.57764,38.23901],[128.57715,38.23922],[128.57572,38.2407],[128.57524,38.24137],[128.57513,38.24171],[128.57534,38.242],[128.57517,38.24211],[128.57477,38.24198],[128.57455,38.24212],[128.57362,38.24333],[128.57283,38.24429],[128.57219,38.24537],[128.57171,38.2466],[128.57151,38.24747],[128.57113,38.24824],[128.57098,38.24881],[128.571,38.24902],[128.57178,38.24946],[128.57159,38.24966],[128.57049,38.24907],[128.57035,38.24892],[128.56989,38.24869],[128.56949,38.24893],[128.56907,38.24947],[128.5694,38.2496],[128.56935,38.24979],[128.56833,38.24943],[128.56802,38.24981],[128.56801,38.25029],[128.56816,38.25077],[128.56766,38.25076],[128.56754,38.25182],[128.56858,38.25195],[128.56891,38.25162],[128.56926,38.25146],[128.56986,38.25043],[128.57064,38.25023],[128.57061,38.25047],[128.57007,38.2506],[128.56945,38.2516],[128.5689,38.25225],[128.56857,38.25252],[128.56897,38.25262],[128.56895,38.25279],[128.5685,38.253],[128.56816,38.25263],[128.56779,38.25276],[128.56766,38.25265],[128.56663,38.25237],[128.56639,38.25261],[128.56651,38.25289],[128.56677,38.25288],[128.56678,38.25316],[128.56662,38.25341],[128.56628,38.25337],[128.56599,38.25296],[128.56537,38.25302],[128.56434,38.25367],[128.56346,38.25444],[128.56324,38.25473],[128.56241,38.25536],[128.56206,38.2557],[128.56168,38.2562],[128.56121,38.25663],[128.56052,38.25743],[128.56021,38.25796],[128.56003,38.2585],[128.56,38.25889],[128.56012,38.25925],[128.56054,38.25971],[128.56113,38.25993],[128.56118,38.25956],[128.56155,38.25941],[128.5613,38.26023],[128.56143,38.26041],[128.56136,38.26066],[128.56114,38.26082],[128.56103,38.26114],[128.56077,38.26127],[128.56008,38.26122],[128.55961,38.26144],[128.55917,38.26201],[128.5589,38.26267],[128.55881,38.26329],[128.55886,38.2639],[128.559,38.26453],[128.55947,38.26483],[128.55997,38.2649],[128.55991,38.26573],[128.56005,38.26592],[128.55965,38.26609],[128.55899,38.26624],[128.55897,38.26644],[128.5586,38.26671],[128.55832,38.26631],[128.55808,38.26633],[128.55753,38.26669],[128.55722,38.26713],[128.55697,38.26779],[128.55686,38.26821],[128.55698,38.26875],[128.55725,38.26904],[128.55715,38.26963],[128.55764,38.26994],[128.5584,38.26987],[128.55811,38.27043],[128.55768,38.27026],[128.55764,38.27052],[128.55808,38.27073],[128.55883,38.27122],[128.55876,38.27135],[128.55819,38.27161],[128.55771,38.27093],[128.55732,38.27094],[128.55685,38.27086],[128.55643,38.27098],[128.55625,38.27081],[128.55575,38.27101],[128.55545,38.27129],[128.5565,38.27197],[128.55721,38.27208],[128.55741,38.27238],[128.55728,38.27257],[128.55729,38.27294],[128.5569,38.27335],[128.55668,38.27311],[128.55583,38.27336],[128.55583,38.27379],[128.55624,38.2738],[128.55645,38.27398],[128.55745,38.27363],[128.55864,38.27338],[128.55882,38.27278],[128.55888,38.27235],[128.55903,38.27224],[128.55966,38.27114],[128.55968,38.27083],[128.56015,38.27082],[128.56024,38.27111],[128.55959,38.27226],[128.55938,38.27267],[128.55899,38.27372],[128.55854,38.27387],[128.55768,38.27396],[128.55686,38.2742],[128.5565,38.2748],[128.55628,38.27492],[128.55549,38.27493],[128.55449,38.27508],[128.55386,38.27501],[128.55371,38.27551],[128.55368,38.2759],[128.55349,38.27618],[128.55334,38.27757],[128.55346,38.27823],[128.55311,38.2783],[128.55314,38.27851],[128.55356,38.27955],[128.55407,38.27951],[128.55408,38.2799],[128.5538,38.28032],[128.55401,38.28051],[128.55393,38.28074],[128.55337,38.28096],[128.55304,38.28123],[128.55289,38.28164],[128.55308,38.28183],[128.5527,38.28209],[128.55253,38.28272],[128.55211,38.28302],[128.55196,38.28345],[128.55167,38.28354],[128.55113,38.28439],[128.55059,38.28438],[128.55037,38.28449],[128.54992,38.28501],[128.54915,38.28567],[128.54879,38.28607],[128.5486,38.2864],[128.54851,38.2868],[128.54859,38.28736],[128.54882,38.28754],[128.54855,38.2877],[128.54813,38.28771],[128.54838,38.28827],[128.54843,38.28875],[128.54824,38.28903],[128.54878,38.2891],[128.54908,38.28924],[128.54904,38.28945],[128.54869,38.28933],[128.54831,38.2895],[128.54792,38.28949],[128.54779,38.28995],[128.5487,38.29015],[128.54909,38.29002],[128.54962,38.28939],[128.55002,38.28932],[128.54972,38.28979],[128.5494,38.29014],[128.54897,38.2903],[128.54853,38.29035],[128.54793,38.29011],[128.54754,38.29029],[128.54721,38.29078],[128.54709,38.29125],[128.54704,38.29176],[128.54721,38.2925],[128.54736,38.29286]]]]},"properties":{"code":"32600330","name":"토성면"}}],"profileId":"gangwon","schemaVersion":2,"dataVersion":"gangwon-2022-563a6bb6162048a7"}
