{"type":"FeatureCollection","features":[{"type":"Feature","geometry":{"type":"Polygon","coordinates":[[[128.64618,38.10701],[128.64606,38.10725],[128.64554,38.10771],[128.64487,38.10847],[128.64409,38.10899],[128.64368,38.10944],[128.64236,38.1106],[128.64157,38.1112],[128.64094,38.11177],[128.64063,38.11192],[128.63919,38.11319],[128.63855,38.11385],[128.63719,38.11502],[128.63687,38.1154],[128.63632,38.11592],[128.6358,38.11631],[128.63444,38.11558],[128.63389,38.11531],[128.63161,38.11435],[128.63137,38.11423],[128.63116,38.11385],[128.63082,38.11385],[128.63022,38.11366],[128.62994,38.11341],[128.6293,38.11251],[128.62841,38.11222],[128.62745,38.11232],[128.62709,38.1125],[128.62702,38.11277],[128.62651,38.11288],[128.62589,38.11273],[128.62548,38.11249],[128.62511,38.11241],[128.62508,38.11212],[128.62458,38.11199],[128.62414,38.11216],[128.6236,38.11203],[128.62294,38.1122],[128.62238,38.11214],[128.62209,38.11231],[128.62177,38.11285],[128.62134,38.1129],[128.6208,38.11326],[128.62041,38.11336],[128.61971,38.11381],[128.619,38.11414],[128.61795,38.1137],[128.61618,38.11413],[128.61578,38.1144],[128.6156,38.11476],[128.61526,38.11427],[128.61452,38.11411],[128.61427,38.11412],[128.61372,38.11472],[128.61313,38.11492],[128.61237,38.11456],[128.61172,38.11443],[128.61118,38.11418],[128.61062,38.11404],[128.61052,38.1133],[128.60971,38.1128],[128.60914,38.11289],[128.60892,38.11315],[128.608,38.11249],[128.60781,38.11219],[128.60741,38.11203],[128.60713,38.11172],[128.60684,38.11154],[128.60562,38.11163],[128.60488,38.11151],[128.60505,38.11123],[128.60555,38.11082],[128.60549,38.11018],[128.60552,38.10934],[128.6059,38.10875],[128.60657,38.10877],[128.60755,38.109],[128.60837,38.10911],[128.60866,38.10907],[128.60989,38.10941],[128.61026,38.10885],[128.6107,38.10866],[128.61105,38.10868],[128.61171,38.10838],[128.61211,38.1079],[128.61213,38.10769],[128.61179,38.10674],[128.6119,38.10599],[128.61204,38.10575],[128.61049,38.10551],[128.60922,38.10535],[128.60818,38.10529],[128.60711,38.10509],[128.60648,38.10478],[128.60571,38.10484],[128.60531,38.10447],[128.6047,38.10411],[128.60413,38.10397],[128.60413,38.10382],[128.60359,38.10359],[128.60335,38.10373],[128.60255,38.10331],[128.60224,38.10335],[128.60144,38.10311],[128.6009,38.10303],[128.6006,38.10288],[128.60017,38.103],[128.59932,38.10225],[128.5988,38.10188],[128.59789,38.1021],[128.59769,38.10238],[128.59716,38.10225],[128.5959,38.10249],[128.59532,38.10276],[128.59511,38.10295],[128.59509,38.10333],[128.5942,38.10398],[128.59374,38.10389],[128.59321,38.10415],[128.59275,38.10446],[128.5921,38.10468],[128.59155,38.10514],[128.59102,38.1051],[128.59074,38.10516],[128.59049,38.1055],[128.58993,38.10584],[128.58983,38.10625],[128.58941,38.10644],[128.58903,38.10672],[128.58907,38.10725],[128.58896,38.10753],[128.58814,38.10738],[128.5879,38.10753],[128.58755,38.10755],[128.58703,38.10782],[128.58595,38.10747],[128.58562,38.10728],[128.58523,38.10676],[128.58452,38.10682],[128.58441,38.10607],[128.5842,38.10598],[128.58393,38.10516],[128.58373,38.10518],[128.58351,38.10487],[128.58317,38.10471],[128.58226,38.10449],[128.58167,38.10495],[128.58124,38.10465],[128.58066,38.10454],[128.58036,38.10465],[128.57919,38.10528],[128.57873,38.10589],[128.57832,38.10626],[128.57809,38.10809],[128.5784,38.10867],[128.57839,38.10906],[128.57814,38.10929],[128.57756,38.1094],[128.57677,38.10925],[128.57645,38.10944],[128.57616,38.1094],[128.57575,38.10916],[128.57503,38.10936],[128.57427,38.10977],[128.57391,38.11019],[128.57381,38.11068],[128.57339,38.11127],[128.57273,38.11154],[128.57172,38.11058],[128.57139,38.11059],[128.57105,38.11078],[128.57042,38.11096],[128.56964,38.11094],[128.56929,38.11079],[128.56797,38.11143],[128.5675,38.11197],[128.56679,38.1118],[128.56564,38.1117],[128.56468,38.11173],[128.5636,38.11157],[128.5627,38.11177],[128.56252,38.11197],[128.56263,38.1124],[128.56223,38.11269],[128.56212,38.11363],[128.56203,38.11398],[128.56182,38.11445],[128.56078,38.11487],[128.56032,38.115],[128.55951,38.11476],[128.55923,38.11485],[128.55879,38.11482],[128.55797,38.11523],[128.55697,38.11534],[128.5558,38.11543],[128.55561,38.11524],[128.55501,38.1149],[128.55362,38.11462],[128.55183,38.11437],[128.55134,38.11438],[128.55072,38.11456],[128.55007,38.11447],[128.54965,38.11502],[128.54896,38.11499],[128.54871,38.1148],[128.54864,38.11454],[128.54783,38.11386],[128.54754,38.1138],[128.54695,38.11325],[128.54648,38.11268],[128.54607,38.11254],[128.54551,38.11255],[128.54469,38.11248],[128.54427,38.1127],[128.54286,38.11264],[128.54182,38.1123],[128.54103,38.11195],[128.54074,38.11195],[128.54004,38.11173],[128.5395,38.11128],[128.53856,38.11141],[128.53804,38.1114],[128.53752,38.1116],[128.53651,38.11207],[128.53634,38.11201],[128.53545,38.11223],[128.53518,38.11204],[128.53481,38.11163],[128.53411,38.11162],[128.53355,38.11142],[128.53237,38.11152],[128.53191,38.1114],[128.53095,38.1116],[128.53015,38.11185],[128.52943,38.11198],[128.5286,38.11181],[128.52814,38.11195],[128.52777,38.11189],[128.52708,38.11209],[128.52615,38.1125],[128.52645,38.11123],[128.52756,38.10997],[128.52786,38.10912],[128.52801,38.10791],[128.52893,38.10762],[128.52978,38.10692],[128.53062,38.10681],[128.53113,38.10655],[128.53131,38.10633],[128.53152,38.1057],[128.53184,38.10545],[128.53177,38.10458],[128.5324,38.10367],[128.53305,38.10367],[128.53376,38.10381],[128.53438,38.10369],[128.53502,38.10318],[128.5356,38.10292],[128.53627,38.10274],[128.53713,38.10263],[128.53774,38.1013],[128.54017,38.1002],[128.54076,38.10029],[128.542,38.1004],[128.54253,38.10053],[128.54406,38.10012],[128.54437,38.10018],[128.54621,38.09951],[128.54776,38.0998],[128.54883,38.09988],[128.54951,38.09969],[128.55024,38.09937],[128.55091,38.09966],[128.55103,38.09988],[128.55231,38.09934],[128.55268,38.09942],[128.55342,38.0994],[128.55401,38.09904],[128.5543,38.09876],[128.55433,38.09823],[128.55456,38.09788],[128.55576,38.0978],[128.55618,38.09737],[128.55701,38.09746],[128.55744,38.09743],[128.55822,38.0968],[128.55892,38.09665],[128.55926,38.09637],[128.55987,38.09636],[128.56115,38.09662],[128.56181,38.09633],[128.56235,38.09642],[128.56279,38.09617],[128.56344,38.09516],[128.56347,38.09492],[128.5641,38.09444],[128.56395,38.09392],[128.56446,38.09382],[128.56491,38.09351],[128.56572,38.09232],[128.56627,38.09191],[128.56614,38.09172],[128.56608,38.09136],[128.56628,38.09087],[128.56701,38.09015],[128.56786,38.08992],[128.56833,38.09049],[128.56844,38.09084],[128.56875,38.09119],[128.56934,38.09129],[128.57014,38.09124],[128.5707,38.09179],[128.57114,38.09157],[128.57161,38.09165],[128.57203,38.09202],[128.57209,38.09156],[128.57256,38.09126],[128.573,38.09129],[128.57405,38.09174],[128.57397,38.0915],[128.57402,38.0908],[128.57336,38.09022],[128.57401,38.08967],[128.57382,38.08953],[128.57338,38.0889],[128.57343,38.08855],[128.57368,38.08835],[128.5742,38.08836],[128.57549,38.08758],[128.57579,38.08736],[128.57582,38.08718],[128.57621,38.08713],[128.57659,38.08696],[128.57715,38.08682],[128.57682,38.08635],[128.57642,38.0861],[128.57645,38.08585],[128.57691,38.08563],[128.57698,38.0853],[128.5773,38.08508],[128.57813,38.0847],[128.57826,38.08431],[128.57775,38.08395],[128.57734,38.08385],[128.57714,38.08356],[128.57794,38.08239],[128.57822,38.08222],[128.5786,38.08238],[128.58003,38.08182],[128.58073,38.08173],[128.58119,38.08176],[128.58147,38.08189],[128.58214,38.08182],[128.58248,38.08165],[128.58287,38.08157],[128.58312,38.08105],[128.58308,38.08055],[128.58328,38.07993],[128.58424,38.07951],[128.58445,38.07952],[128.58471,38.07841],[128.58529,38.0782],[128.58592,38.0781],[128.58647,38.07781],[128.58652,38.07735],[128.58645,38.07711],[128.58682,38.07701],[128.58757,38.07705],[128.58787,38.07693],[128.58795,38.07638],[128.58825,38.07655],[128.58864,38.07638],[128.58936,38.07639],[128.58985,38.07674],[128.59012,38.07683],[128.59077,38.07617],[128.59152,38.07601],[128.59201,38.07599],[128.59267,38.07587],[128.59293,38.07475],[128.59412,38.07432],[128.59611,38.07343],[128.59667,38.07385],[128.59718,38.07363],[128.59844,38.0733],[128.59975,38.07305],[128.60141,38.07215],[128.60242,38.07195],[128.60349,38.07146],[128.60441,38.07072],[128.60531,38.0699],[128.60604,38.06931],[128.60819,38.06928],[128.60916,38.0693],[128.61044,38.06925],[128.61154,38.06912],[128.61174,38.0688],[128.61179,38.06787],[128.6125,38.06721],[128.61223,38.06661],[128.61194,38.06441],[128.61194,38.06315],[128.61274,38.06189],[128.61292,38.06118],[128.6129,38.06008],[128.61299,38.05978],[128.61293,38.05913],[128.6129,38.05821],[128.61292,38.05709],[128.6127,38.05604],[128.61205,38.05523],[128.61121,38.05457],[128.60986,38.05403],[128.60982,38.05321],[128.60966,38.05273],[128.60971,38.05225],[128.61015,38.05177],[128.61015,38.05153],[128.61069,38.0511],[128.61106,38.05071],[128.61128,38.05035],[128.61121,38.05013],[128.61074,38.04948],[128.61029,38.04922],[128.60993,38.0488],[128.60953,38.048],[128.60964,38.04777],[128.60993,38.04764],[128.61031,38.04773],[128.61109,38.04763],[128.61149,38.04806],[128.61212,38.04818],[128.61314,38.04778],[128.61388,38.04793],[128.61402,38.04819],[128.61477,38.04841],[128.61519,38.0484],[128.61571,38.04862],[128.61585,38.04876],[128.61587,38.04921],[128.61651,38.04976],[128.61728,38.05027],[128.61786,38.05113],[128.61844,38.05146],[128.61816,38.05195],[128.61842,38.05271],[128.61972,38.05298],[128.62023,38.05299],[128.621,38.0532],[128.62155,38.0534],[128.62288,38.05402],[128.62322,38.05432],[128.62408,38.05487],[128.62434,38.05531],[128.62441,38.05582],[128.62419,38.05634],[128.62533,38.05705],[128.62558,38.05768],[128.62597,38.05782],[128.62802,38.05806],[128.62862,38.05833],[128.6301,38.05831],[128.63155,38.05907],[128.63211,38.05976],[128.63215,38.06015],[128.63166,38.06088],[128.63128,38.06191],[128.63067,38.06252],[128.62993,38.0637],[128.62915,38.06389],[128.62898,38.06407],[128.62918,38.06437],[128.62985,38.0649],[128.63012,38.06492],[128.63031,38.06514],[128.63032,38.06571],[128.6312,38.06688],[128.63154,38.06722],[128.63194,38.06741],[128.63285,38.06738],[128.63297,38.0685],[128.63273,38.0689],[128.63227,38.06943],[128.63301,38.07003],[128.63321,38.07066],[128.63346,38.07098],[128.63363,38.07181],[128.63451,38.07221],[128.63483,38.07229],[128.63447,38.0726],[128.63431,38.07318],[128.63399,38.07347],[128.63336,38.07387],[128.63265,38.07415],[128.6319,38.0742],[128.63177,38.07464],[128.63202,38.07499],[128.63261,38.0754],[128.63292,38.076],[128.63287,38.07667],[128.63274,38.07776],[128.63293,38.07841],[128.63359,38.07885],[128.63471,38.07949],[128.63685,38.08058],[128.63758,38.08116],[128.63857,38.08246],[128.63826,38.08265],[128.63827,38.08383],[128.63848,38.08403],[128.63913,38.08489],[128.64006,38.08567],[128.64064,38.08629],[128.64147,38.08733],[128.64162,38.08784],[128.64211,38.08849],[128.64261,38.08947],[128.64307,38.09115],[128.64315,38.09163],[128.64311,38.09215],[128.64239,38.09492],[128.64236,38.09583],[128.64231,38.09841],[128.64236,38.099],[128.64248,38.09947],[128.64278,38.10011],[128.64314,38.10071],[128.64404,38.1021],[128.64442,38.10287],[128.64462,38.10461],[128.64618,38.10701]]]},"properties":{"code":"32610110","name":"양양읍"}},{"type":"Feature","geometry":{"type":"Polygon","coordinates":[[[128.46486,38.11921],[128.46355,38.11974],[128.46166,38.12082],[128.46022,38.12127],[128.46009,38.12103],[128.45829,38.12128],[128.45807,38.12124],[128.45628,38.12025],[128.4556,38.11993],[128.45461,38.11923],[128.45352,38.11813],[128.45288,38.11681],[128.45232,38.11663],[128.45007,38.11516],[128.44885,38.11532],[128.44769,38.11555],[128.44721,38.11544],[128.44597,38.11553],[128.44435,38.1152],[128.44281,38.11461],[128.44231,38.11457],[128.44042,38.11407],[128.43951,38.11321],[128.43825,38.11221],[128.43768,38.11189],[128.43714,38.11102],[128.43649,38.11098],[128.43375,38.10948],[128.43323,38.10928],[128.43192,38.10928],[128.43022,38.10885],[128.42966,38.10853],[128.42772,38.10799],[128.42619,38.10867],[128.42567,38.10856],[128.42292,38.10868],[128.42153,38.10894],[128.42051,38.10946],[128.41941,38.10986],[128.41802,38.1101],[128.41631,38.11074],[128.41537,38.11084],[128.4136,38.11058],[128.41183,38.11126],[128.41129,38.11116],[128.41099,38.11124],[128.41065,38.11092],[128.41097,38.10912],[128.41067,38.10698],[128.41143,38.10488],[128.41046,38.10399],[128.41054,38.10313],[128.41099,38.10241],[128.4106,38.10199],[128.41038,38.10134],[128.41028,38.09897],[128.4079,38.0981],[128.40575,38.09752],[128.40504,38.09665],[128.40425,38.09607],[128.40503,38.09547],[128.40501,38.09487],[128.40536,38.09437],[128.40598,38.09416],[128.40615,38.09337],[128.40721,38.09232],[128.40655,38.0914],[128.40711,38.09022],[128.40821,38.08823],[128.40925,38.0852],[128.40911,38.08337],[128.40862,38.08312],[128.40943,38.08164],[128.41036,38.08105],[128.41016,38.08072],[128.41057,38.08019],[128.41064,38.07952],[128.41092,38.07932],[128.41031,38.07895],[128.40915,38.07757],[128.40886,38.07665],[128.40953,38.07517],[128.40986,38.07366],[128.41013,38.07335],[128.41004,38.07262],[128.41021,38.07187],[128.41057,38.07128],[128.4114,38.07037],[128.41307,38.06942],[128.4122,38.06832],[128.41192,38.0676],[128.41305,38.06611],[128.4138,38.06566],[128.41402,38.06476],[128.41455,38.0639],[128.41486,38.06262],[128.41526,38.06191],[128.4163,38.0611],[128.41653,38.06022],[128.41695,38.05953],[128.4179,38.05838],[128.41883,38.05768],[128.41981,38.05707],[128.42096,38.05553],[128.42296,38.05434],[128.42402,38.05391],[128.42343,38.05265],[128.42393,38.05144],[128.42499,38.0501],[128.42525,38.049],[128.42559,38.04875],[128.42654,38.04922],[128.42829,38.05003],[128.42879,38.05093],[128.42976,38.05155],[128.43114,38.05224],[128.43301,38.05241],[128.434,38.05241],[128.43452,38.0523],[128.43502,38.05237],[128.43548,38.05299],[128.43839,38.05545],[128.4386,38.05604],[128.43916,38.05676],[128.44038,38.0579],[128.44138,38.05806],[128.44267,38.05754],[128.44406,38.0575],[128.44491,38.05771],[128.44567,38.05763],[128.44581,38.05726],[128.44724,38.05634],[128.44805,38.05605],[128.44926,38.05518],[128.44986,38.05525],[128.45104,38.05577],[128.4515,38.05624],[128.45199,38.05628],[128.45304,38.05592],[128.45337,38.05609],[128.4548,38.05564],[128.45513,38.05537],[128.45559,38.05408],[128.45602,38.05422],[128.45648,38.05389],[128.45762,38.05388],[128.45913,38.05328],[128.46011,38.05337],[128.46042,38.05257],[128.46123,38.05247],[128.46169,38.05194],[128.46119,38.05094],[128.46135,38.05075],[128.46225,38.05056],[128.46297,38.05022],[128.4629,38.04937],[128.46324,38.04915],[128.46419,38.04969],[128.4657,38.04979],[128.46592,38.05039],[128.46659,38.05078],[128.46738,38.0504],[128.46839,38.05026],[128.46886,38.05072],[128.47011,38.05026],[128.47107,38.05013],[128.47115,38.0499],[128.47193,38.04902],[128.47314,38.04864],[128.47496,38.04864],[128.47656,38.04817],[128.47701,38.04824],[128.47754,38.04864],[128.47758,38.04903],[128.47794,38.0496],[128.47853,38.04995],[128.47878,38.05052],[128.47971,38.05101],[128.48151,38.05161],[128.48217,38.0521],[128.48264,38.05203],[128.48364,38.05301],[128.48465,38.05365],[128.4859,38.05378],[128.48617,38.05394],[128.48747,38.05312],[128.48746,38.0522],[128.48857,38.05227],[128.48916,38.05112],[128.49003,38.05066],[128.49078,38.05035],[128.49205,38.04958],[128.49342,38.04861],[128.49314,38.04777],[128.49333,38.04721],[128.49389,38.04676],[128.49501,38.04629],[128.49506,38.04567],[128.49567,38.04477],[128.49617,38.04322],[128.4961,38.04255],[128.4965,38.04144],[128.49624,38.04071],[128.4977,38.04016],[128.49971,38.03863],[128.50081,38.03807],[128.50033,38.03705],[128.50016,38.03648],[128.49864,38.03422],[128.49866,38.03048],[128.49859,38.02993],[128.49875,38.02914],[128.49968,38.0279],[128.5,38.02538],[128.49981,38.02484],[128.50131,38.02375],[128.50312,38.02197],[128.50425,38.02018],[128.50292,38.01886],[128.50256,38.01733],[128.50497,38.01623],[128.50638,38.01481],[128.50646,38.01433],[128.50726,38.01293],[128.50724,38.01266],[128.50812,38.01226],[128.5093,38.0123],[128.51117,38.01244],[128.51165,38.01262],[128.51357,38.01295],[128.51333,38.01232],[128.51311,38.01104],[128.51326,38.01071],[128.51321,38.00945],[128.51256,38.00793],[128.51215,38.00727],[128.51198,38.00642],[128.51286,38.00483],[128.51285,38.00473],[128.51206,38.00384],[128.51125,38.00208],[128.51005,38.00075],[128.50913,38.00011],[128.50796,37.99857],[128.50619,37.99749],[128.50575,37.99738],[128.50533,37.99689],[128.50439,37.99652],[128.50442,37.99629],[128.50218,37.99492],[128.50208,37.99415],[128.50116,37.99284],[128.50119,37.99248],[128.5016,37.99085],[128.50066,37.98983],[128.50029,37.98934],[128.49939,37.98903],[128.49945,37.98777],[128.50011,37.98739],[128.50132,37.98723],[128.50125,37.98613],[128.50004,37.98483],[128.4993,37.98471],[128.49899,37.98458],[128.49838,37.98411],[128.49567,37.98374],[128.49641,37.98206],[128.49656,37.98111],[128.49615,37.97989],[128.49583,37.97954],[128.4959,37.97898],[128.4964,37.97812],[128.49659,37.97799],[128.49671,37.97765],[128.49759,37.97676],[128.49789,37.97628],[128.49766,37.9758],[128.49719,37.97533],[128.49683,37.97477],[128.49644,37.9745],[128.49622,37.97425],[128.49601,37.97375],[128.49702,37.97279],[128.49733,37.97269],[128.49667,37.97132],[128.49602,37.97037],[128.49598,37.96973],[128.49618,37.96951],[128.49645,37.96882],[128.49625,37.96843],[128.49628,37.96822],[128.49686,37.96743],[128.49655,37.96734],[128.49615,37.9667],[128.4963,37.96588],[128.49536,37.96533],[128.49508,37.96406],[128.49471,37.96404],[128.49404,37.96387],[128.49342,37.96388],[128.49288,37.96426],[128.49204,37.96449],[128.49142,37.96418],[128.49071,37.96364],[128.49006,37.96305],[128.48908,37.96241],[128.48825,37.96127],[128.48747,37.96116],[128.48719,37.9613],[128.48651,37.96105],[128.48449,37.96122],[128.48389,37.96138],[128.48326,37.96144],[128.48279,37.96159],[128.48052,37.96183],[128.47931,37.96231],[128.47904,37.96271],[128.47835,37.96289],[128.4773,37.96296],[128.47693,37.96272],[128.47635,37.9626],[128.47588,37.96243],[128.47522,37.96197],[128.47466,37.96188],[128.47374,37.96145],[128.47364,37.96097],[128.47226,37.96027],[128.47195,37.95943],[128.47197,37.9593],[128.4731,37.95808],[128.47376,37.95673],[128.4729,37.95492],[128.4729,37.95433],[128.47284,37.95347],[128.47053,37.9523],[128.47045,37.95141],[128.47032,37.95127],[128.46899,37.95045],[128.46876,37.95027],[128.46702,37.94952],[128.46674,37.94947],[128.46636,37.94923],[128.46622,37.94774],[128.46646,37.94751],[128.46673,37.94682],[128.46707,37.94455],[128.46699,37.94258],[128.46711,37.94209],[128.46691,37.94143],[128.46707,37.94079],[128.46754,37.94029],[128.46718,37.93989],[128.46703,37.93931],[128.46668,37.93898],[128.4662,37.93825],[128.46564,37.93762],[128.4649,37.9373],[128.4648,37.93705],[128.46398,37.9366],[128.4636,37.93592],[128.46356,37.93567],[128.46426,37.93475],[128.46483,37.93446],[128.46539,37.93376],[128.46555,37.93308],[128.46585,37.93266],[128.46629,37.93256],[128.4665,37.93228],[128.46721,37.93173],[128.46726,37.93149],[128.46846,37.93097],[128.46884,37.93057],[128.46895,37.93028],[128.46992,37.92955],[128.47005,37.92899],[128.47079,37.92851],[128.47113,37.9278],[128.47186,37.92709],[128.47233,37.92682],[128.47239,37.92655],[128.47266,37.92643],[128.47361,37.92671],[128.47405,37.92614],[128.4745,37.92598],[128.47476,37.92561],[128.47513,37.92547],[128.47518,37.92436],[128.47536,37.92359],[128.47591,37.92296],[128.47637,37.92258],[128.4766,37.92215],[128.47651,37.92167],[128.47557,37.92105],[128.47565,37.92082],[128.47528,37.92063],[128.47544,37.92014],[128.47517,37.91973],[128.47534,37.91927],[128.47575,37.91896],[128.47598,37.91855],[128.47562,37.91812],[128.47543,37.91762],[128.4754,37.91694],[128.47542,37.91581],[128.47533,37.91503],[128.47525,37.91494],[128.4753,37.91428],[128.47488,37.91358],[128.47495,37.91249],[128.47533,37.91214],[128.47564,37.91132],[128.47512,37.9108],[128.47486,37.90952],[128.47557,37.90796],[128.47551,37.90744],[128.47582,37.9071],[128.47596,37.90646],[128.47542,37.90556],[128.47527,37.90494],[128.47479,37.90384],[128.47459,37.90327],[128.47471,37.90242],[128.47411,37.9016],[128.47366,37.90129],[128.47354,37.90111],[128.47346,37.90037],[128.47368,37.89998],[128.47452,37.8995],[128.47555,37.8985],[128.47594,37.89786],[128.47625,37.89709],[128.47684,37.89651],[128.47998,37.89542],[128.48026,37.89554],[128.48153,37.89508],[128.48177,37.89462],[128.48142,37.893],[128.48295,37.89266],[128.48353,37.89241],[128.48399,37.89205],[128.485,37.89168],[128.48544,37.89139],[128.48609,37.89077],[128.48636,37.89044],[128.48755,37.89019],[128.48809,37.89],[128.48872,37.88957],[128.489,37.88911],[128.49047,37.88895],[128.49099,37.88871],[128.49187,37.88868],[128.49279,37.88791],[128.49393,37.88777],[128.49472,37.88688],[128.49546,37.88571],[128.49625,37.8854],[128.49659,37.88485],[128.4968,37.88389],[128.49719,37.88376],[128.49738,37.88518],[128.49845,37.88602],[128.49867,37.88612],[128.49979,37.88619],[128.50005,37.88614],[128.50093,37.88618],[128.50163,37.88647],[128.50255,37.88698],[128.50307,37.88704],[128.5035,37.88734],[128.50593,37.88687],[128.50599,37.88649],[128.50635,37.88583],[128.50673,37.88549],[128.50742,37.88444],[128.50821,37.88422],[128.50922,37.88319],[128.50949,37.88284],[128.50974,37.88201],[128.51077,37.88053],[128.51176,37.88006],[128.51268,37.88008],[128.51491,37.88067],[128.51604,37.88077],[128.51663,37.88092],[128.51735,37.88089],[128.51774,37.88074],[128.51883,37.88081],[128.51919,37.88137],[128.52063,37.88225],[128.52145,37.88238],[128.52234,37.88233],[128.52319,37.88252],[128.52373,37.88281],[128.52419,37.88279],[128.52522,37.88259],[128.52613,37.88296],[128.52622,37.88308],[128.52652,37.88399],[128.52682,37.88453],[128.52753,37.88532],[128.52744,37.88634],[128.52816,37.88688],[128.52929,37.88754],[128.52998,37.88885],[128.53041,37.88899],[128.53076,37.88895],[128.53294,37.88961],[128.53407,37.89007],[128.53613,37.88989],[128.53661,37.88969],[128.53928,37.89095],[128.53975,37.89114],[128.54023,37.89116],[128.54101,37.89109],[128.54153,37.89052],[128.54224,37.89005],[128.54299,37.88845],[128.54407,37.8872],[128.5453,37.88692],[128.54582,37.88669],[128.54598,37.88651],[128.5467,37.88614],[128.54776,37.88526],[128.54999,37.88451],[128.55054,37.88423],[128.55089,37.88413],[128.5518,37.8833],[128.55243,37.88308],[128.55525,37.88172],[128.55576,37.88123],[128.5561,37.88103],[128.55632,37.88078],[128.55667,37.88067],[128.5568,37.88042],[128.55711,37.88016],[128.55746,37.88003],[128.55804,37.87942],[128.55817,37.87888],[128.55805,37.87868],[128.55824,37.87852],[128.55824,37.87806],[128.55845,37.87776],[128.55922,37.87705],[128.55924,37.87669],[128.55913,37.87652],[128.55932,37.87634],[128.55925,37.87614],[128.55949,37.8756],[128.56007,37.87539],[128.56372,37.87562],[128.56427,37.87548],[128.56553,37.87543],[128.56568,37.87527],[128.56602,37.8753],[128.56681,37.87563],[128.56788,37.87646],[128.56768,37.87711],[128.56799,37.87773],[128.56869,37.87848],[128.56891,37.87859],[128.56961,37.87932],[128.57018,37.88053],[128.57039,37.88131],[128.57074,37.8817],[128.57139,37.882],[128.57208,37.88266],[128.57282,37.88493],[128.57285,37.88605],[128.57332,37.88678],[128.57269,37.88762],[128.57233,37.88853],[128.57218,37.88937],[128.5716,37.88982],[128.57148,37.89091],[128.57101,37.89164],[128.57129,37.89271],[128.57043,37.8937],[128.57039,37.89437],[128.56996,37.89484],[128.5694,37.89579],[128.56928,37.89682],[128.57018,37.89801],[128.5702,37.89823],[128.56871,37.89875],[128.5679,37.89942],[128.56772,37.89988],[128.56717,37.90047],[128.56712,37.90154],[128.56756,37.90222],[128.56755,37.90285],[128.57021,37.90481],[128.57046,37.90579],[128.56995,37.90652],[128.57003,37.90676],[128.56888,37.90795],[128.56899,37.90826],[128.56836,37.91009],[128.56732,37.91159],[128.56714,37.91258],[128.56746,37.91413],[128.56697,37.91468],[128.5666,37.91582],[128.56671,37.91601],[128.56642,37.91715],[128.56637,37.91842],[128.56708,37.91805],[128.56739,37.918],[128.56782,37.91834],[128.56861,37.91853],[128.56921,37.91912],[128.56936,37.91944],[128.56973,37.91996],[128.57026,37.92036],[128.57121,37.92199],[128.57149,37.92239],[128.57161,37.92285],[128.57162,37.92371],[128.57154,37.92444],[128.57087,37.92505],[128.57056,37.92584],[128.57078,37.92624],[128.5708,37.92666],[128.5711,37.92747],[128.57107,37.92837],[128.57076,37.92894],[128.57115,37.92958],[128.57112,37.92981],[128.57221,37.93051],[128.57292,37.93063],[128.57312,37.93085],[128.57378,37.93119],[128.57424,37.93166],[128.57686,37.93351],[128.57738,37.93378],[128.57776,37.9339],[128.57805,37.9342],[128.57847,37.93501],[128.5791,37.93518],[128.57981,37.93585],[128.58008,37.93645],[128.58031,37.93675],[128.58034,37.93727],[128.58186,37.93866],[128.58012,37.93976],[128.58012,37.94018],[128.5793,37.94066],[128.57843,37.94194],[128.57827,37.94225],[128.57693,37.94286],[128.57591,37.94292],[128.57633,37.94322],[128.5769,37.94345],[128.57769,37.94413],[128.57828,37.94498],[128.57853,37.94553],[128.57898,37.94569],[128.57937,37.94601],[128.57956,37.94639],[128.57954,37.94675],[128.57938,37.94701],[128.57944,37.9473],[128.58006,37.94795],[128.58033,37.94849],[128.58079,37.94913],[128.58154,37.94979],[128.58215,37.95008],[128.5832,37.95165],[128.58327,37.95199],[128.58303,37.95231],[128.583,37.95293],[128.58321,37.95371],[128.5845,37.95396],[128.58501,37.95427],[128.58629,37.95484],[128.58717,37.95552],[128.58752,37.95593],[128.5891,37.95728],[128.58966,37.9588],[128.59006,37.95913],[128.59042,37.95967],[128.59078,37.95998],[128.59091,37.9602],[128.59106,37.96145],[128.59013,37.96176],[128.58946,37.96217],[128.58942,37.96243],[128.58826,37.96283],[128.587,37.96414],[128.58692,37.96482],[128.58764,37.96668],[128.5876,37.96717],[128.587,37.96791],[128.58724,37.96874],[128.58812,37.96988],[128.58753,37.97049],[128.58742,37.97124],[128.58702,37.97179],[128.58652,37.97214],[128.58623,37.97263],[128.58615,37.97426],[128.58741,37.97521],[128.58767,37.97638],[128.58799,37.97644],[128.58864,37.97632],[128.58902,37.97596],[128.58944,37.97572],[128.59037,37.97557],[128.59086,37.97561],[128.5914,37.97558],[128.59198,37.97548],[128.59324,37.97591],[128.59428,37.97632],[128.59475,37.97631],[128.59508,37.97618],[128.59531,37.97622],[128.59554,37.97604],[128.59686,37.97573],[128.59741,37.9758],[128.59824,37.97549],[128.59945,37.97556],[128.59919,37.97615],[128.59978,37.97715],[128.60002,37.97811],[128.59989,37.97893],[128.59975,37.97931],[128.60004,37.97977],[128.60083,37.98016],[128.60132,37.98049],[128.60147,37.98089],[128.60218,37.98131],[128.60257,37.98171],[128.60273,37.982],[128.60299,37.98395],[128.60293,37.98454],[128.60361,37.98588],[128.60428,37.98583],[128.60515,37.9859],[128.60559,37.98602],[128.60619,37.98658],[128.60608,37.98737],[128.60651,37.98832],[128.60593,37.9891],[128.60578,37.98968],[128.60542,37.98984],[128.60531,37.9902],[128.60525,37.99101],[128.60491,37.99224],[128.60498,37.99271],[128.60533,37.99333],[128.60515,37.99511],[128.60587,37.99635],[128.60682,37.99672],[128.60727,37.99743],[128.60752,37.99753],[128.6077,37.99813],[128.60697,37.99884],[128.60694,37.99975],[128.60705,38.00007],[128.60691,38.00116],[128.60589,38.00233],[128.60477,38.0033],[128.60483,38.00404],[128.60548,38.00427],[128.60598,38.00464],[128.60672,38.00491],[128.6077,38.00507],[128.60862,38.00563],[128.60878,38.00608],[128.60878,38.00671],[128.60896,38.00721],[128.60886,38.00773],[128.60862,38.00817],[128.60917,38.00855],[128.60959,38.00846],[128.61016,38.00847],[128.61077,38.00858],[128.6113,38.00887],[128.61122,38.00932],[128.61091,38.00979],[128.61096,38.01047],[128.61195,38.01082],[128.61344,38.01176],[128.61412,38.0121],[128.61547,38.01294],[128.616,38.01323],[128.61696,38.01357],[128.61759,38.0139],[128.61809,38.01459],[128.61912,38.01518],[128.61963,38.01558],[128.62043,38.01592],[128.6219,38.01604],[128.62213,38.01656],[128.62302,38.01947],[128.6231,38.02147],[128.62193,38.02208],[128.62022,38.02223],[128.61551,38.02103],[128.61397,38.02376],[128.61555,38.0263],[128.61596,38.0279],[128.61419,38.03067],[128.61336,38.0329],[128.61413,38.03275],[128.61398,38.03306],[128.61454,38.03357],[128.61495,38.03379],[128.61552,38.03462],[128.61508,38.03593],[128.61477,38.03597],[128.61313,38.03684],[128.61276,38.03692],[128.61233,38.03759],[128.61222,38.03813],[128.6127,38.03853],[128.61219,38.03894],[128.61236,38.03966],[128.61197,38.04055],[128.61221,38.04236],[128.61142,38.04302],[128.61084,38.0438],[128.61056,38.04406],[128.60964,38.04466],[128.60934,38.04497],[128.60958,38.04598],[128.61003,38.04642],[128.60969,38.04712],[128.60993,38.04764],[128.60964,38.04777],[128.60953,38.048],[128.60993,38.0488],[128.61029,38.04922],[128.61074,38.04948],[128.61121,38.05013],[128.61128,38.05035],[128.61106,38.05071],[128.61069,38.0511],[128.61015,38.05153],[128.61015,38.05177],[128.60971,38.05225],[128.60966,38.05273],[128.60982,38.05321],[128.60986,38.05403],[128.61121,38.05457],[128.61205,38.05523],[128.6127,38.05604],[128.61292,38.05709],[128.6129,38.05821],[128.61293,38.05913],[128.61299,38.05978],[128.6129,38.06008],[128.61292,38.06118],[128.61274,38.06189],[128.61194,38.06315],[128.61194,38.06441],[128.61223,38.06661],[128.6125,38.06721],[128.61179,38.06787],[128.61174,38.0688],[128.61154,38.06912],[128.61044,38.06925],[128.60916,38.0693],[128.60819,38.06928],[128.60604,38.06931],[128.60531,38.0699],[128.60441,38.07072],[128.60349,38.07146],[128.60242,38.07195],[128.60141,38.07215],[128.59975,38.07305],[128.59844,38.0733],[128.59718,38.07363],[128.59667,38.07385],[128.59611,38.07343],[128.59412,38.07432],[128.59293,38.07475],[128.59267,38.07587],[128.59201,38.07599],[128.59152,38.07601],[128.59077,38.07617],[128.59012,38.07683],[128.58985,38.07674],[128.58936,38.07639],[128.58864,38.07638],[128.58825,38.07655],[128.58795,38.07638],[128.58787,38.07693],[128.58757,38.07705],[128.58682,38.07701],[128.58645,38.07711],[128.58652,38.07735],[128.58647,38.07781],[128.58592,38.0781],[128.58529,38.0782],[128.58471,38.07841],[128.58445,38.07952],[128.58424,38.07951],[128.58328,38.07993],[128.58308,38.08055],[128.58312,38.08105],[128.58287,38.08157],[128.58248,38.08165],[128.58214,38.08182],[128.58147,38.08189],[128.58119,38.08176],[128.58073,38.08173],[128.58003,38.08182],[128.5786,38.08238],[128.57822,38.08222],[128.57794,38.08239],[128.57714,38.08356],[128.57734,38.08385],[128.57775,38.08395],[128.57826,38.08431],[128.57813,38.0847],[128.5773,38.08508],[128.57698,38.0853],[128.57691,38.08563],[128.57645,38.08585],[128.57642,38.0861],[128.57682,38.08635],[128.57715,38.08682],[128.57659,38.08696],[128.57621,38.08713],[128.57582,38.08718],[128.57579,38.08736],[128.57549,38.08758],[128.5742,38.08836],[128.57368,38.08835],[128.57343,38.08855],[128.57338,38.0889],[128.57382,38.08953],[128.57401,38.08967],[128.57336,38.09022],[128.57402,38.0908],[128.57397,38.0915],[128.57405,38.09174],[128.573,38.09129],[128.57256,38.09126],[128.57209,38.09156],[128.57203,38.09202],[128.57161,38.09165],[128.57114,38.09157],[128.5707,38.09179],[128.57014,38.09124],[128.56934,38.09129],[128.56875,38.09119],[128.56844,38.09084],[128.56833,38.09049],[128.56786,38.08992],[128.56701,38.09015],[128.56628,38.09087],[128.56608,38.09136],[128.56614,38.09172],[128.56627,38.09191],[128.56572,38.09232],[128.56491,38.09351],[128.56446,38.09382],[128.56395,38.09392],[128.5641,38.09444],[128.56347,38.09492],[128.56344,38.09516],[128.56279,38.09617],[128.56235,38.09642],[128.56181,38.09633],[128.56115,38.09662],[128.55987,38.09636],[128.55926,38.09637],[128.55892,38.09665],[128.55822,38.0968],[128.55744,38.09743],[128.55701,38.09746],[128.55618,38.09737],[128.55576,38.0978],[128.55456,38.09788],[128.55433,38.09823],[128.5543,38.09876],[128.55401,38.09904],[128.55342,38.0994],[128.55268,38.09942],[128.55231,38.09934],[128.55103,38.09988],[128.55091,38.09966],[128.55024,38.09937],[128.54951,38.09969],[128.54883,38.09988],[128.54776,38.0998],[128.54621,38.09951],[128.54437,38.10018],[128.54406,38.10012],[128.54253,38.10053],[128.542,38.1004],[128.54076,38.10029],[128.54017,38.1002],[128.53774,38.1013],[128.53713,38.10263],[128.53627,38.10274],[128.5356,38.10292],[128.53502,38.10318],[128.53438,38.10369],[128.53376,38.10381],[128.53305,38.10367],[128.5324,38.10367],[128.53177,38.10458],[128.53184,38.10545],[128.53152,38.1057],[128.53131,38.10633],[128.53113,38.10655],[128.53062,38.10681],[128.52978,38.10692],[128.52893,38.10762],[128.52801,38.10791],[128.52786,38.10912],[128.52756,38.10997],[128.52645,38.11123],[128.52615,38.1125],[128.52577,38.11248],[128.5255,38.11268],[128.52431,38.11186],[128.5228,38.11192],[128.52085,38.11123],[128.52003,38.11146],[128.51871,38.11167],[128.51673,38.11111],[128.51442,38.11112],[128.51379,38.11082],[128.51363,38.11066],[128.5124,38.11046],[128.51176,38.11012],[128.51134,38.11007],[128.51053,38.1096],[128.51047,38.10935],[128.50996,38.10904],[128.50904,38.10919],[128.50837,38.10948],[128.50805,38.1095],[128.50777,38.10968],[128.5073,38.10969],[128.50693,38.10993],[128.50484,38.11082],[128.50461,38.11069],[128.50354,38.11061],[128.50181,38.111],[128.50124,38.11075],[128.50005,38.11044],[128.49906,38.10932],[128.49725,38.10902],[128.49678,38.10938],[128.49579,38.10959],[128.49532,38.10985],[128.49444,38.10985],[128.49377,38.10957],[128.49319,38.10913],[128.49216,38.10876],[128.49141,38.10892],[128.49108,38.10864],[128.48936,38.10921],[128.48861,38.10963],[128.48752,38.10981],[128.48695,38.11005],[128.48648,38.11017],[128.48633,38.11041],[128.48522,38.11091],[128.48454,38.11159],[128.48413,38.11181],[128.48333,38.11205],[128.48317,38.11195],[128.48239,38.1121],[128.47999,38.11398],[128.47946,38.11423],[128.47832,38.11459],[128.47732,38.11461],[128.47622,38.11488],[128.47572,38.11511],[128.47423,38.1152],[128.47311,38.11553],[128.4726,38.1159],[128.47207,38.116],[128.47108,38.116],[128.47038,38.11586],[128.46985,38.11592],[128.46959,38.11605],[128.46917,38.11608],[128.46875,38.11638],[128.46801,38.11666],[128.46769,38.1172],[128.4677,38.1181],[128.46687,38.11891],[128.46693,38.11895],[128.46486,38.11921]]]},"properties":{"code":"32610310","name":"서면"}},{"type":"Feature","geometry":{"type":"MultiPolygon","coordinates":[[[[128.6765,38.06946],[128.6766,38.06957],[128.67655,38.06994],[128.67622,38.06972],[128.6765,38.06946]]],[[[128.67735,38.07462],[128.67744,38.07515],[128.67723,38.07538],[128.67708,38.07505],[128.67735,38.07462]]],[[[128.70494,38.03874],[128.70338,38.04008],[128.70328,38.04025],[128.7029,38.04048],[128.7024,38.04095],[128.7013,38.04186],[128.70028,38.04291],[128.69988,38.04308],[128.69826,38.04446],[128.69787,38.04492],[128.69757,38.04509],[128.69536,38.04713],[128.69512,38.04727],[128.69415,38.04824],[128.69295,38.04925],[128.69209,38.05004],[128.69208,38.05013],[128.69005,38.05219],[128.68969,38.05248],[128.68798,38.05404],[128.68697,38.05502],[128.68616,38.05584],[128.68547,38.05651],[128.68486,38.05716],[128.68345,38.05861],[128.68179,38.06052],[128.68137,38.06116],[128.68128,38.06138],[128.68133,38.06171],[128.6818,38.06167],[128.68184,38.0618],[128.68081,38.06193],[128.68069,38.0624],[128.68052,38.06257],[128.6806,38.06286],[128.68042,38.06297],[128.68056,38.06337],[128.68082,38.06338],[128.68076,38.06377],[128.68046,38.06383],[128.6805,38.06428],[128.6801,38.06452],[128.67996,38.06415],[128.67928,38.06406],[128.67877,38.06429],[128.67829,38.06472],[128.6784,38.06495],[128.67795,38.06497],[128.67746,38.06542],[128.67674,38.0663],[128.67629,38.06673],[128.67605,38.06722],[128.67615,38.06739],[128.67594,38.06773],[128.67569,38.06837],[128.6755,38.06862],[128.67568,38.06906],[128.67586,38.06925],[128.6759,38.06956],[128.67573,38.07004],[128.67557,38.07011],[128.67538,38.07053],[128.67499,38.07092],[128.67506,38.07131],[128.6754,38.07146],[128.67625,38.07157],[128.67635,38.07173],[128.67677,38.07193],[128.67691,38.07209],[128.67692,38.0724],[128.67661,38.07263],[128.67679,38.07275],[128.67686,38.0732],[128.67661,38.07314],[128.67624,38.07355],[128.67629,38.07384],[128.67666,38.07404],[128.67726,38.0739],[128.67739,38.07417],[128.67705,38.07494],[128.67672,38.07523],[128.67651,38.07524],[128.67626,38.07552],[128.67617,38.0762],[128.67629,38.07641],[128.67799,38.07767],[128.67814,38.07786],[128.67794,38.07806],[128.67768,38.0778],[128.67652,38.07694],[128.67623,38.07691],[128.67585,38.07663],[128.67468,38.07762],[128.67438,38.07764],[128.67385,38.07725],[128.67331,38.07725],[128.67349,38.07756],[128.67331,38.07772],[128.67345,38.07797],[128.67333,38.07825],[128.67298,38.0786],[128.67413,38.07933],[128.67342,38.08004],[128.67478,38.0809],[128.67519,38.08049],[128.6767,38.07969],[128.67689,38.07953],[128.67799,38.07896],[128.67914,38.07889],[128.67915,38.07768],[128.67893,38.07739],[128.679,38.07713],[128.6795,38.07712],[128.6796,38.07744],[128.67952,38.07876],[128.68006,38.07865],[128.68041,38.0787],[128.68049,38.07894],[128.6802,38.07917],[128.67828,38.07928],[128.678,38.07934],[128.67729,38.07974],[128.67622,38.08026],[128.67534,38.08073],[128.6748,38.08128],[128.67495,38.08145],[128.6751,38.08198],[128.67543,38.08206],[128.67535,38.0828],[128.67523,38.08288],[128.67475,38.08286],[128.67473,38.08325],[128.67454,38.08348],[128.67466,38.08375],[128.67439,38.084],[128.67378,38.08401],[128.67344,38.08392],[128.67345,38.08375],[128.67318,38.08353],[128.67253,38.08352],[128.67232,38.0832],[128.67191,38.08319],[128.67152,38.08331],[128.67094,38.08373],[128.67015,38.08443],[128.66997,38.0847],[128.67003,38.08486],[128.66978,38.08519],[128.66976,38.08539],[128.66951,38.08559],[128.66934,38.08606],[128.66944,38.08628],[128.66907,38.0865],[128.66851,38.08654],[128.66802,38.08684],[128.66774,38.08746],[128.66773,38.08784],[128.66738,38.08802],[128.66709,38.08843],[128.66709,38.08878],[128.6673,38.08888],[128.6673,38.0892],[128.66712,38.08933],[128.66731,38.08967],[128.66687,38.0898],[128.66622,38.0895],[128.66569,38.0903],[128.66521,38.09026],[128.6649,38.09063],[128.66569,38.0905],[128.66587,38.09035],[128.66648,38.09045],[128.66688,38.09041],[128.66769,38.09008],[128.66834,38.08957],[128.66835,38.0899],[128.6677,38.09038],[128.66729,38.09055],[128.66656,38.09066],[128.66608,38.0906],[128.66595,38.09076],[128.66602,38.09125],[128.66588,38.09151],[128.66568,38.09159],[128.66505,38.09146],[128.66483,38.09093],[128.66429,38.09097],[128.66344,38.09136],[128.66271,38.09184],[128.66206,38.09241],[128.66176,38.09275],[128.66099,38.09343],[128.65979,38.09437],[128.65909,38.09485],[128.65813,38.09563],[128.65782,38.09598],[128.65675,38.09693],[128.65589,38.09783],[128.65521,38.09859],[128.65307,38.10037],[128.65214,38.10122],[128.65095,38.10246],[128.65008,38.10313],[128.64952,38.10363],[128.64897,38.10437],[128.64838,38.10505],[128.64765,38.1058],[128.64721,38.10646],[128.64632,38.10676],[128.64618,38.10701],[128.64462,38.10461],[128.64442,38.10287],[128.64404,38.1021],[128.64314,38.10071],[128.64278,38.10011],[128.64248,38.09947],[128.64236,38.099],[128.64231,38.09841],[128.64236,38.09583],[128.64239,38.09492],[128.64311,38.09215],[128.64315,38.09163],[128.64307,38.09115],[128.64261,38.08947],[128.64211,38.08849],[128.64162,38.08784],[128.64147,38.08733],[128.64064,38.08629],[128.64006,38.08567],[128.63913,38.08489],[128.63848,38.08403],[128.63827,38.08383],[128.63826,38.08265],[128.63857,38.08246],[128.63758,38.08116],[128.63685,38.08058],[128.63471,38.07949],[128.63359,38.07885],[128.63293,38.07841],[128.63274,38.07776],[128.63287,38.07667],[128.63292,38.076],[128.63261,38.0754],[128.63202,38.07499],[128.63177,38.07464],[128.6319,38.0742],[128.63265,38.07415],[128.63336,38.07387],[128.63399,38.07347],[128.63431,38.07318],[128.63447,38.0726],[128.63483,38.07229],[128.63451,38.07221],[128.63363,38.07181],[128.63346,38.07098],[128.63321,38.07066],[128.63301,38.07003],[128.63227,38.06943],[128.63273,38.0689],[128.63297,38.0685],[128.63285,38.06738],[128.63194,38.06741],[128.63154,38.06722],[128.6312,38.06688],[128.63032,38.06571],[128.63031,38.06514],[128.63012,38.06492],[128.62985,38.0649],[128.62918,38.06437],[128.62898,38.06407],[128.62915,38.06389],[128.62993,38.0637],[128.63067,38.06252],[128.63128,38.06191],[128.63166,38.06088],[128.63215,38.06015],[128.63211,38.05976],[128.63155,38.05907],[128.6301,38.05831],[128.62862,38.05833],[128.62802,38.05806],[128.62597,38.05782],[128.62558,38.05768],[128.62533,38.05705],[128.62419,38.05634],[128.62441,38.05582],[128.62434,38.05531],[128.62408,38.05487],[128.62322,38.05432],[128.62288,38.05402],[128.62155,38.0534],[128.621,38.0532],[128.62023,38.05299],[128.61972,38.05298],[128.61842,38.05271],[128.61816,38.05195],[128.61844,38.05146],[128.61786,38.05113],[128.61728,38.05027],[128.61651,38.04976],[128.61587,38.04921],[128.61585,38.04876],[128.61571,38.04862],[128.61519,38.0484],[128.61477,38.04841],[128.61402,38.04819],[128.61388,38.04793],[128.61314,38.04778],[128.61212,38.04818],[128.61149,38.04806],[128.61109,38.04763],[128.61031,38.04773],[128.60993,38.04764],[128.60969,38.04712],[128.61003,38.04642],[128.60958,38.04598],[128.60934,38.04497],[128.60964,38.04466],[128.61056,38.04406],[128.61084,38.0438],[128.61142,38.04302],[128.61221,38.04236],[128.61197,38.04055],[128.61236,38.03966],[128.61219,38.03894],[128.6127,38.03853],[128.61222,38.03813],[128.61233,38.03759],[128.61276,38.03692],[128.61313,38.03684],[128.61477,38.03597],[128.61508,38.03593],[128.61552,38.03462],[128.61495,38.03379],[128.61454,38.03357],[128.61398,38.03306],[128.61413,38.03275],[128.61336,38.0329],[128.61419,38.03067],[128.61596,38.0279],[128.61555,38.0263],[128.61397,38.02376],[128.61551,38.02103],[128.62022,38.02223],[128.62193,38.02208],[128.6231,38.02147],[128.62302,38.01947],[128.62213,38.01656],[128.6219,38.01604],[128.62225,38.0161],[128.62259,38.01633],[128.62295,38.01619],[128.62445,38.01437],[128.62506,38.01385],[128.62584,38.01342],[128.62869,38.01391],[128.63017,38.01299],[128.63017,38.01128],[128.62823,38.00938],[128.62804,38.00823],[128.63055,38.00611],[128.63145,38.0052],[128.63248,38.0042],[128.63753,38.00078],[128.64045,38.0003],[128.64072,38.00071],[128.64139,38.00067],[128.64183,38.00096],[128.64267,38.00166],[128.64294,38.00216],[128.64406,38.00303],[128.64445,38.00318],[128.645,38.00355],[128.64591,38.00352],[128.64649,38.00339],[128.64654,38.0033],[128.64714,38.0032],[128.64778,38.00324],[128.64837,38.00365],[128.6486,38.00397],[128.64928,38.00401],[128.64979,38.00438],[128.64972,38.00478],[128.6499,38.00502],[128.65052,38.00549],[128.65174,38.00587],[128.65191,38.00616],[128.65235,38.00712],[128.65227,38.00759],[128.65235,38.00825],[128.65291,38.0084],[128.6532,38.0086],[128.6534,38.00828],[128.65426,38.00817],[128.65446,38.00842],[128.65477,38.00864],[128.65513,38.00918],[128.65799,38.00966],[128.65834,38.00969],[128.65992,38.01053],[128.66069,38.01008],[128.66085,38.0101],[128.66149,38.01072],[128.66257,38.01014],[128.66297,38.01075],[128.66332,38.01173],[128.66369,38.01219],[128.66414,38.01234],[128.66478,38.01232],[128.665,38.01258],[128.66524,38.01264],[128.66577,38.01307],[128.66568,38.01331],[128.66503,38.01451],[128.66489,38.01484],[128.66554,38.01513],[128.66572,38.01536],[128.66623,38.01555],[128.66643,38.01607],[128.66691,38.01657],[128.66731,38.0172],[128.66726,38.01747],[128.6675,38.01795],[128.66794,38.01837],[128.66834,38.01859],[128.66888,38.01916],[128.66915,38.01962],[128.66942,38.01984],[128.66981,38.0199],[128.67031,38.02026],[128.67057,38.02066],[128.67076,38.02147],[128.67131,38.02203],[128.67128,38.02215],[128.67178,38.02261],[128.67177,38.0232],[128.67229,38.02362],[128.67276,38.02386],[128.67301,38.02417],[128.67316,38.02464],[128.67349,38.0251],[128.6736,38.02563],[128.67376,38.02579],[128.6733,38.02635],[128.67342,38.02668],[128.67273,38.02736],[128.67258,38.02782],[128.67293,38.02823],[128.67322,38.02897],[128.67351,38.02888],[128.67404,38.0289],[128.67475,38.02861],[128.67542,38.02848],[128.67603,38.029],[128.67671,38.02934],[128.67786,38.02898],[128.67853,38.0292],[128.67889,38.0294],[128.67937,38.03015],[128.6799,38.03026],[128.68011,38.03061],[128.68109,38.03095],[128.68133,38.03097],[128.6818,38.03065],[128.68243,38.03059],[128.68279,38.03043],[128.68351,38.03047],[128.6852,38.0307],[128.68534,38.03065],[128.68581,38.03018],[128.68602,38.03015],[128.68673,38.03025],[128.68733,38.03014],[128.68791,38.0304],[128.6884,38.03082],[128.68868,38.03039],[128.68943,38.02954],[128.68959,38.02941],[128.69034,38.02924],[128.69087,38.02969],[128.69151,38.03],[128.69271,38.03043],[128.69338,38.03033],[128.69389,38.0302],[128.69435,38.03001],[128.69547,38.03055],[128.69686,38.03018],[128.69745,38.03084],[128.69744,38.03101],[128.69685,38.03172],[128.69667,38.03208],[128.69672,38.03282],[128.69715,38.03307],[128.69718,38.03327],[128.69754,38.03355],[128.69724,38.03412],[128.69782,38.03485],[128.698,38.03486],[128.69858,38.03462],[128.69913,38.03455],[128.69978,38.03483],[128.7007,38.03474],[128.70143,38.03489],[128.70188,38.03476],[128.70252,38.03544],[128.70291,38.03691],[128.70287,38.03753],[128.70421,38.03833],[128.70494,38.03874]]]]},"properties":{"code":"32610320","name":"손양면"}},{"type":"Feature","geometry":{"type":"MultiPolygon","coordinates":[[[[128.74294,38.00761],[128.7426,38.00765],[128.74281,38.00726],[128.74202,38.0071],[128.74215,38.00695],[128.74214,38.00634],[128.74274,38.00633],[128.74282,38.00666],[128.74368,38.00643],[128.74395,38.00645],[128.74408,38.0069],[128.74364,38.00714],[128.74368,38.00725],[128.74334,38.00765],[128.74294,38.00761]]],[[[128.74474,37.99228],[128.74434,37.99252],[128.74327,37.99349],[128.74234,37.99443],[128.74087,37.99609],[128.74051,37.99643],[128.74017,37.997],[128.74004,37.99774],[128.73961,37.99805],[128.73908,37.99809],[128.73872,37.99835],[128.7385,37.99885],[128.73822,37.99913],[128.73798,37.9997],[128.73794,38.00009],[128.73855,38.00079],[128.73798,38.00077],[128.73772,38.00088],[128.73747,38.0015],[128.73714,38.00178],[128.73684,38.00263],[128.73687,38.00284],[128.73658,38.00299],[128.73667,38.00327],[128.73615,38.0033],[128.73611,38.00356],[128.73584,38.00361],[128.73562,38.00385],[128.73539,38.00382],[128.73482,38.00393],[128.73442,38.00379],[128.73397,38.00385],[128.7334,38.00416],[128.73299,38.0045],[128.73292,38.00469],[128.73251,38.00509],[128.73173,38.00518],[128.73159,38.00534],[128.7323,38.0055],[128.73197,38.00608],[128.73186,38.00651],[128.73187,38.00696],[128.73152,38.00712],[128.7306,38.0071],[128.73045,38.00798],[128.73057,38.00862],[128.73082,38.00877],[128.73143,38.00879],[128.7315,38.0085],[128.73202,38.00781],[128.733,38.00696],[128.73319,38.00708],[128.73219,38.00798],[128.73184,38.00856],[128.73159,38.00956],[128.73173,38.00959],[128.73159,38.01009],[128.73165,38.01034],[128.73147,38.0105],[128.73174,38.01073],[128.73127,38.01087],[128.73077,38.01065],[128.72954,38.01111],[128.72985,38.01164],[128.73062,38.01137],[128.73068,38.01146],[128.73008,38.01169],[128.73,38.01181],[128.73021,38.01225],[128.73091,38.01225],[128.73104,38.01235],[128.73162,38.01201],[128.7319,38.01154],[128.73267,38.01109],[128.73271,38.01079],[128.73303,38.01094],[128.73279,38.0113],[128.7323,38.01156],[128.73193,38.01189],[128.73184,38.01231],[128.73193,38.0125],[128.7322,38.01263],[128.7324,38.01326],[128.73258,38.01332],[128.73262,38.01369],[128.73249,38.01411],[128.73217,38.01448],[128.73221,38.01484],[128.73238,38.01512],[128.73265,38.01523],[128.73344,38.01502],[128.73387,38.01515],[128.73392,38.01544],[128.73366,38.01577],[128.73328,38.01583],[128.73348,38.01607],[128.73346,38.01634],[128.7332,38.0166],[128.73338,38.01675],[128.73295,38.01708],[128.73302,38.01736],[128.73338,38.01739],[128.73352,38.01788],[128.73369,38.01805],[128.73407,38.01802],[128.73403,38.01841],[128.73452,38.01857],[128.73458,38.01905],[128.73524,38.01959],[128.73565,38.01941],[128.73569,38.01963],[128.73546,38.02039],[128.73576,38.02045],[128.73594,38.02028],[128.73644,38.02048],[128.73623,38.02084],[128.73593,38.02097],[128.73586,38.02118],[128.73539,38.02128],[128.73522,38.0216],[128.73577,38.02169],[128.73618,38.02203],[128.73551,38.02246],[128.73527,38.02249],[128.73515,38.02274],[128.73484,38.02265],[128.7342,38.02287],[128.73374,38.02277],[128.73368,38.02261],[128.73316,38.02221],[128.73288,38.02216],[128.7326,38.0219],[128.73234,38.02189],[128.73222,38.02165],[128.7318,38.0214],[128.73096,38.02129],[128.73049,38.02131],[128.72979,38.02149],[128.7296,38.02176],[128.72963,38.02199],[128.72944,38.02214],[128.72936,38.02258],[128.7291,38.02305],[128.7288,38.02242],[128.72841,38.0221],[128.72803,38.02211],[128.72741,38.02235],[128.72623,38.02292],[128.72571,38.02336],[128.72536,38.02397],[128.72521,38.02375],[128.72465,38.02398],[128.72411,38.0244],[128.72361,38.02471],[128.72293,38.02523],[128.72249,38.02549],[128.7218,38.02599],[128.72138,38.02623],[128.72081,38.0267],[128.72043,38.02692],[128.71973,38.02741],[128.71884,38.02817],[128.71813,38.02857],[128.71682,38.02958],[128.7164,38.02979],[128.71586,38.03018],[128.71521,38.03074],[128.71345,38.032],[128.71264,38.03261],[128.71242,38.03284],[128.71158,38.0335],[128.71123,38.03372],[128.71086,38.03411],[128.70874,38.03567],[128.70819,38.03616],[128.70785,38.03659],[128.7073,38.03713],[128.70673,38.03738],[128.70627,38.03768],[128.70548,38.03835],[128.70494,38.03874],[128.70421,38.03833],[128.70287,38.03753],[128.70291,38.03691],[128.70252,38.03544],[128.70188,38.03476],[128.70143,38.03489],[128.7007,38.03474],[128.69978,38.03483],[128.69913,38.03455],[128.69858,38.03462],[128.698,38.03486],[128.69782,38.03485],[128.69724,38.03412],[128.69754,38.03355],[128.69718,38.03327],[128.69715,38.03307],[128.69672,38.03282],[128.69667,38.03208],[128.69685,38.03172],[128.69744,38.03101],[128.69745,38.03084],[128.69686,38.03018],[128.69547,38.03055],[128.69435,38.03001],[128.69389,38.0302],[128.69338,38.03033],[128.69271,38.03043],[128.69151,38.03],[128.69087,38.02969],[128.69034,38.02924],[128.68959,38.02941],[128.68943,38.02954],[128.68868,38.03039],[128.6884,38.03082],[128.68791,38.0304],[128.68733,38.03014],[128.68673,38.03025],[128.68602,38.03015],[128.68581,38.03018],[128.68534,38.03065],[128.6852,38.0307],[128.68351,38.03047],[128.68279,38.03043],[128.68243,38.03059],[128.6818,38.03065],[128.68133,38.03097],[128.68109,38.03095],[128.68011,38.03061],[128.6799,38.03026],[128.67937,38.03015],[128.67889,38.0294],[128.67853,38.0292],[128.67786,38.02898],[128.67671,38.02934],[128.67603,38.029],[128.67542,38.02848],[128.67475,38.02861],[128.67404,38.0289],[128.67351,38.02888],[128.67322,38.02897],[128.67293,38.02823],[128.67258,38.02782],[128.67273,38.02736],[128.67342,38.02668],[128.6733,38.02635],[128.67376,38.02579],[128.6736,38.02563],[128.67349,38.0251],[128.67316,38.02464],[128.67301,38.02417],[128.67276,38.02386],[128.67229,38.02362],[128.67177,38.0232],[128.67178,38.02261],[128.67128,38.02215],[128.67131,38.02203],[128.67076,38.02147],[128.67057,38.02066],[128.67031,38.02026],[128.66981,38.0199],[128.66942,38.01984],[128.66915,38.01962],[128.66888,38.01916],[128.66834,38.01859],[128.66794,38.01837],[128.6675,38.01795],[128.66726,38.01747],[128.66731,38.0172],[128.66691,38.01657],[128.66643,38.01607],[128.66623,38.01555],[128.66572,38.01536],[128.66554,38.01513],[128.66489,38.01484],[128.66503,38.01451],[128.66568,38.01331],[128.66577,38.01307],[128.66524,38.01264],[128.665,38.01258],[128.66478,38.01232],[128.66414,38.01234],[128.66369,38.01219],[128.66332,38.01173],[128.66297,38.01075],[128.66257,38.01014],[128.66149,38.01072],[128.66085,38.0101],[128.66069,38.01008],[128.65992,38.01053],[128.65834,38.00969],[128.65799,38.00966],[128.65513,38.00918],[128.65477,38.00864],[128.65446,38.00842],[128.65426,38.00817],[128.6534,38.00828],[128.6532,38.0086],[128.65291,38.0084],[128.65235,38.00825],[128.65227,38.00759],[128.65235,38.00712],[128.65191,38.00616],[128.65174,38.00587],[128.65052,38.00549],[128.6499,38.00502],[128.64972,38.00478],[128.64979,38.00438],[128.64928,38.00401],[128.6486,38.00397],[128.64837,38.00365],[128.64778,38.00324],[128.64714,38.0032],[128.64654,38.0033],[128.64649,38.00339],[128.64591,38.00352],[128.645,38.00355],[128.64445,38.00318],[128.64406,38.00303],[128.64294,38.00216],[128.64267,38.00166],[128.64183,38.00096],[128.64139,38.00067],[128.64072,38.00071],[128.64045,38.0003],[128.63753,38.00078],[128.63248,38.0042],[128.63145,38.0052],[128.63055,38.00611],[128.62804,38.00823],[128.62823,38.00938],[128.63017,38.01128],[128.63017,38.01299],[128.62869,38.01391],[128.62584,38.01342],[128.62506,38.01385],[128.62445,38.01437],[128.62295,38.01619],[128.62259,38.01633],[128.62225,38.0161],[128.6219,38.01604],[128.62043,38.01592],[128.61963,38.01558],[128.61912,38.01518],[128.61809,38.01459],[128.61759,38.0139],[128.61696,38.01357],[128.616,38.01323],[128.61547,38.01294],[128.61412,38.0121],[128.61344,38.01176],[128.61195,38.01082],[128.61096,38.01047],[128.61091,38.00979],[128.61122,38.00932],[128.6113,38.00887],[128.61077,38.00858],[128.61016,38.00847],[128.60959,38.00846],[128.60917,38.00855],[128.60862,38.00817],[128.60886,38.00773],[128.60896,38.00721],[128.60878,38.00671],[128.60878,38.00608],[128.60862,38.00563],[128.6077,38.00507],[128.60672,38.00491],[128.60598,38.00464],[128.60548,38.00427],[128.60483,38.00404],[128.60477,38.0033],[128.60589,38.00233],[128.60691,38.00116],[128.60705,38.00007],[128.60694,37.99975],[128.60697,37.99884],[128.6077,37.99813],[128.60752,37.99753],[128.60727,37.99743],[128.60682,37.99672],[128.60587,37.99635],[128.60515,37.99511],[128.60533,37.99333],[128.60498,37.99271],[128.60491,37.99224],[128.60525,37.99101],[128.60531,37.9902],[128.60542,37.98984],[128.60578,37.98968],[128.60593,37.9891],[128.60651,37.98832],[128.60608,37.98737],[128.60619,37.98658],[128.60559,37.98602],[128.60515,37.9859],[128.60428,37.98583],[128.60361,37.98588],[128.60293,37.98454],[128.60299,37.98395],[128.60273,37.982],[128.60257,37.98171],[128.60218,37.98131],[128.60147,37.98089],[128.60132,37.98049],[128.60083,37.98016],[128.60004,37.97977],[128.59975,37.97931],[128.59989,37.97893],[128.60002,37.97811],[128.59978,37.97715],[128.59919,37.97615],[128.59945,37.97556],[128.59824,37.97549],[128.59741,37.9758],[128.59686,37.97573],[128.59554,37.97604],[128.59531,37.97622],[128.59508,37.97618],[128.59475,37.97631],[128.59428,37.97632],[128.59324,37.97591],[128.59198,37.97548],[128.5914,37.97558],[128.59086,37.97561],[128.59037,37.97557],[128.58944,37.97572],[128.58902,37.97596],[128.58864,37.97632],[128.58799,37.97644],[128.58767,37.97638],[128.58741,37.97521],[128.58615,37.97426],[128.58623,37.97263],[128.58652,37.97214],[128.58702,37.97179],[128.58742,37.97124],[128.58753,37.97049],[128.58812,37.96988],[128.58724,37.96874],[128.587,37.96791],[128.5876,37.96717],[128.58764,37.96668],[128.58692,37.96482],[128.587,37.96414],[128.58826,37.96283],[128.58942,37.96243],[128.58946,37.96217],[128.59013,37.96176],[128.59106,37.96145],[128.59091,37.9602],[128.59078,37.95998],[128.59042,37.95967],[128.59006,37.95913],[128.58966,37.9588],[128.5891,37.95728],[128.58752,37.95593],[128.58717,37.95552],[128.58629,37.95484],[128.58501,37.95427],[128.5845,37.95396],[128.58321,37.95371],[128.583,37.95293],[128.58303,37.95231],[128.58327,37.95199],[128.5832,37.95165],[128.58215,37.95008],[128.58154,37.94979],[128.58079,37.94913],[128.58033,37.94849],[128.58006,37.94795],[128.57944,37.9473],[128.57938,37.94701],[128.57954,37.94675],[128.57956,37.94639],[128.57937,37.94601],[128.57898,37.94569],[128.57853,37.94553],[128.57828,37.94498],[128.57769,37.94413],[128.5769,37.94345],[128.57633,37.94322],[128.57591,37.94292],[128.57693,37.94286],[128.57827,37.94225],[128.57843,37.94194],[128.5793,37.94066],[128.58012,37.94018],[128.58012,37.93976],[128.58186,37.93866],[128.58034,37.93727],[128.58031,37.93675],[128.58008,37.93645],[128.57981,37.93585],[128.5791,37.93518],[128.57847,37.93501],[128.57805,37.9342],[128.57776,37.9339],[128.57738,37.93378],[128.57686,37.93351],[128.57424,37.93166],[128.57378,37.93119],[128.57312,37.93085],[128.57292,37.93063],[128.57221,37.93051],[128.57112,37.92981],[128.57115,37.92958],[128.57076,37.92894],[128.57107,37.92837],[128.5711,37.92747],[128.5708,37.92666],[128.57078,37.92624],[128.57056,37.92584],[128.57087,37.92505],[128.57154,37.92444],[128.57162,37.92371],[128.57161,37.92285],[128.57149,37.92239],[128.57121,37.92199],[128.57026,37.92036],[128.56973,37.91996],[128.56936,37.91944],[128.56921,37.91912],[128.56861,37.91853],[128.56782,37.91834],[128.56739,37.918],[128.56708,37.91805],[128.56637,37.91842],[128.56642,37.91715],[128.56671,37.91601],[128.5666,37.91582],[128.56697,37.91468],[128.56746,37.91413],[128.56714,37.91258],[128.56732,37.91159],[128.56836,37.91009],[128.56899,37.90826],[128.56888,37.90795],[128.57003,37.90676],[128.56995,37.90652],[128.57046,37.90579],[128.57021,37.90481],[128.56755,37.90285],[128.56756,37.90222],[128.56712,37.90154],[128.56717,37.90047],[128.56772,37.89988],[128.5679,37.89942],[128.56871,37.89875],[128.5702,37.89823],[128.57018,37.89801],[128.56928,37.89682],[128.5694,37.89579],[128.56996,37.89484],[128.57039,37.89437],[128.57043,37.8937],[128.57129,37.89271],[128.57101,37.89164],[128.57148,37.89091],[128.5716,37.88982],[128.57218,37.88937],[128.57233,37.88853],[128.57269,37.88762],[128.57332,37.88678],[128.57285,37.88605],[128.57282,37.88493],[128.57208,37.88266],[128.57139,37.882],[128.57074,37.8817],[128.57039,37.88131],[128.57018,37.88053],[128.56961,37.87932],[128.56891,37.87859],[128.56869,37.87848],[128.56799,37.87773],[128.56768,37.87711],[128.56788,37.87646],[128.56681,37.87563],[128.56752,37.87555],[128.56774,37.8754],[128.56798,37.87488],[128.56794,37.87468],[128.56821,37.87436],[128.56869,37.87348],[128.56944,37.8731],[128.56961,37.87276],[128.57099,37.87151],[128.5712,37.87145],[128.57141,37.8712],[128.57188,37.87083],[128.57214,37.87052],[128.57236,37.86953],[128.57263,37.86909],[128.5729,37.86895],[128.57304,37.8686],[128.57334,37.86832],[128.57339,37.86807],[128.57327,37.86782],[128.57344,37.86763],[128.57339,37.86715],[128.57325,37.86696],[128.57327,37.86667],[128.57346,37.86637],[128.57347,37.86606],[128.57363,37.86571],[128.57366,37.86536],[128.57354,37.86504],[128.57376,37.86464],[128.57514,37.86427],[128.57715,37.86402],[128.57749,37.8638],[128.57793,37.86323],[128.57883,37.86279],[128.5794,37.86297],[128.58051,37.86277],[128.58158,37.86291],[128.58249,37.86326],[128.58341,37.86343],[128.58425,37.86296],[128.58633,37.86254],[128.58797,37.86209],[128.58802,37.86203],[128.58818,37.86202],[128.58979,37.8632],[128.59083,37.8643],[128.5916,37.86542],[128.59197,37.8656],[128.59413,37.86578],[128.59486,37.86612],[128.59565,37.86614],[128.5977,37.86596],[128.59847,37.86689],[128.59897,37.8678],[128.59964,37.86839],[128.5998,37.86913],[128.60035,37.86985],[128.60118,37.87071],[128.60205,37.87066],[128.60343,37.87085],[128.6041,37.87079],[128.60518,37.87091],[128.60574,37.87038],[128.60698,37.87035],[128.60773,37.8706],[128.60963,37.87106],[128.61029,37.87144],[128.6118,37.8711],[128.61331,37.87159],[128.61421,37.87141],[128.61552,37.87201],[128.61713,37.87206],[128.61763,37.8719],[128.61835,37.87192],[128.61908,37.87177],[128.62077,37.87235],[128.62127,37.87322],[128.62151,37.87422],[128.62198,37.87422],[128.62264,37.87463],[128.62351,37.87496],[128.6237,37.87575],[128.6235,37.87758],[128.6232,37.87806],[128.62355,37.87844],[128.62465,37.87879],[128.62501,37.87913],[128.62356,37.88052],[128.62396,37.88082],[128.62436,37.88165],[128.62559,37.88239],[128.62677,37.88252],[128.62768,37.88414],[128.62808,37.88446],[128.62848,37.88499],[128.62976,37.88563],[128.63062,37.88567],[128.63121,37.88633],[128.6321,37.8865],[128.6333,37.88722],[128.6348,37.88762],[128.63504,37.88797],[128.63508,37.88835],[128.6357,37.88914],[128.63684,37.88975],[128.63715,37.89019],[128.63797,37.89082],[128.63883,37.89179],[128.6386,37.89181],[128.63731,37.89175],[128.63743,37.892],[128.6385,37.89203],[128.63903,37.892],[128.63942,37.89238],[128.64034,37.89291],[128.64111,37.89349],[128.642,37.89438],[128.64294,37.89489],[128.64341,37.89433],[128.64538,37.89366],[128.64513,37.89297],[128.64604,37.89232],[128.6468,37.89198],[128.64749,37.89144],[128.64777,37.89093],[128.64938,37.89081],[128.65023,37.89068],[128.65086,37.89064],[128.65133,37.8907],[128.65216,37.89089],[128.65274,37.89081],[128.65389,37.89078],[128.6563,37.89144],[128.65651,37.89162],[128.65774,37.89175],[128.65976,37.89177],[128.66419,37.89078],[128.66483,37.8905],[128.66524,37.88918],[128.66608,37.8881],[128.66619,37.8874],[128.66671,37.88671],[128.6667,37.88588],[128.66682,37.88588],[128.66708,37.88573],[128.66788,37.88581],[128.66918,37.88582],[128.66959,37.8859],[128.66982,37.88623],[128.67133,37.88647],[128.67208,37.88759],[128.67402,37.88835],[128.67528,37.88895],[128.67634,37.88982],[128.67705,37.88972],[128.67867,37.89026],[128.67973,37.89011],[128.68013,37.88998],[128.68077,37.89015],[128.68135,37.89018],[128.68166,37.89033],[128.68283,37.88991],[128.68296,37.89005],[128.68416,37.89055],[128.68561,37.89176],[128.68592,37.8921],[128.68599,37.89223],[128.68696,37.8927],[128.68767,37.89324],[128.68861,37.89471],[128.68855,37.89581],[128.68905,37.89746],[128.68966,37.898],[128.68919,37.8995],[128.68944,37.90005],[128.69009,37.90079],[128.68987,37.90245],[128.6904,37.90329],[128.69091,37.90379],[128.69124,37.90386],[128.69209,37.90501],[128.69229,37.90567],[128.69219,37.90709],[128.69189,37.90845],[128.69205,37.90925],[128.6918,37.91086],[128.69123,37.91244],[128.69084,37.91279],[128.69083,37.91354],[128.69139,37.91388],[128.69253,37.91529],[128.6919,37.91644],[128.69238,37.91681],[128.69255,37.91715],[128.69346,37.91794],[128.69307,37.91947],[128.6934,37.92024],[128.69559,37.9221],[128.69515,37.92323],[128.69541,37.92407],[128.69599,37.92422],[128.69586,37.92451],[128.69611,37.92503],[128.69557,37.92638],[128.69445,37.92753],[128.69423,37.92757],[128.69396,37.92861],[128.69435,37.93068],[128.69435,37.93147],[128.69511,37.93213],[128.69587,37.933],[128.69449,37.9346],[128.69486,37.93538],[128.69441,37.93619],[128.69458,37.93684],[128.69423,37.93771],[128.69376,37.93793],[128.69357,37.93882],[128.69285,37.93966],[128.69311,37.94002],[128.69295,37.94181],[128.69228,37.9428],[128.69199,37.94549],[128.69216,37.94659],[128.69203,37.94696],[128.69208,37.94745],[128.6925,37.94801],[128.69283,37.94905],[128.69295,37.95008],[128.69272,37.95062],[128.69318,37.95116],[128.69351,37.95189],[128.69351,37.95307],[128.6943,37.95433],[128.6946,37.95548],[128.69534,37.95693],[128.69697,37.95875],[128.70007,37.96117],[128.70063,37.96179],[128.70136,37.96192],[128.70175,37.96216],[128.70212,37.96267],[128.70258,37.96276],[128.70288,37.96292],[128.704,37.96274],[128.7049,37.96292],[128.70578,37.96365],[128.70544,37.96413],[128.70571,37.96479],[128.70569,37.96544],[128.70589,37.96569],[128.70615,37.96637],[128.70648,37.96634],[128.70671,37.96661],[128.70726,37.96685],[128.70797,37.96758],[128.70771,37.96789],[128.70745,37.96884],[128.70757,37.969],[128.70737,37.96999],[128.70746,37.97124],[128.70795,37.97145],[128.70827,37.97182],[128.70751,37.97324],[128.70821,37.97372],[128.70867,37.97376],[128.70944,37.97366],[128.71006,37.97388],[128.71029,37.97429],[128.71015,37.97484],[128.71028,37.97532],[128.7103,37.97578],[128.71043,37.97603],[128.71076,37.97619],[128.71115,37.97662],[128.71176,37.97684],[128.71204,37.97667],[128.71316,37.97633],[128.71385,37.97623],[128.71455,37.97587],[128.7151,37.97596],[128.71547,37.97575],[128.716,37.97584],[128.71609,37.97558],[128.71712,37.97541],[128.7174,37.97524],[128.71819,37.97504],[128.71956,37.97525],[128.72016,37.97519],[128.72083,37.97507],[128.72141,37.97509],[128.72198,37.97524],[128.72263,37.97596],[128.72347,37.97627],[128.72428,37.97668],[128.72433,37.97703],[128.72481,37.97736],[128.7249,37.97788],[128.72399,37.97836],[128.72364,37.97862],[128.72341,37.97898],[128.72252,37.97955],[128.72258,37.97999],[128.72247,37.98078],[128.72263,37.98126],[128.72243,37.98145],[128.72256,37.98179],[128.72352,37.9817],[128.72399,37.98186],[128.72394,37.98241],[128.72437,37.98313],[128.72572,37.98311],[128.7265,37.9835],[128.72795,37.98442],[128.72834,37.9848],[128.73031,37.98488],[128.73046,37.98515],[128.73014,37.98571],[128.73025,37.98649],[128.73051,37.98681],[128.73124,37.9873],[128.73108,37.98773],[128.73126,37.98804],[128.73146,37.98868],[128.73262,37.98981],[128.73309,37.99009],[128.73331,37.99009],[128.73365,37.98979],[128.73401,37.9896],[128.73453,37.98963],[128.73503,37.98987],[128.73541,37.99063],[128.73565,37.99075],[128.73593,37.9907],[128.73627,37.99039],[128.73668,37.99052],[128.73691,37.99087],[128.73706,37.9913],[128.73755,37.99182],[128.73784,37.99197],[128.73819,37.99202],[128.7391,37.99179],[128.73976,37.99198],[128.74033,37.99223],[128.74075,37.99225],[128.74106,37.99166],[128.74155,37.99138],[128.74233,37.99131],[128.74302,37.99184],[128.74322,37.9916],[128.74419,37.99199],[128.74474,37.99228]]]]},"properties":{"code":"32610330","name":"현북면"}},{"type":"Feature","geometry":{"type":"MultiPolygon","coordinates":[[[[128.77145,37.95903],[128.77134,37.95913],[128.7708,37.95902],[128.77002,37.95895],[128.77012,37.9587],[128.77145,37.9589],[128.77145,37.95903]]],[[[128.76149,37.97944],[128.76114,37.97955],[128.76074,37.97934],[128.7608,37.97921],[128.76147,37.97902],[128.7616,37.97935],[128.76149,37.97944]]],[[[128.81,37.91753],[128.80922,37.91813],[128.80817,37.91903],[128.80635,37.92049],[128.80461,37.92159],[128.80285,37.92281],[128.80178,37.9237],[128.80111,37.92414],[128.80046,37.92466],[128.79962,37.92519],[128.79861,37.92609],[128.7967,37.92747],[128.79593,37.92829],[128.79548,37.92862],[128.79397,37.92993],[128.7935,37.93045],[128.79302,37.93084],[128.79218,37.93165],[128.79074,37.93323],[128.79033,37.93365],[128.78941,37.93472],[128.78914,37.93516],[128.78864,37.93565],[128.78835,37.93626],[128.78814,37.93649],[128.78769,37.93767],[128.78769,37.93831],[128.78776,37.93858],[128.78808,37.93913],[128.78853,37.93948],[128.78915,37.93939],[128.78947,37.93887],[128.78966,37.93899],[128.78925,37.9396],[128.7892,37.93992],[128.7887,37.93987],[128.78778,37.94124],[128.78768,37.94159],[128.78815,37.94184],[128.78843,37.94252],[128.7882,37.94253],[128.78792,37.94195],[128.7858,37.94255],[128.78555,37.94346],[128.78614,37.94433],[128.78681,37.94478],[128.78716,37.94446],[128.78844,37.94419],[128.7884,37.94374],[128.78935,37.94262],[128.78934,37.94252],[128.78978,37.94225],[128.78992,37.94195],[128.7903,37.942],[128.79032,37.94236],[128.79005,37.94246],[128.78952,37.94286],[128.78925,37.94324],[128.7888,37.94371],[128.7889,37.94438],[128.7888,37.94447],[128.78891,37.94495],[128.78912,37.94516],[128.78847,37.94516],[128.78826,37.94497],[128.78759,37.94504],[128.78706,37.94524],[128.78719,37.94553],[128.78706,37.94587],[128.78684,37.94597],[128.78674,37.94633],[128.78681,37.94661],[128.78672,37.94708],[128.78618,37.9473],[128.78584,37.94719],[128.78581,37.94767],[128.78568,37.94815],[128.78523,37.94815],[128.7857,37.94687],[128.78582,37.94634],[128.78526,37.94616],[128.78472,37.94612],[128.78386,37.94627],[128.78276,37.94675],[128.78187,37.94732],[128.78124,37.94789],[128.78024,37.94854],[128.7794,37.94925],[128.77854,37.94982],[128.77802,37.95037],[128.7775,37.95076],[128.77674,37.95124],[128.77606,37.95181],[128.77555,37.95239],[128.77514,37.95271],[128.77455,37.95328],[128.7736,37.95396],[128.77294,37.9546],[128.77207,37.95525],[128.77132,37.95589],[128.77039,37.9569],[128.76962,37.95755],[128.76921,37.95807],[128.76914,37.95846],[128.7694,37.95849],[128.76974,37.95878],[128.76957,37.95911],[128.76979,37.9593],[128.76984,37.95961],[128.76968,37.95982],[128.76971,37.96034],[128.76955,37.96065],[128.76988,37.9608],[128.76966,37.96097],[128.76954,37.96125],[128.7691,37.96149],[128.76902,37.9618],[128.7691,37.96216],[128.76853,37.96222],[128.76825,37.96193],[128.76832,37.96168],[128.76802,37.96168],[128.76778,37.96194],[128.76744,37.96207],[128.76744,37.96234],[128.76765,37.96246],[128.76714,37.96298],[128.76731,37.96321],[128.76718,37.96345],[128.76679,37.96375],[128.76648,37.96377],[128.7663,37.96401],[128.76648,37.96417],[128.76603,37.96438],[128.76564,37.96435],[128.76531,37.96479],[128.76494,37.96476],[128.76471,37.96519],[128.76472,37.96556],[128.765,37.96602],[128.76557,37.96564],[128.7658,37.9654],[128.76606,37.96555],[128.76485,37.96635],[128.76421,37.96578],[128.76372,37.96591],[128.7632,37.96631],[128.76293,37.96693],[128.76284,37.96784],[128.76287,37.96824],[128.76302,37.96884],[128.7634,37.96921],[128.76441,37.96923],[128.7643,37.96934],[128.76314,37.96935],[128.7631,37.96941],[128.7631,37.97048],[128.7648,37.97051],[128.76497,37.97039],[128.76578,37.96935],[128.76595,37.96954],[128.76556,37.96997],[128.76503,37.97067],[128.76529,37.97078],[128.76536,37.97114],[128.76594,37.9714],[128.76587,37.97163],[128.76546,37.97189],[128.76516,37.97185],[128.76493,37.97211],[128.76433,37.97239],[128.76389,37.97242],[128.76374,37.9727],[128.76318,37.97274],[128.76292,37.97259],[128.76263,37.97225],[128.76226,37.97212],[128.76151,37.97238],[128.76108,37.97275],[128.7603,37.97384],[128.75997,37.97476],[128.75988,37.97554],[128.75994,37.97669],[128.76021,37.97742],[128.76077,37.97834],[128.76094,37.97852],[128.76154,37.97837],[128.76294,37.97838],[128.76283,37.97857],[128.76155,37.97856],[128.76129,37.9786],[128.76143,37.97893],[128.7609,37.9791],[128.76036,37.97906],[128.76033,37.97936],[128.76103,37.97974],[128.76151,37.97984],[128.76156,37.97995],[128.76285,37.98014],[128.76314,37.98008],[128.7636,37.98014],[128.76384,37.97988],[128.76402,37.97934],[128.76404,37.97816],[128.76438,37.97808],[128.76432,37.97953],[128.76412,37.97996],[128.76377,37.98032],[128.76322,37.98043],[128.76282,37.98062],[128.76275,37.98103],[128.76295,37.98128],[128.76238,37.98137],[128.7622,37.9816],[128.76193,37.98156],[128.76171,37.98186],[128.76166,37.98215],[128.76144,37.98225],[128.76147,37.98256],[128.76107,37.98283],[128.76047,37.98295],[128.76037,37.98284],[128.76061,37.98248],[128.76083,37.98239],[128.76043,37.98194],[128.76,37.98176],[128.75923,37.98171],[128.75794,37.98193],[128.75722,37.98216],[128.75673,37.98237],[128.75612,37.98277],[128.75521,37.98321],[128.755,37.98347],[128.75429,37.98416],[128.75383,37.98449],[128.75223,37.98578],[128.75163,37.98618],[128.75041,37.98718],[128.75014,37.9876],[128.74907,37.98875],[128.74874,37.98942],[128.74874,37.98985],[128.7492,37.99002],[128.74932,37.99022],[128.74976,37.99042],[128.75,37.99065],[128.74998,37.99086],[128.74966,37.99104],[128.74911,37.99187],[128.74942,37.99196],[128.74923,37.99233],[128.74902,37.9922],[128.7487,37.99246],[128.74821,37.99237],[128.74803,37.99224],[128.74749,37.99227],[128.74705,37.99217],[128.7467,37.99198],[128.74651,37.99207],[128.74625,37.99245],[128.7459,37.99223],[128.74552,37.99226],[128.74536,37.99215],[128.74495,37.99215],[128.74474,37.99228],[128.74419,37.99199],[128.74322,37.9916],[128.74302,37.99184],[128.74233,37.99131],[128.74155,37.99138],[128.74106,37.99166],[128.74075,37.99225],[128.74033,37.99223],[128.73976,37.99198],[128.7391,37.99179],[128.73819,37.99202],[128.73784,37.99197],[128.73755,37.99182],[128.73706,37.9913],[128.73691,37.99087],[128.73668,37.99052],[128.73627,37.99039],[128.73593,37.9907],[128.73565,37.99075],[128.73541,37.99063],[128.73503,37.98987],[128.73453,37.98963],[128.73401,37.9896],[128.73365,37.98979],[128.73331,37.99009],[128.73309,37.99009],[128.73262,37.98981],[128.73146,37.98868],[128.73126,37.98804],[128.73108,37.98773],[128.73124,37.9873],[128.73051,37.98681],[128.73025,37.98649],[128.73014,37.98571],[128.73046,37.98515],[128.73031,37.98488],[128.72834,37.9848],[128.72795,37.98442],[128.7265,37.9835],[128.72572,37.98311],[128.72437,37.98313],[128.72394,37.98241],[128.72399,37.98186],[128.72352,37.9817],[128.72256,37.98179],[128.72243,37.98145],[128.72263,37.98126],[128.72247,37.98078],[128.72258,37.97999],[128.72252,37.97955],[128.72341,37.97898],[128.72364,37.97862],[128.72399,37.97836],[128.7249,37.97788],[128.72481,37.97736],[128.72433,37.97703],[128.72428,37.97668],[128.72347,37.97627],[128.72263,37.97596],[128.72198,37.97524],[128.72141,37.97509],[128.72083,37.97507],[128.72016,37.97519],[128.71956,37.97525],[128.71819,37.97504],[128.7174,37.97524],[128.71712,37.97541],[128.71609,37.97558],[128.716,37.97584],[128.71547,37.97575],[128.7151,37.97596],[128.71455,37.97587],[128.71385,37.97623],[128.71316,37.97633],[128.71204,37.97667],[128.71176,37.97684],[128.71115,37.97662],[128.71076,37.97619],[128.71043,37.97603],[128.7103,37.97578],[128.71028,37.97532],[128.71015,37.97484],[128.71029,37.97429],[128.71006,37.97388],[128.70944,37.97366],[128.70867,37.97376],[128.70821,37.97372],[128.70751,37.97324],[128.70827,37.97182],[128.70795,37.97145],[128.70746,37.97124],[128.70737,37.96999],[128.70757,37.969],[128.70745,37.96884],[128.70771,37.96789],[128.70797,37.96758],[128.70726,37.96685],[128.70671,37.96661],[128.70648,37.96634],[128.70615,37.96637],[128.70589,37.96569],[128.70569,37.96544],[128.70571,37.96479],[128.70544,37.96413],[128.70578,37.96365],[128.7049,37.96292],[128.704,37.96274],[128.70288,37.96292],[128.70258,37.96276],[128.70212,37.96267],[128.70175,37.96216],[128.70136,37.96192],[128.70063,37.96179],[128.70007,37.96117],[128.69697,37.95875],[128.69534,37.95693],[128.6946,37.95548],[128.6943,37.95433],[128.69351,37.95307],[128.69351,37.95189],[128.69318,37.95116],[128.69272,37.95062],[128.69295,37.95008],[128.69283,37.94905],[128.6925,37.94801],[128.69208,37.94745],[128.69203,37.94696],[128.69216,37.94659],[128.69199,37.94549],[128.69228,37.9428],[128.69295,37.94181],[128.69311,37.94002],[128.69285,37.93966],[128.69357,37.93882],[128.69376,37.93793],[128.69423,37.93771],[128.69458,37.93684],[128.69441,37.93619],[128.69486,37.93538],[128.69449,37.9346],[128.69587,37.933],[128.69511,37.93213],[128.69435,37.93147],[128.69435,37.93068],[128.69396,37.92861],[128.69423,37.92757],[128.69445,37.92753],[128.69557,37.92638],[128.69611,37.92503],[128.69586,37.92451],[128.69599,37.92422],[128.69541,37.92407],[128.69515,37.92323],[128.69559,37.9221],[128.6934,37.92024],[128.69307,37.91947],[128.69346,37.91794],[128.69255,37.91715],[128.69238,37.91681],[128.6919,37.91644],[128.69253,37.91529],[128.69139,37.91388],[128.69083,37.91354],[128.69084,37.91279],[128.69123,37.91244],[128.6918,37.91086],[128.69205,37.90925],[128.69189,37.90845],[128.69219,37.90709],[128.69229,37.90567],[128.69209,37.90501],[128.69124,37.90386],[128.69091,37.90379],[128.6904,37.90329],[128.68987,37.90245],[128.69009,37.90079],[128.68944,37.90005],[128.68919,37.8995],[128.68966,37.898],[128.68905,37.89746],[128.68855,37.89581],[128.68861,37.89471],[128.68767,37.89324],[128.68696,37.8927],[128.68599,37.89223],[128.68592,37.8921],[128.68664,37.89246],[128.68713,37.89239],[128.68773,37.8924],[128.68829,37.89257],[128.68913,37.89251],[128.6898,37.89282],[128.69124,37.89291],[128.69349,37.89419],[128.69441,37.89534],[128.69551,37.89566],[128.69613,37.89605],[128.69658,37.89602],[128.69811,37.89677],[128.69942,37.8972],[128.70029,37.89766],[128.70217,37.89841],[128.70402,37.89817],[128.70448,37.89787],[128.7075,37.89797],[128.70781,37.89785],[128.70881,37.89729],[128.7106,37.89805],[128.71146,37.89813],[128.71337,37.89875],[128.71326,37.89968],[128.71405,37.90012],[128.71511,37.90113],[128.71567,37.90154],[128.71753,37.90214],[128.71759,37.90261],[128.71857,37.90339],[128.7192,37.90279],[128.72331,37.90189],[128.72372,37.90219],[128.72452,37.90231],[128.72517,37.90257],[128.72705,37.90267],[128.72778,37.90182],[128.7291,37.90101],[128.73157,37.90025],[128.73241,37.89988],[128.73463,37.90105],[128.73504,37.90114],[128.73545,37.90179],[128.73543,37.90254],[128.73564,37.90281],[128.73638,37.90341],[128.73888,37.90378],[128.73973,37.90353],[128.74094,37.90345],[128.74188,37.90381],[128.74221,37.90405],[128.74335,37.90388],[128.7438,37.9039],[128.74466,37.90421],[128.74507,37.90518],[128.74525,37.9054],[128.74561,37.9056],[128.74605,37.90615],[128.74611,37.90646],[128.74601,37.90685],[128.74621,37.90718],[128.74646,37.90738],[128.74643,37.90777],[128.74628,37.90829],[128.74645,37.90854],[128.7466,37.9092],[128.74694,37.90951],[128.74738,37.90977],[128.74861,37.90954],[128.74934,37.90978],[128.74973,37.91001],[128.75039,37.91013],[128.75129,37.91049],[128.75219,37.91075],[128.75238,37.91126],[128.75264,37.91169],[128.7537,37.91225],[128.7545,37.91235],[128.75556,37.91255],[128.75611,37.91243],[128.7562,37.9125],[128.75695,37.91232],[128.75735,37.91179],[128.7573,37.91148],[128.75824,37.91075],[128.75895,37.91053],[128.75938,37.91046],[128.75959,37.91024],[128.75999,37.91007],[128.76017,37.9101],[128.76135,37.91009],[128.76242,37.90982],[128.76299,37.90999],[128.76343,37.91023],[128.76392,37.91033],[128.76458,37.91023],[128.76485,37.90995],[128.7652,37.91011],[128.76581,37.91024],[128.76633,37.9102],[128.76671,37.91045],[128.76709,37.9106],[128.76771,37.9105],[128.76797,37.91057],[128.769,37.91063],[128.77008,37.91002],[128.77035,37.90975],[128.77144,37.91081],[128.77314,37.91106],[128.77385,37.91026],[128.77554,37.91012],[128.7766,37.91062],[128.77682,37.9108],[128.77679,37.91125],[128.77764,37.91233],[128.77791,37.91279],[128.77794,37.91315],[128.77832,37.91341],[128.77884,37.91344],[128.77978,37.91328],[128.78107,37.91355],[128.78188,37.91413],[128.78247,37.91412],[128.7828,37.91426],[128.78301,37.91469],[128.7837,37.9147],[128.78401,37.91455],[128.78499,37.91448],[128.78541,37.9142],[128.78581,37.91378],[128.78631,37.91339],[128.78667,37.91328],[128.78762,37.91316],[128.7883,37.91302],[128.7897,37.91333],[128.79045,37.91296],[128.79127,37.91267],[128.79164,37.91263],[128.79215,37.9127],[128.7929,37.91239],[128.79315,37.91221],[128.79348,37.91221],[128.79425,37.9124],[128.79484,37.91244],[128.79603,37.91214],[128.79644,37.91239],[128.7965,37.91283],[128.79723,37.91302],[128.7984,37.91269],[128.79889,37.91286],[128.79951,37.91299],[128.80032,37.91305],[128.80079,37.91314],[128.8016,37.91307],[128.80202,37.91296],[128.80223,37.91303],[128.80262,37.91294],[128.80343,37.91301],[128.80387,37.91326],[128.80435,37.91366],[128.80437,37.91383],[128.80521,37.91463],[128.80551,37.915],[128.80575,37.91552],[128.806,37.91569],[128.80648,37.91565],[128.80692,37.91585],[128.8072,37.91622],[128.80756,37.91647],[128.80818,37.91664],[128.80867,37.91698],[128.81,37.91753]]]]},"properties":{"code":"32610340","name":"현남면"}},{"type":"Feature","geometry":{"type":"MultiPolygon","coordinates":[[[[128.63208,38.12489],[128.63188,38.12466],[128.63218,38.12445],[128.63248,38.12437],[128.63252,38.12461],[128.63208,38.12489]]],[[[128.60872,38.16128],[128.60805,38.16066],[128.60602,38.15952],[128.60473,38.15904],[128.6034,38.15895],[128.60125,38.15953],[128.60014,38.15995],[128.59804,38.15997],[128.597,38.15989],[128.59554,38.1602],[128.59365,38.16099],[128.59167,38.16065],[128.59067,38.16057],[128.5902,38.16059],[128.58882,38.16076],[128.58724,38.1609],[128.58658,38.16126],[128.58406,38.16162],[128.58186,38.16152],[128.57842,38.16113],[128.57603,38.1613],[128.57339,38.16115],[128.57272,38.16097],[128.57116,38.16124],[128.56985,38.16189],[128.56991,38.16117],[128.57025,38.16066],[128.57041,38.15985],[128.57014,38.1589],[128.57004,38.15623],[128.56991,38.15593],[128.57014,38.1556],[128.57048,38.15527],[128.57032,38.15512],[128.57029,38.1544],[128.57018,38.15427],[128.56966,38.15415],[128.56971,38.15381],[128.56924,38.15368],[128.56869,38.15381],[128.56844,38.15372],[128.56824,38.15342],[128.56735,38.15345],[128.56724,38.15331],[128.56669,38.15302],[128.56655,38.15263],[128.56616,38.15235],[128.56567,38.15227],[128.5652,38.15186],[128.5648,38.15173],[128.56464,38.15145],[128.56393,38.15117],[128.56344,38.15117],[128.56343,38.15086],[128.56315,38.15031],[128.56268,38.15017],[128.56257,38.15],[128.5621,38.1498],[128.562,38.14941],[128.56149,38.14925],[128.56136,38.14894],[128.56068,38.14881],[128.56037,38.14855],[128.55985,38.14834],[128.55952,38.14836],[128.55938,38.14852],[128.55899,38.14855],[128.55834,38.14841],[128.55771,38.14863],[128.55721,38.14871],[128.55675,38.14891],[128.55429,38.14891],[128.55421,38.1487],[128.55258,38.14852],[128.55169,38.14931],[128.55086,38.14912],[128.55044,38.14942],[128.55001,38.14941],[128.54978,38.14926],[128.54925,38.14918],[128.54887,38.14905],[128.5477,38.14918],[128.54595,38.14923],[128.54587,38.14926],[128.54477,38.14891],[128.54428,38.14887],[128.54318,38.14858],[128.54289,38.14828],[128.54229,38.14831],[128.54151,38.14885],[128.53971,38.14941],[128.53875,38.14938],[128.53771,38.14949],[128.53656,38.14914],[128.53586,38.1489],[128.53506,38.14855],[128.53545,38.14504],[128.53533,38.14484],[128.53486,38.14465],[128.53453,38.14431],[128.53402,38.14402],[128.53284,38.14301],[128.53217,38.14282],[128.53171,38.14244],[128.53146,38.14194],[128.53147,38.14135],[128.53141,38.14065],[128.53127,38.14026],[128.53095,38.13875],[128.53056,38.13798],[128.53035,38.13725],[128.52976,38.13642],[128.52987,38.13609],[128.52794,38.13633],[128.52752,38.13647],[128.52704,38.13683],[128.52642,38.13706],[128.52603,38.13729],[128.52543,38.13744],[128.52507,38.13816],[128.52295,38.13804],[128.52189,38.13732],[128.52036,38.13676],[128.51795,38.13613],[128.51588,38.13553],[128.51514,38.13556],[128.51412,38.13611],[128.51336,38.13612],[128.51297,38.13624],[128.51138,38.13628],[128.51057,38.13626],[128.50881,38.13653],[128.50697,38.13624],[128.50443,38.13617],[128.50261,38.13567],[128.50219,38.13537],[128.50127,38.13513],[128.50105,38.13513],[128.50048,38.13495],[128.49994,38.13512],[128.49977,38.13528],[128.49928,38.13499],[128.49862,38.13521],[128.49737,38.13614],[128.49643,38.13624],[128.49556,38.13621],[128.49394,38.13595],[128.49129,38.13649],[128.49017,38.13555],[128.48856,38.13493],[128.48796,38.13389],[128.48597,38.13267],[128.48329,38.13171],[128.48129,38.13068],[128.47999,38.12933],[128.4783,38.12839],[128.47733,38.12648],[128.47561,38.1253],[128.47494,38.12462],[128.4734,38.12404],[128.47204,38.12302],[128.47118,38.12204],[128.47001,38.12107],[128.46925,38.12027],[128.46825,38.11961],[128.46724,38.11902],[128.46693,38.11895],[128.46687,38.11891],[128.4677,38.1181],[128.46769,38.1172],[128.46801,38.11666],[128.46875,38.11638],[128.46917,38.11608],[128.46959,38.11605],[128.46985,38.11592],[128.47038,38.11586],[128.47108,38.116],[128.47207,38.116],[128.4726,38.1159],[128.47311,38.11553],[128.47423,38.1152],[128.47572,38.11511],[128.47622,38.11488],[128.47732,38.11461],[128.47832,38.11459],[128.47946,38.11423],[128.47999,38.11398],[128.48239,38.1121],[128.48317,38.11195],[128.48333,38.11205],[128.48413,38.11181],[128.48454,38.11159],[128.48522,38.11091],[128.48633,38.11041],[128.48648,38.11017],[128.48695,38.11005],[128.48752,38.10981],[128.48861,38.10963],[128.48936,38.10921],[128.49108,38.10864],[128.49141,38.10892],[128.49216,38.10876],[128.49319,38.10913],[128.49377,38.10957],[128.49444,38.10985],[128.49532,38.10985],[128.49579,38.10959],[128.49678,38.10938],[128.49725,38.10902],[128.49906,38.10932],[128.50005,38.11044],[128.50124,38.11075],[128.50181,38.111],[128.50354,38.11061],[128.50461,38.11069],[128.50484,38.11082],[128.50693,38.10993],[128.5073,38.10969],[128.50777,38.10968],[128.50805,38.1095],[128.50837,38.10948],[128.50904,38.10919],[128.50996,38.10904],[128.51047,38.10935],[128.51053,38.1096],[128.51134,38.11007],[128.51176,38.11012],[128.5124,38.11046],[128.51363,38.11066],[128.51379,38.11082],[128.51442,38.11112],[128.51673,38.11111],[128.51871,38.11167],[128.52003,38.11146],[128.52085,38.11123],[128.5228,38.11192],[128.52431,38.11186],[128.5255,38.11268],[128.52577,38.11248],[128.52615,38.1125],[128.52708,38.11209],[128.52777,38.11189],[128.52814,38.11195],[128.5286,38.11181],[128.52943,38.11198],[128.53015,38.11185],[128.53095,38.1116],[128.53191,38.1114],[128.53237,38.11152],[128.53355,38.11142],[128.53411,38.11162],[128.53481,38.11163],[128.53518,38.11204],[128.53545,38.11223],[128.53634,38.11201],[128.53651,38.11207],[128.53752,38.1116],[128.53804,38.1114],[128.53856,38.11141],[128.5395,38.11128],[128.54004,38.11173],[128.54074,38.11195],[128.54103,38.11195],[128.54182,38.1123],[128.54286,38.11264],[128.54427,38.1127],[128.54469,38.11248],[128.54551,38.11255],[128.54607,38.11254],[128.54648,38.11268],[128.54695,38.11325],[128.54754,38.1138],[128.54783,38.11386],[128.54864,38.11454],[128.54871,38.1148],[128.54896,38.11499],[128.54965,38.11502],[128.55007,38.11447],[128.55072,38.11456],[128.55134,38.11438],[128.55183,38.11437],[128.55362,38.11462],[128.55501,38.1149],[128.55561,38.11524],[128.5558,38.11543],[128.55697,38.11534],[128.55797,38.11523],[128.55879,38.11482],[128.55923,38.11485],[128.55951,38.11476],[128.56032,38.115],[128.56078,38.11487],[128.56182,38.11445],[128.56203,38.11398],[128.56212,38.11363],[128.56223,38.11269],[128.56263,38.1124],[128.56252,38.11197],[128.5627,38.11177],[128.5636,38.11157],[128.56468,38.11173],[128.56564,38.1117],[128.56679,38.1118],[128.5675,38.11197],[128.56797,38.11143],[128.56929,38.11079],[128.56964,38.11094],[128.57042,38.11096],[128.57105,38.11078],[128.57139,38.11059],[128.57172,38.11058],[128.57273,38.11154],[128.57339,38.11127],[128.57381,38.11068],[128.57391,38.11019],[128.57427,38.10977],[128.57503,38.10936],[128.57575,38.10916],[128.57616,38.1094],[128.57645,38.10944],[128.57677,38.10925],[128.57756,38.1094],[128.57814,38.10929],[128.57839,38.10906],[128.5784,38.10867],[128.57809,38.10809],[128.57832,38.10626],[128.57873,38.10589],[128.57919,38.10528],[128.58036,38.10465],[128.58066,38.10454],[128.58124,38.10465],[128.58167,38.10495],[128.58226,38.10449],[128.58317,38.10471],[128.58351,38.10487],[128.58373,38.10518],[128.58393,38.10516],[128.5842,38.10598],[128.58441,38.10607],[128.58452,38.10682],[128.58523,38.10676],[128.58562,38.10728],[128.58595,38.10747],[128.58703,38.10782],[128.58755,38.10755],[128.5879,38.10753],[128.58814,38.10738],[128.58896,38.10753],[128.58907,38.10725],[128.58903,38.10672],[128.58941,38.10644],[128.58983,38.10625],[128.58993,38.10584],[128.59049,38.1055],[128.59074,38.10516],[128.59102,38.1051],[128.59155,38.10514],[128.5921,38.10468],[128.59275,38.10446],[128.59321,38.10415],[128.59374,38.10389],[128.5942,38.10398],[128.59509,38.10333],[128.59511,38.10295],[128.59532,38.10276],[128.5959,38.10249],[128.59716,38.10225],[128.59769,38.10238],[128.59789,38.1021],[128.5988,38.10188],[128.59932,38.10225],[128.60017,38.103],[128.6006,38.10288],[128.6009,38.10303],[128.60144,38.10311],[128.60224,38.10335],[128.60255,38.10331],[128.60335,38.10373],[128.60359,38.10359],[128.60413,38.10382],[128.60413,38.10397],[128.6047,38.10411],[128.60531,38.10447],[128.60571,38.10484],[128.60648,38.10478],[128.60711,38.10509],[128.60818,38.10529],[128.60922,38.10535],[128.61049,38.10551],[128.61204,38.10575],[128.6119,38.10599],[128.61179,38.10674],[128.61213,38.10769],[128.61211,38.1079],[128.61171,38.10838],[128.61105,38.10868],[128.6107,38.10866],[128.61026,38.10885],[128.60989,38.10941],[128.60866,38.10907],[128.60837,38.10911],[128.60755,38.109],[128.60657,38.10877],[128.6059,38.10875],[128.60552,38.10934],[128.60549,38.11018],[128.60555,38.11082],[128.60505,38.11123],[128.60488,38.11151],[128.60562,38.11163],[128.60684,38.11154],[128.60713,38.11172],[128.60741,38.11203],[128.60781,38.11219],[128.608,38.11249],[128.60892,38.11315],[128.60914,38.11289],[128.60971,38.1128],[128.61052,38.1133],[128.61062,38.11404],[128.61118,38.11418],[128.61172,38.11443],[128.61237,38.11456],[128.61313,38.11492],[128.61372,38.11472],[128.61427,38.11412],[128.61452,38.11411],[128.61526,38.11427],[128.6156,38.11476],[128.61578,38.1144],[128.61618,38.11413],[128.61795,38.1137],[128.619,38.11414],[128.61971,38.11381],[128.62041,38.11336],[128.6208,38.11326],[128.62134,38.1129],[128.62177,38.11285],[128.62209,38.11231],[128.62238,38.11214],[128.62294,38.1122],[128.6236,38.11203],[128.62414,38.11216],[128.62458,38.11199],[128.62508,38.11212],[128.62511,38.11241],[128.62548,38.11249],[128.62589,38.11273],[128.62651,38.11288],[128.62702,38.11277],[128.62709,38.1125],[128.62745,38.11232],[128.62841,38.11222],[128.6293,38.11251],[128.62994,38.11341],[128.63022,38.11366],[128.63082,38.11385],[128.63116,38.11385],[128.63137,38.11423],[128.63161,38.11435],[128.63389,38.11531],[128.63444,38.11558],[128.6358,38.11631],[128.6354,38.11658],[128.63512,38.11688],[128.63408,38.11826],[128.63346,38.11888],[128.63289,38.1196],[128.63243,38.12037],[128.63208,38.12134],[128.63212,38.12167],[128.63234,38.12194],[128.63259,38.12183],[128.63278,38.12216],[128.63211,38.12264],[128.63259,38.12304],[128.63242,38.12328],[128.63243,38.1236],[128.63297,38.12375],[128.63439,38.12265],[128.63468,38.12277],[128.63313,38.12394],[128.63317,38.12428],[128.63288,38.12432],[128.63251,38.1239],[128.63205,38.12416],[128.63201,38.12442],[128.63143,38.12458],[128.6314,38.12479],[128.63106,38.12509],[128.63124,38.1254],[128.63093,38.12559],[128.63064,38.12562],[128.63074,38.12589],[128.63071,38.12625],[128.63031,38.12612],[128.63018,38.1262],[128.62989,38.12678],[128.62999,38.12695],[128.62971,38.12746],[128.62988,38.12799],[128.62976,38.12817],[128.62922,38.12848],[128.62912,38.12881],[128.62859,38.12897],[128.6283,38.1288],[128.62786,38.12871],[128.62767,38.12846],[128.62708,38.12845],[128.6268,38.12826],[128.62613,38.12818],[128.62562,38.12842],[128.62494,38.12888],[128.62434,38.12947],[128.62362,38.13057],[128.6235,38.13125],[128.62362,38.13171],[128.62325,38.13182],[128.62261,38.13172],[128.62259,38.13304],[128.62366,38.13313],[128.62401,38.13268],[128.62479,38.1321],[128.6249,38.13225],[128.62427,38.13272],[128.6237,38.13345],[128.62277,38.13339],[128.62213,38.13343],[128.62194,38.13368],[128.62154,38.13377],[128.62126,38.13399],[128.6212,38.13444],[128.62131,38.13463],[128.62126,38.13501],[128.62102,38.1352],[128.62072,38.13518],[128.62029,38.13535],[128.61995,38.13538],[128.6196,38.13556],[128.61879,38.13624],[128.61839,38.13676],[128.61785,38.13722],[128.61737,38.1378],[128.61673,38.13844],[128.6157,38.13973],[128.61488,38.14061],[128.61439,38.14138],[128.6141,38.14168],[128.6126,38.14369],[128.61211,38.14457],[128.61185,38.14477],[128.61083,38.14631],[128.61067,38.14671],[128.60975,38.14808],[128.60958,38.14838],[128.60941,38.14899],[128.6091,38.14948],[128.6088,38.15015],[128.60864,38.15103],[128.6086,38.15168],[128.60875,38.15244],[128.60905,38.15308],[128.60939,38.15355],[128.60965,38.15379],[128.61014,38.15357],[128.61099,38.15346],[128.6109,38.15363],[128.61017,38.15374],[128.60894,38.1543],[128.60945,38.15503],[128.6102,38.15574],[128.61065,38.15563],[128.61163,38.15456],[128.61194,38.15348],[128.61221,38.15336],[128.61188,38.1546],[128.61123,38.15542],[128.611,38.15563],[128.6107,38.1561],[128.6103,38.1563],[128.61017,38.15662],[128.60999,38.1574],[128.6098,38.1578],[128.6095,38.15874],[128.60945,38.15934],[128.60951,38.15999],[128.60941,38.16043],[128.60919,38.16104],[128.60917,38.16128],[128.60872,38.16128]]]]},"properties":{"code":"32610350","name":"강현면"}}],"profileId":"gangwon","schemaVersion":2,"dataVersion":"gangwon-2022-563a6bb6162048a7"}
